Dataset_Name,Organization_Name,Observer_Name,Island_Name,Location_Name,Site_Name,Depth_ft,Depth_m,DepthBin_5m,Longitude_DD,Latitude_DD,ObservationDate,AreaSurveyed_m2,PercentLiveCoralCover,PctCoralUnbleached,PctCoralPartialBleached,PctCoralFullyBleached,PctAffected,UploadDate,InstitutionDataOwner,SupplierOfDataset,OwnerOfRecordForDataset,DataAuthors,DataManager,Method_Type,RasterAddress_1km,Longitude_RAS_1km,Latitude_RAS_1km,,,,,,,
NOAA_MHI_2015,NOAA-CREP,CREP-TOW,Lanai,,20151103101_LAN,29.47178572,10.48300029,"(10,15]",-156.8405412,20.87505837,2015/11/03,2603.4,92.5,74,20,6,26,10/5/2016,NOAA-CREP,NOAA CREP,NOAA CREP,"Noah Pomeroy, Thomas Oliver",Troy Kanemura,Towboard Survey,15868,-156.8430144,20.87757805,,,,,,,
NOAA_MHI_2015,NOAA-CREP,CREP-TOW,Lanai,,20151103102_LAN,25.99425155,9.423047872,"(5,10]",-156.838938,20.87314579,2015/11/03,2778.6,92.5,67,20,13,33,10/5/2016,NOAA-CREP,NOAA CREP,NOAA CREP,"Noah Pomeroy, Thomas Oliver",Troy Kanemura,Towboard Survey,15868,-156.8430144,20.87757805,,,,,,,
NOAA_MHI_2015,NOAA-CREP,CREP-TOW,Lanai,,20151103103_LAN,28.99323047,10.33713665,"(10,15]",-156.8370376,20.87155338,2015/11/03,2566,92.5,78.5,17.5,4,21.5,10/5/2016,NOAA-CREP,NOAA CREP,NOAA CREP,"Noah Pomeroy, Thomas Oliver",Troy Kanemura,Towboard Survey,16104,-156.8340004,20.86855284,,,,,,,
NOAA_MHI_2015,NOAA-CREP,CREP-TOW,Lanai,,20151103104_LAN,25.82708494,9.37209549,"(5,10]",-156.8353115,20.86981889,2015/11/03,2796.6,92.5,70,22.5,7.5,30,10/5/2016,NOAA-CREP,NOAA CREP,NOAA CREP,"Noah Pomeroy, Thomas Oliver",Troy Kanemura,Towboard Survey,16104,-156.8340004,20.86855284,,,,,,,
NOAA_MHI_2015,NOAA-CREP,CREP-TOW,Lanai,,20151103105_LAN,22.78576188,8.445100221,"(5,10]",-156.8336751,20.86789616,2015/11/03,2664.9,92.5,62.5,30,7.5,37.5,10/5/2016,NOAA-CREP,NOAA CREP,NOAA CREP,"Noah Pomeroy, Thomas Oliver",Troy Kanemura,Towboard Survey,16104,-156.8340004,20.86855284,,,,,,,
NOAA_MHI_2015,NOAA-CREP,CREP-TOW,Lanai,,20151103106_LAN,22.86382861,8.46889496,"(5,10]",-156.8319007,20.86619522,2015/11/03,2730.9,92.5,55,32.5,12.5,45,10/5/2016,NOAA-CREP,NOAA CREP,NOAA CREP,"Noah Pomeroy, Thomas Oliver",Troy Kanemura,Towboard Survey,16104,-156.8340004,20.86855284,,,,,,,
NOAA_MHI_2015,NOAA-CREP,CREP-TOW,Lanai,,20151103107_LAN,20.12329115,7.633579143,"(5,10]",-156.8302665,20.86422004,2015/11/03,2784.2,82.5,52.5,35,12.5,47.5,10/5/2016,NOAA-CREP,NOAA CREP,NOAA CREP,"Noah Pomeroy, Thomas Oliver",Troy Kanemura,Towboard Survey,16104,-156.8340004,20.86855284,,,,,,,
NOAA_MHI_2015,NOAA-CREP,CREP-TOW,Lanai,,20151103108_LAN,17.33814579,6.784666837,"(5,10]",-156.8287243,20.8622813,2015/11/03,2783.4,77.5,42.5,42.5,15,57.5,10/5/2016,NOAA-CREP,NOAA CREP,NOAA CREP,"Noah Pomeroy, Thomas Oliver",Troy Kanemura,Towboard Survey,16340,-156.8249864,20.85952763,,,,,,,
NOAA_MHI_2015,NOAA-CREP,CREP-TOW,Lanai,,20151103109_LAN,9.583160963,4.420947462,"[0,5]",-156.8276121,20.85995604,2015/11/03,2809.3,67.5,40,40,20,60,10/5/2016,NOAA-CREP,NOAA CREP,NOAA CREP,"Noah Pomeroy, Thomas Oliver",Troy Kanemura,Towboard Survey,16340,-156.8249864,20.85952763,,,,,,,
NOAA_MHI_2015,NOAA-CREP,CREP-TOW,Lanai,,20151103110_LAN,10.74578705,4.775315893,"[0,5]",-156.8260955,20.85806608,2015/11/03,2532,60,30,42.5,27.5,70,10/5/2016,NOAA-CREP,NOAA CREP,NOAA CREP,"Noah Pomeroy, Thomas Oliver",Troy Kanemura,Towboard Survey,16340,-156.8249864,20.85952763,,,,,,,
NOAA_MHI_2015,NOAA-CREP,CREP-TOW,Lanai,,20151103201_LAN,22.14854074,8.250875218,"(5,10]",-156.8225516,20.85636898,2015/11/03,1737.8,85,88,6.5,5.5,12,10/5/2016,NOAA-CREP,NOAA CREP,NOAA CREP,"Noah Pomeroy, Thomas Oliver",Troy Kanemura,Towboard Survey,16340,-156.8249864,20.85952763,,,,,,,
NOAA_MHI_2015,NOAA-CREP,CREP-TOW,Lanai,,20151103202_LAN,18.28113874,7.072091088,"(5,10]",-156.8216489,20.85513025,2015/11/03,1619.3,82.5,87,7,6,13,10/5/2016,NOAA-CREP,NOAA CREP,NOAA CREP,"Noah Pomeroy, Thomas Oliver",Troy Kanemura,Towboard Survey,16340,-156.8249864,20.85952763,,,,,,,
NOAA_MHI_2015,NOAA-CREP,CREP-TOW,Lanai,,20151103203_LAN,14.72141437,5.9870871,"(5,10]",-156.8205166,20.85407488,2015/11/03,1756.1,85,81,12.5,6.5,19,10/5/2016,NOAA-CREP,NOAA CREP,NOAA CREP,"Noah Pomeroy, Thomas Oliver",Troy Kanemura,Towboard Survey,16575,-156.8249864,20.85050241,,,,,,,
NOAA_MHI_2015,NOAA-CREP,CREP-TOW,Lanai,,20151103204_LAN,18.59669589,7.168272907,"(5,10]",-156.8193464,20.85290556,2015/11/03,1843.8,82.5,81.5,9.5,9,18.5,10/5/2016,NOAA-CREP,NOAA CREP,NOAA CREP,"Noah Pomeroy, Thomas Oliver",Troy Kanemura,Towboard Survey,16576,-156.8159724,20.85050241,,,,,,,
NOAA_MHI_2015,NOAA-CREP,CREP-TOW,Lanai,,20151103205_LAN,28.78655885,10.27414314,"(10,15]",-156.8181394,20.85177997,2015/11/03,1747.9,77.5,91.5,3,5.5,8.5,10/5/2016,NOAA-CREP,NOAA CREP,NOAA CREP,"Noah Pomeroy, Thomas Oliver",Troy Kanemura,Towboard Survey,16576,-156.8159724,20.85050241,,,,,,,
NOAA_MHI_2015,NOAA-CREP,CREP-TOW,Lanai,,20151104101_LAN,18.44041839,7.120639525,"(5,10]",-156.815069,20.8460765,2015/11/04,2143.2,92.5,88,3.5,8.5,12,10/5/2016,NOAA-CREP,NOAA CREP,NOAA CREP,"Noah Pomeroy, Thomas Oliver",Troy Kanemura,Towboard Survey,16576,-156.8159724,20.85050241,,,,,,,
NOAA_MHI_2015,NOAA-CREP,CREP-TOW,Lanai,,20151104102_LAN,27.65247926,9.928475678,"(5,10]",-156.8156423,20.84792218,2015/11/04,2211.4,92.5,88,6,6,12,10/5/2016,NOAA-CREP,NOAA CREP,NOAA CREP,"Noah Pomeroy, Thomas Oliver",Troy Kanemura,Towboard Survey,16576,-156.8159724,20.85050241,,,,,,,
NOAA_MHI_2015,NOAA-CREP,CREP-TOW,Lanai,,20151104103_LAN,27.05262339,9.745639609,"(5,10]",-156.8167122,20.84963125,2015/11/04,2233,90,91,3.5,5.5,9,10/5/2016,NOAA-CREP,NOAA CREP,NOAA CREP,"Noah Pomeroy, Thomas Oliver",Troy Kanemura,Towboard Survey,16576,-156.8159724,20.85050241,,,,,,,
NOAA_MHI_2015,NOAA-CREP,CREP-TOW,Lanai,,20151104104_LAN,23.69218268,8.721377281,"(5,10]",-156.8179077,20.85125253,2015/11/04,2182.1,92.5,88,6,6,12,10/5/2016,NOAA-CREP,NOAA CREP,NOAA CREP,"Noah Pomeroy, Thomas Oliver",Troy Kanemura,Towboard Survey,16576,-156.8159724,20.85050241,,,,,,,
NOAA_MHI_2015,NOAA-CREP,CREP-TOW,Lanai,,20151104105_LAN,28.63746811,10.22870028,"(10,15]",-156.8190393,20.85277507,2015/11/04,1948.4,92.5,88.5,3.5,8,11.5,10/5/2016,NOAA-CREP,NOAA CREP,NOAA CREP,"Noah Pomeroy, Thomas Oliver",Troy Kanemura,Towboard Survey,16576,-156.8159724,20.85050241,,,,,,,
NOAA_MHI_2015,NOAA-CREP,CREP-TOW,Lanai,,20151104201_LAN,27.01782497,9.735033051,"(5,10]",-156.811779,20.79114614,2015/11/04,2412.7,70,65,15,20,35,10/5/2016,NOAA-CREP,NOAA CREP,NOAA CREP,"Noah Pomeroy, Thomas Oliver",Troy Kanemura,Towboard Survey,18221,-156.8159724,20.78732591,,,,,,,
NOAA_MHI_2015,NOAA-CREP,CREP-TOW,Lanai,,20151104202_LAN,27.3851177,9.846983875,"(5,10]",-156.8104604,20.79276648,2015/11/04,2158.1,60,77.5,10,12.5,22.5,10/5/2016,NOAA-CREP,NOAA CREP,NOAA CREP,"Noah Pomeroy, Thomas Oliver",Troy Kanemura,Towboard Survey,17987,-156.8069584,20.79635113,,,,,,,
NOAA_MHI_2015,NOAA-CREP,CREP-TOW,Lanai,,20151104203_LAN,26.15238241,9.471246159,"(5,10]",-156.8096358,20.79436252,2015/11/04,1813,72.5,80,10,10,20,10/5/2016,NOAA-CREP,NOAA CREP,NOAA CREP,"Noah Pomeroy, Thomas Oliver",Troy Kanemura,Towboard Survey,17987,-156.8069584,20.79635113,,,,,,,
NOAA_MHI_2015,NOAA-CREP,CREP-TOW,Lanai,,20151104204_LAN,28.09679105,10.06390191,"(10,15]",-156.8088508,20.79581399,2015/11/04,1828.7,77.5,77.5,10,12.5,22.5,10/5/2016,NOAA-CREP,NOAA CREP,NOAA CREP,"Noah Pomeroy, Thomas Oliver",Troy Kanemura,Towboard Survey,17987,-156.8069584,20.79635113,,,,,,,
NOAA_MHI_2015,NOAA-CREP,CREP-TOW,Lanai,,20151104205_LAN,28.36280802,10.14498388,"(10,15]",-156.8081476,20.79723412,2015/11/04,1672.7,57.5,62.5,17.5,20,37.5,10/5/2016,NOAA-CREP,NOAA CREP,NOAA CREP,"Noah Pomeroy, Thomas Oliver",Troy Kanemura,Towboard Survey,17987,-156.8069584,20.79635113,,,,,,,
NOAA_MHI_2015,NOAA-CREP,CREP-TOW,Lanai,,20151104206_LAN,26.86443225,9.68827895,"(5,10]",-156.8076631,20.79873287,2015/11/04,1909.4,50,80,7.5,12.5,20,10/5/2016,NOAA-CREP,NOAA CREP,NOAA CREP,"Noah Pomeroy, Thomas Oliver",Troy Kanemura,Towboard Survey,17987,-156.8069584,20.79635113,,,,,,,
NOAA_MHI_2015,NOAA-CREP,CREP-TOW,Lanai,,20151104207_LAN,26.69173099,9.635639606,"(5,10]",-156.8067994,20.80035263,2015/11/04,2148.5,62.5,77.5,12.5,10,22.5,10/5/2016,NOAA-CREP,NOAA CREP,NOAA CREP,"Noah Pomeroy, Thomas Oliver",Troy Kanemura,Towboard Survey,17987,-156.8069584,20.79635113,,,,,,,
NOAA_MHI_2015,NOAA-CREP,CREP-TOW,Lanai,,20151104208_LAN,27.7446117,9.956557646,"(5,10]",-156.8058072,20.80198236,2015/11/04,2125.4,72.5,85,10,5,15,10/5/2016,NOAA-CREP,NOAA CREP,NOAA CREP,"Noah Pomeroy, Thomas Oliver",Troy Kanemura,Towboard Survey,17752,-156.8069584,20.80537634,,,,,,,
NOAA_MHI_2015,NOAA-CREP,CREP-TOW,Lanai,,20151104210_LAN,22.94865559,8.494750224,"(5,10]",-156.8044387,20.80548434,2015/11/04,1941.2,60,86,10,4,14,10/5/2016,NOAA-CREP,NOAA CREP,NOAA CREP,"Noah Pomeroy, Thomas Oliver",Troy Kanemura,Towboard Survey,17752,-156.8069584,20.80537634,,,,,,,
NOAA_MHI_2015,NOAA-CREP,CREP-TOW,Lanai,,20151104301_LAN,21.39344331,8.020721521,"(5,10]",-156.827915,20.76719438,2015/11/04,1934.1,72.5,82,6.5,11.5,18,10/5/2016,NOAA-CREP,NOAA CREP,NOAA CREP,"Noah Pomeroy, Thomas Oliver",Troy Kanemura,Towboard Survey,18690,-156.8249864,20.76927549,,,,,,,
NOAA_MHI_2015,NOAA-CREP,CREP-TOW,Lanai,,20151104302_LAN,24.06442356,8.834836301,"(5,10]",-156.826998,20.76861962,2015/11/04,1971.1,42.5,88,4,8,12,10/5/2016,NOAA-CREP,NOAA CREP,NOAA CREP,"Noah Pomeroy, Thomas Oliver",Troy Kanemura,Towboard Survey,18690,-156.8249864,20.76927549,,,,,,,
NOAA_MHI_2015,NOAA-CREP,CREP-TOW,Lanai,,20151104303_LAN,26.05288152,9.440918287,"(5,10]",-156.8263871,20.77033638,2015/11/04,2106.5,47.5,80,7.5,12.5,20,10/5/2016,NOAA-CREP,NOAA CREP,NOAA CREP,"Noah Pomeroy, Thomas Oliver",Troy Kanemura,Towboard Survey,18690,-156.8249864,20.76927549,,,,,,,
NOAA_MHI_2015,NOAA-CREP,CREP-TOW,Lanai,,20151104304_LAN,26.50262552,9.578000258,"(5,10]",-156.82557,20.77202562,2015/11/04,2083.4,37.5,67.5,15,17.5,32.5,10/5/2016,NOAA-CREP,NOAA CREP,NOAA CREP,"Noah Pomeroy, Thomas Oliver",Troy Kanemura,Towboard Survey,18690,-156.8249864,20.76927549,,,,,,,
NOAA_MHI_2015,NOAA-CREP,CREP-TOW,Lanai,,20151104305_LAN,25.95257387,9.410344516,"(5,10]",-156.8245988,20.77360023,2015/11/04,2024.2,52.5,77.5,12.5,10,22.5,10/5/2016,NOAA-CREP,NOAA CREP,NOAA CREP,"Noah Pomeroy, Thomas Oliver",Troy Kanemura,Towboard Survey,18690,-156.8249864,20.76927549,,,,,,,
NOAA_MHI_2015,NOAA-CREP,CREP-TOW,Lanai,,20151104306_LAN,25.06900601,9.141033032,"(5,10]",-156.8237244,20.77518997,2015/11/04,2111.7,45,67.5,25,7.5,32.5,10/5/2016,NOAA-CREP,NOAA CREP,NOAA CREP,"Noah Pomeroy, Thomas Oliver",Troy Kanemura,Towboard Survey,18455,-156.8249864,20.7783007,,,,,,,
NOAA_MHI_2015,NOAA-CREP,CREP-TOW,Lanai,,20151104307_LAN,25.99522479,9.423344516,"(5,10]",-156.8229237,20.77685787,2015/11/04,2162.1,60,65,25,10,35,10/5/2016,NOAA-CREP,NOAA CREP,NOAA CREP,"Noah Pomeroy, Thomas Oliver",Troy Kanemura,Towboard Survey,18455,-156.8249864,20.7783007,,,,,,,
NOAA_MHI_2015,NOAA-CREP,CREP-TOW,Lanai,,20151104308_LAN,25.2566593,9.198229755,"(5,10]",-156.8220866,20.77861143,2015/11/04,2177.9,35,60,27.5,12.5,40,10/5/2016,NOAA-CREP,NOAA CREP,NOAA CREP,"Noah Pomeroy, Thomas Oliver",Troy Kanemura,Towboard Survey,18455,-156.8249864,20.7783007,,,,,,,
NOAA_MHI_2015,NOAA-CREP,CREP-TOW,Lanai,,20151104309_LAN,28.28046431,10.11988552,"(10,15]",-156.8208872,20.78019019,2015/11/04,2189.6,22.5,57.5,27.5,15,42.5,10/5/2016,NOAA-CREP,NOAA CREP,NOAA CREP,"Noah Pomeroy, Thomas Oliver",Troy Kanemura,Towboard Survey,18455,-156.8249864,20.7783007,,,,,,,
NOAA_MHI_2015,NOAA-CREP,CREP-TOW,Lanai,,20151104310_LAN,24.07206989,8.837166902,"(5,10]",-156.8197491,20.78166144,2015/11/04,1900.4,45,75,15,10,25,10/5/2016,NOAA-CREP,NOAA CREP,NOAA CREP,"Noah Pomeroy, Thomas Oliver",Troy Kanemura,Towboard Survey,18456,-156.8159724,20.7783007,,,,,,,
NOAA_MHI_2015,NOAA-CREP,CREP-TOW,Lanai,,20151104401_LAN,22.21284654,8.270475625,"(5,10]",-156.8373705,20.75929541,2015/11/04,2547.3,32.5,72.5,5,22.5,27.5,10/5/2016,NOAA-CREP,NOAA CREP,NOAA CREP,"Noah Pomeroy, Thomas Oliver",Troy Kanemura,Towboard Survey,18924,-156.8340004,20.76025027,,,,,,,
NOAA_MHI_2015,NOAA-CREP,CREP-TOW,Lanai,,20151104402_LAN,25.42382079,9.249180577,"(5,10]",-156.8353447,20.75995105,2015/11/04,2232.9,35,67.5,27.5,5,32.5,10/5/2016,NOAA-CREP,NOAA CREP,NOAA CREP,"Noah Pomeroy, Thomas Oliver",Troy Kanemura,Towboard Survey,18924,-156.8340004,20.76025027,,,,,,,
NOAA_MHI_2015,NOAA-CREP,CREP-TOW,Lanai,,20151104403_LAN,29.91663535,10.61859045,"(10,15]",-156.833889,20.76121486,2015/11/04,2086.1,30,75,10,15,25,10/5/2016,NOAA-CREP,NOAA CREP,NOAA CREP,"Noah Pomeroy, Thomas Oliver",Troy Kanemura,Towboard Survey,18924,-156.8340004,20.76025027,,,,,,,
NOAA_MHI_2015,NOAA-CREP,CREP-TOW,Lanai,,20151104404_LAN,27.35220173,9.836951087,"(5,10]",-156.8326005,20.76275266,2015/11/04,2376.3,25,72.5,22.5,5,27.5,10/5/2016,NOAA-CREP,NOAA CREP,NOAA CREP,"Noah Pomeroy, Thomas Oliver",Troy Kanemura,Towboard Survey,18924,-156.8340004,20.76025027,,,,,,,
NOAA_MHI_2015,NOAA-CREP,CREP-TOW,Lanai,,20151104405_LAN,30.22723947,10.71326259,"(10,15]",-156.831091,20.76398858,2015/11/04,2249.2,22.5,72.5,5,22.5,27.5,10/5/2016,NOAA-CREP,NOAA CREP,NOAA CREP,"Noah Pomeroy, Thomas Oliver",Troy Kanemura,Towboard Survey,18924,-156.8340004,20.76025027,,,,,,,
NOAA_MHI_2015,NOAA-CREP,CREP-TOW,Lanai,,20151104406_LAN,26.55549545,9.594115013,"(5,10]",-156.8295967,20.76516068,2015/11/04,2080.9,45,67.5,12.5,20,32.5,10/5/2016,NOAA-CREP,NOAA CREP,NOAA CREP,"Noah Pomeroy, Thomas Oliver",Troy Kanemura,Towboard Survey,18689,-156.8340004,20.76927549,,,,,,,
NOAA_MHI_2015,NOAA-CREP,CREP-TOW,Lanai,,20151104407_LAN,27.75601397,9.960033058,"(5,10]",-156.8282997,20.76638008,2015/11/04,1979.3,40,82.5,7.5,10,17.5,10/5/2016,NOAA-CREP,NOAA CREP,NOAA CREP,"Noah Pomeroy, Thomas Oliver",Troy Kanemura,Towboard Survey,18690,-156.8249864,20.76927549,,,,,,,
NOAA_MHI_2015,NOAA-CREP,CREP-TOW,Lanai,,20151104408_LAN,28.21129775,10.09880355,"(10,15]",-156.8272878,20.76774318,2015/11/04,2061.1,42.5,87.5,7.5,5,12.5,10/5/2016,NOAA-CREP,NOAA CREP,NOAA CREP,"Noah Pomeroy, Thomas Oliver",Troy Kanemura,Towboard Survey,18690,-156.8249864,20.76927549,,,,,,,
NOAA_MHI_2015,NOAA-CREP,CREP-TOW,Lanai,,20151104409_LAN,29.96385794,10.6329839,"(10,15]",-156.8264829,20.76942917,2015/11/04,2180.2,40,87.5,5,7.5,12.5,10/5/2016,NOAA-CREP,NOAA CREP,NOAA CREP,"Noah Pomeroy, Thomas Oliver",Troy Kanemura,Towboard Survey,18690,-156.8249864,20.76927549,,,,,,,
NOAA_MHI_2015,NOAA-CREP,CREP-TOW,Lanai,,20151104410_LAN,27.11964216,9.76606693,"(5,10]",-156.8259024,20.77125034,2015/11/04,2252.6,27.5,85,7.5,7.5,15,10/5/2016,NOAA-CREP,NOAA CREP,NOAA CREP,"Noah Pomeroy, Thomas Oliver",Troy Kanemura,Towboard Survey,18690,-156.8249864,20.76927549,,,,,,,
NOAA_MHI_2015,NOAA-CREP,CREP-TOW,Maui,,20151105101_MAI,25.47529232,9.264869099,"(5,10]",-156.6246654,20.80740913,2015/11/05,2475.8,40,32.5,37.5,30,67.5,10/5/2016,NOAA-CREP,NOAA CREP,NOAA CREP,"Noah Pomeroy, Thomas Oliver",Troy Kanemura,Towboard Survey,17772,-156.6266784,20.80537634,,,,,,,
NOAA_MHI_2015,NOAA-CREP,CREP-TOW,Maui,,20151105102_MAI,27.09242374,9.757770756,"(5,10]",-156.623292,20.80568458,2015/11/05,2407.3,47.5,45,32.5,22.5,55,10/5/2016,NOAA-CREP,NOAA CREP,NOAA CREP,"Noah Pomeroy, Thomas Oliver",Troy Kanemura,Towboard Survey,17772,-156.6266784,20.80537634,,,,,,,
NOAA_MHI_2015,NOAA-CREP,CREP-TOW,Maui,,20151105103_MAI,26.81672561,9.673737966,"(5,10]",-156.6218276,20.80422689,2015/11/05,2222.2,55,50,30,20,50,10/5/2016,NOAA-CREP,NOAA CREP,NOAA CREP,"Noah Pomeroy, Thomas Oliver",Troy Kanemura,Towboard Survey,17773,-156.6176644,20.80537634,,,,,,,
NOAA_MHI_2015,NOAA-CREP,CREP-TOW,Maui,,20151105104_MAI,22.86159232,8.468213339,"(5,10]",-156.6199406,20.80307365,2015/11/05,2473.4,70,67.5,20,12.5,32.5,10/5/2016,NOAA-CREP,NOAA CREP,NOAA CREP,"Noah Pomeroy, Thomas Oliver",Troy Kanemura,Towboard Survey,17773,-156.6176644,20.80537634,,,,,,,
NOAA_MHI_2015,NOAA-CREP,CREP-TOW,Maui,,20151105105_MAI,29.63991533,10.53424619,"(10,15]",-156.6182311,20.80207324,2015/11/05,2451.5,75,65,25,10,35,10/5/2016,NOAA-CREP,NOAA CREP,NOAA CREP,"Noah Pomeroy, Thomas Oliver",Troy Kanemura,Towboard Survey,17773,-156.6176644,20.80537634,,,,,,,
NOAA_MHI_2015,NOAA-CREP,CREP-TOW,Maui,,20151105106_MAI,27.37882494,9.845065842,"(5,10]",-156.6159322,20.80167151,2015/11/05,2502.6,72.5,60,30,10,40,10/5/2016,NOAA-CREP,NOAA CREP,NOAA CREP,"Noah Pomeroy, Thomas Oliver",Troy Kanemura,Towboard Survey,17773,-156.6176644,20.80537634,,,,,,,
NOAA_MHI_2015,NOAA-CREP,CREP-TOW,Maui,,20151105107_MAI,29.54310365,10.50473799,"(10,15]",-156.6137225,20.80241226,2015/11/05,2585.3,62.5,62.5,25,12.5,37.5,10/5/2016,NOAA-CREP,NOAA CREP,NOAA CREP,"Noah Pomeroy, Thomas Oliver",Troy Kanemura,Towboard Survey,17773,-156.6176644,20.80537634,,,,,,,
NOAA_MHI_2015,NOAA-CREP,CREP-TOW,Maui,,20151105108_MAI,30.0846036,10.66978718,"(10,15]",-156.6112765,20.80295826,2015/11/05,2862.2,62.5,60,25,15,40,10/5/2016,NOAA-CREP,NOAA CREP,NOAA CREP,"Noah Pomeroy, Thomas Oliver",Troy Kanemura,Towboard Survey,17774,-156.6086504,20.80537634,,,,,,,
NOAA_MHI_2015,NOAA-CREP,CREP-TOW,Maui,,20151105109_MAI,31.60094331,11.13196752,"(10,15]",-156.6091166,20.80430304,2015/11/05,2599.7,62.5,52.5,30,17.5,47.5,10/5/2016,NOAA-CREP,NOAA CREP,NOAA CREP,"Noah Pomeroy, Thomas Oliver",Troy Kanemura,Towboard Survey,17774,-156.6086504,20.80537634,,,,,,,
NOAA_MHI_2015,NOAA-CREP,CREP-TOW,Maui,,20151105110_MAI,27.81950001,9.979383603,"(5,10]",-156.6067865,20.80464296,2015/11/05,2538.9,60,50,30,20,50,10/5/2016,NOAA-CREP,NOAA CREP,NOAA CREP,"Noah Pomeroy, Thomas Oliver",Troy Kanemura,Towboard Survey,17774,-156.6086504,20.80537634,,,,,,,
NOAA_MHI_2015,NOAA-CREP,CREP-TOW,Maui,,20151105201_MAI,21.60750467,8.085967423,"(5,10]",-156.6011355,20.80327821,2015/11/05,2569.7,25,47.5,35,17.5,52.5,10/5/2016,NOAA-CREP,NOAA CREP,NOAA CREP,"Noah Pomeroy, Thomas Oliver",Troy Kanemura,Towboard Survey,17775,-156.5996364,20.80537634,,,,,,,
NOAA_MHI_2015,NOAA-CREP,CREP-TOW,Maui,,20151105202_MAI,23.93383537,8.795033021,"(5,10]",-156.5991188,20.80185584,2015/11/05,2626.1,5.1,22.5,27.5,50,77.5,10/5/2016,NOAA-CREP,NOAA CREP,NOAA CREP,"Noah Pomeroy, Thomas Oliver",Troy Kanemura,Towboard Survey,17775,-156.5996364,20.80537634,,,,,,,
NOAA_MHI_2015,NOAA-CREP,CREP-TOW,Maui,,20151105203_MAI,23.6733044,8.715623181,"(5,10]",-156.5968112,20.80073609,2015/11/05,2772,37.5,30,50,20,70,10/5/2016,NOAA-CREP,NOAA CREP,NOAA CREP,"Noah Pomeroy, Thomas Oliver",Troy Kanemura,Towboard Survey,18010,-156.5996364,20.79635113,,,,,,,
NOAA_MHI_2015,NOAA-CREP,CREP-TOW,Maui,,20151105204_MAI,22.53565968,8.36886907,"(5,10]",-156.5947256,20.79936905,2015/11/05,2545.8,30,25,45,30,75,10/5/2016,NOAA-CREP,NOAA CREP,NOAA CREP,"Noah Pomeroy, Thomas Oliver",Troy Kanemura,Towboard Survey,18011,-156.5906224,20.79635113,,,,,,,
NOAA_MHI_2015,NOAA-CREP,CREP-TOW,Maui,,20151105205_MAI,21.59233751,8.081344473,"(5,10]",-156.5929568,20.7978396,2015/11/05,2490,12.5,37.5,37.5,25,62.5,10/5/2016,NOAA-CREP,NOAA CREP,NOAA CREP,"Noah Pomeroy, Thomas Oliver",Troy Kanemura,Towboard Survey,18011,-156.5906224,20.79635113,,,,,,,
NOAA_MHI_2015,NOAA-CREP,CREP-TOW,Maui,,20151105206_MAI,26.167442,9.475836322,"(5,10]",-156.5918106,20.79613377,2015/11/05,2001.6,20,25,40,35,75,10/5/2016,NOAA-CREP,NOAA CREP,NOAA CREP,"Noah Pomeroy, Thomas Oliver",Troy Kanemura,Towboard Survey,18011,-156.5906224,20.79635113,,,,,,,
NOAA_MHI_2015,NOAA-CREP,CREP-TOW,Maui,,20151105207_MAI,27.68996689,9.939901908,"(5,10]",-156.5903043,20.79502955,2015/11/05,2072.6,12.5,45,32.5,22.5,55,10/5/2016,NOAA-CREP,NOAA CREP,NOAA CREP,"Noah Pomeroy, Thomas Oliver",Troy Kanemura,Towboard Survey,18011,-156.5906224,20.79635113,,,,,,,
NOAA_MHI_2015,NOAA-CREP,CREP-TOW,Maui,,20151105208_MAI,25.3803631,9.235934673,"(5,10]",-156.5887069,20.79408342,2015/11/05,2000.9,12.5,27.5,45,27.5,72.5,10/5/2016,NOAA-CREP,NOAA CREP,NOAA CREP,"Noah Pomeroy, Thomas Oliver",Troy Kanemura,Towboard Survey,18011,-156.5906224,20.79635113,,,,,,,
NOAA_MHI_2015,NOAA-CREP,CREP-TOW,Maui,,20151105209_MAI,24.83090308,9.068459259,"(5,10]",-156.5873787,20.79303702,2015/11/05,1655.7,7.5,47.5,32.5,20,52.5,10/5/2016,NOAA-CREP,NOAA CREP,NOAA CREP,"Noah Pomeroy, Thomas Oliver",Troy Kanemura,Towboard Survey,18011,-156.5906224,20.79635113,,,,,,,
NOAA_MHI_2015,NOAA-CREP,CREP-TOW,Maui,,20151105210_MAI,28.95171602,10.32448304,"(10,15]",-156.5864472,20.79207378,2015/11/05,1293,15,30,45,25,70,10/5/2016,NOAA-CREP,NOAA CREP,NOAA CREP,"Noah Pomeroy, Thomas Oliver",Troy Kanemura,Towboard Survey,18011,-156.5906224,20.79635113,,,,,,,
NOAA_MHI_2015,NOAA-CREP,CREP-TOW,Maui,,20151105301_MAI,15.03076508,6.081377196,"(5,10]",-156.6016409,20.80400116,2015/11/05,2390.5,75,50,30,20,50,10/5/2016,NOAA-CREP,NOAA CREP,NOAA CREP,"Noah Pomeroy, Thomas Oliver",Troy Kanemura,Towboard Survey,17775,-156.5996364,20.80537634,,,,,,,
NOAA_MHI_2015,NOAA-CREP,CREP-TOW,Maui,,20151105302_MAI,11.0215786,4.859377157,"[0,5]",-156.5997932,20.80298887,2015/11/05,2382,65,57.5,25,17.5,42.5,10/5/2016,NOAA-CREP,NOAA CREP,NOAA CREP,"Noah Pomeroy, Thomas Oliver",Troy Kanemura,Towboard Survey,17775,-156.5996364,20.80537634,,,,,,,
NOAA_MHI_2015,NOAA-CREP,CREP-TOW,Maui,,20151105303_MAI,14.54364101,5.93290178,"(5,10]",-156.5978532,20.80201136,2015/11/05,2305.1,67.5,47.5,27.5,25,52.5,10/5/2016,NOAA-CREP,NOAA CREP,NOAA CREP,"Noah Pomeroy, Thomas Oliver",Troy Kanemura,Towboard Survey,17775,-156.5996364,20.80537634,,,,,,,
NOAA_MHI_2015,NOAA-CREP,CREP-TOW,Maui,,20151105304_MAI,15.10923632,6.10529523,"(5,10]",-156.59595,20.80116105,2015/11/05,2160.5,62.5,47.5,27.5,25,52.5,10/5/2016,NOAA-CREP,NOAA CREP,NOAA CREP,"Noah Pomeroy, Thomas Oliver",Troy Kanemura,Towboard Survey,17775,-156.5996364,20.80537634,,,,,,,
NOAA_MHI_2015,NOAA-CREP,CREP-TOW,Maui,,20151105305_MAI,11.40930934,4.977557487,"[0,5]",-156.5941816,20.80005827,2015/11/05,2293.8,50,50,27.5,22.5,50,10/5/2016,NOAA-CREP,NOAA CREP,NOAA CREP,"Noah Pomeroy, Thomas Oliver",Troy Kanemura,Towboard Survey,18011,-156.5906224,20.79635113,,,,,,,
NOAA_MHI_2015,NOAA-CREP,CREP-TOW,Maui,,20151105306_MAI,9.400897424,4.365393535,"[0,5]",-156.5923753,20.79874033,2015/11/05,2532.2,45,52.5,27.5,20,47.5,10/5/2016,NOAA-CREP,NOAA CREP,NOAA CREP,"Noah Pomeroy, Thomas Oliver",Troy Kanemura,Towboard Survey,18011,-156.5906224,20.79635113,,,,,,,
NOAA_MHI_2015,NOAA-CREP,CREP-TOW,Maui,,20151105307_MAI,4.812938497,2.966983654,"[0,5]",-156.5905092,20.79739005,2015/11/05,2526.7,67.5,47.5,35,17.5,52.5,10/5/2016,NOAA-CREP,NOAA CREP,NOAA CREP,"Noah Pomeroy, Thomas Oliver",Troy Kanemura,Towboard Survey,18011,-156.5906224,20.79635113,,,,,,,
NOAA_MHI_2015,NOAA-CREP,CREP-TOW,Maui,,20151105308_MAI,12.69652809,5.369901762,"(5,10]",-156.5894289,20.7953422,2015/11/05,2469.2,60,52.5,22.5,25,47.5,10/5/2016,NOAA-CREP,NOAA CREP,NOAA CREP,"Noah Pomeroy, Thomas Oliver",Troy Kanemura,Towboard Survey,18011,-156.5906224,20.79635113,,,,,,,
NOAA_MHI_2015,NOAA-CREP,CREP-TOW,Maui,,20151105309_MAI,12.57395376,5.332541106,"(5,10]",-156.5877281,20.79417399,2015/11/05,2193.2,62.5,50,25,25,50,10/5/2016,NOAA-CREP,NOAA CREP,NOAA CREP,"Noah Pomeroy, Thomas Oliver",Troy Kanemura,Towboard Survey,18011,-156.5906224,20.79635113,,,,,,,
NOAA_MHI_2015,NOAA-CREP,CREP-TOW,Maui,,20151105310_MAI,14.85865096,6.028916813,"(5,10]",-156.5862811,20.79301546,2015/11/05,1823,57.5,52.5,27.5,20,47.5,10/5/2016,NOAA-CREP,NOAA CREP,NOAA CREP,"Noah Pomeroy, Thomas Oliver",Troy Kanemura,Towboard Survey,18011,-156.5906224,20.79635113,,,,,,,
NOAA_MHI_2015,NOAA-CREP,CREP-TOW,Maui,,20151105401_MAI,11.19734557,4.91295093,"[0,5]",-156.6213643,20.80499469,2015/11/05,2308.1,35,22.5,40,37.5,77.5,10/5/2016,NOAA-CREP,NOAA CREP,NOAA CREP,"Noah Pomeroy, Thomas Oliver",Troy Kanemura,Towboard Survey,17773,-156.6176644,20.80537634,,,,,,,
NOAA_MHI_2015,NOAA-CREP,CREP-TOW,Maui,,20151105402_MAI,10.1244571,4.585934524,"[0,5]",-156.6196479,20.80376629,2015/11/05,2310.4,35,35,30,35,65,10/5/2016,NOAA-CREP,NOAA CREP,NOAA CREP,"Noah Pomeroy, Thomas Oliver",Troy Kanemura,Towboard Survey,17773,-156.6176644,20.80537634,,,,,,,
NOAA_MHI_2015,NOAA-CREP,CREP-TOW,Maui,,20151105403_MAI,17.06762888,6.702213283,"(5,10]",-156.6183726,20.80259062,2015/11/05,2008.4,30,35,42.5,22.5,65,10/5/2016,NOAA-CREP,NOAA CREP,NOAA CREP,"Noah Pomeroy, Thomas Oliver",Troy Kanemura,Towboard Survey,17773,-156.6176644,20.80537634,,,,,,,
NOAA_MHI_2015,NOAA-CREP,CREP-TOW,Maui,,20151105404_MAI,14.78545506,6.006606702,"(5,10]",-156.6166627,20.803207,2015/11/05,2256.6,27.5,40,45,15,60,10/5/2016,NOAA-CREP,NOAA CREP,NOAA CREP,"Noah Pomeroy, Thomas Oliver",Troy Kanemura,Towboard Survey,17773,-156.6176644,20.80537634,,,,,,,
NOAA_MHI_2015,NOAA-CREP,CREP-TOW,Maui,,20151105405_MAI,16.68861118,6.586688688,"(5,10]",-156.6146736,20.80384653,2015/11/05,2143.4,20,35,40,25,65,10/5/2016,NOAA-CREP,NOAA CREP,NOAA CREP,"Noah Pomeroy, Thomas Oliver",Troy Kanemura,Towboard Survey,17773,-156.6176644,20.80537634,,,,,,,
NOAA_MHI_2015,NOAA-CREP,CREP-TOW,Maui,,20151105406_MAI,15.39450805,6.192246054,"(5,10]",-156.6131975,20.80456681,2015/11/05,1999,17.5,45,35,20,55,10/5/2016,NOAA-CREP,NOAA CREP,NOAA CREP,"Noah Pomeroy, Thomas Oliver",Troy Kanemura,Towboard Survey,17773,-156.6176644,20.80537634,,,,,,,
NOAA_MHI_2015,NOAA-CREP,CREP-TOW,Maui,,20151105407_MAI,16.71512682,6.594770655,"(5,10]",-156.6116846,20.80522263,2015/11/05,2044.9,25,52.5,25,22.5,47.5,10/5/2016,NOAA-CREP,NOAA CREP,NOAA CREP,"Noah Pomeroy, Thomas Oliver",Troy Kanemura,Towboard Survey,17774,-156.6086504,20.80537634,,,,,,,
NOAA_MHI_2015,NOAA-CREP,CREP-TOW,Maui,,20151105408_MAI,16.364561,6.487918193,"(5,10]",-156.6099339,20.80544445,2015/11/05,2034.3,17.5,35,35,30,65,10/5/2016,NOAA-CREP,NOAA CREP,NOAA CREP,"Noah Pomeroy, Thomas Oliver",Troy Kanemura,Towboard Survey,17774,-156.6086504,20.80537634,,,,,,,
NOAA_MHI_2015,NOAA-CREP,CREP-TOW,Maui,,20151105409_MAI,13.31434792,5.558213246,"(5,10]",-156.607842,20.80595858,2015/11/05,2619,35,40,35,25,60,10/5/2016,NOAA-CREP,NOAA CREP,NOAA CREP,"Noah Pomeroy, Thomas Oliver",Troy Kanemura,Towboard Survey,17774,-156.6086504,20.80537634,,,,,,,
NOAA_MHI_2015,NOAA-CREP,CREP-TOW,Maui,,20151105410_MAI,11.62592994,5.043583446,"(5,10]",-156.6054328,20.80584553,2015/11/05,2500.9,50,30,45,25,70,10/5/2016,NOAA-CREP,NOAA CREP,NOAA CREP,"Noah Pomeroy, Thomas Oliver",Troy Kanemura,Towboard Survey,17774,-156.6086504,20.80537634,,,,,,,
NOAA_MHI_2015,NOAA-CREP,CREP-TOW,Maui,,20151106101_MAI,14.76075153,5.999077066,"(5,10]",-156.6940629,20.94862143,2015/11/06,4075.4,42.5,81,11.5,7.5,19,10/5/2016,NOAA-CREP,NOAA CREP,NOAA CREP,"Noah Pomeroy, Thomas Oliver",Troy Kanemura,Towboard Survey,14005,-156.6897764,20.94977977,,,,,,,
NOAA_MHI_2015,NOAA-CREP,CREP-TOW,Maui,,20151106102_MAI,19.51099279,7.446950602,"(5,10]",-156.694527,20.94720436,2015/11/06,6738.1,17.5,78.5,11.5,10,21.5,10/5/2016,NOAA-CREP,NOAA CREP,NOAA CREP,"Noah Pomeroy, Thomas Oliver",Troy Kanemura,Towboard Survey,14004,-156.6987904,20.94977977,,,,,,,
NOAA_MHI_2015,NOAA-CREP,CREP-TOW,Maui,,20151106103_MAI,16.91088642,6.654438181,"(5,10]",-156.6942995,20.94533064,2015/11/06,6653.8,20,65,20,15,35,10/5/2016,NOAA-CREP,NOAA CREP,NOAA CREP,"Noah Pomeroy, Thomas Oliver",Troy Kanemura,Towboard Survey,14004,-156.6987904,20.94977977,,,,,,,
NOAA_MHI_2015,NOAA-CREP,CREP-TOW,Maui,,20151106104_MAI,15.06870832,6.092942296,"(5,10]",-156.6936627,20.94348232,2015/11/06,6543,2,55,17.5,27.5,45,10/5/2016,NOAA-CREP,NOAA CREP,NOAA CREP,"Noah Pomeroy, Thomas Oliver",Troy Kanemura,Towboard Survey,14240,-156.6897764,20.94075455,,,,,,,
NOAA_MHI_2015,NOAA-CREP,CREP-TOW,Maui,,20151106105_MAI,11.90581587,5.128892677,"(5,10]",-156.6934653,20.94142651,2015/11/06,7242.8,4,60,25,15,40,10/5/2016,NOAA-CREP,NOAA CREP,NOAA CREP,"Noah Pomeroy, Thomas Oliver",Troy Kanemura,Towboard Survey,14240,-156.6897764,20.94075455,,,,,,,
NOAA_MHI_2015,NOAA-CREP,CREP-TOW,Maui,,20151106106_MAI,12.51830261,5.315578636,"(5,10]",-156.6936967,20.93913709,2015/11/06,8025.2,45,70,15,15,30,10/5/2016,NOAA-CREP,NOAA CREP,NOAA CREP,"Noah Pomeroy, Thomas Oliver",Troy Kanemura,Towboard Survey,14240,-156.6897764,20.94075455,,,,,,,
NOAA_MHI_2015,NOAA-CREP,CREP-TOW,Maui,,20151106107_MAI,23.375036,8.624710973,"(5,10]",-156.6940965,20.93669335,2015/11/06,8405.7,2.5,80,10,10,20,10/5/2016,NOAA-CREP,NOAA CREP,NOAA CREP,"Noah Pomeroy, Thomas Oliver",Troy Kanemura,Towboard Survey,14240,-156.6897764,20.94075455,,,,,,,
NOAA_MHI_2015,NOAA-CREP,CREP-TOW,Maui,,20151106108_MAI,19.7530971,7.520743996,"(5,10]",-156.6940007,20.93428055,2015/11/06,8063,0,100,0,0,0,10/5/2016,NOAA-CREP,NOAA CREP,NOAA CREP,"Noah Pomeroy, Thomas Oliver",Troy Kanemura,Towboard Survey,14475,-156.6897764,20.93172934,,,,,,,
NOAA_MHI_2015,NOAA-CREP,CREP-TOW,Maui,,20151106109_MAI,14.3691302,5.879710885,"(5,10]",-156.6940258,20.93195381,2015/11/06,7737.8,0.1,50,50,0,50,10/5/2016,NOAA-CREP,NOAA CREP,NOAA CREP,"Noah Pomeroy, Thomas Oliver",Troy Kanemura,Towboard Survey,14475,-156.6897764,20.93172934,,,,,,,
NOAA_MHI_2015,NOAA-CREP,CREP-TOW,Maui,,20151106110_MAI,15.45122534,6.209533484,"(5,10]",-156.6951183,20.92988071,2015/11/06,8094,0,100,0,0,0,10/5/2016,NOAA-CREP,NOAA CREP,NOAA CREP,"Noah Pomeroy, Thomas Oliver",Troy Kanemura,Towboard Survey,14474,-156.6987904,20.93172934,,,,,,,
NOAA_MHI_2015,NOAA-CREP,CREP-TOW,Maui,,20151106201_MAI,17.66545251,6.884429925,"(5,10]",-156.6936265,20.95010514,2015/11/06,5222.5,60,86,10,4,14,10/5/2016,NOAA-CREP,NOAA CREP,NOAA CREP,"Noah Pomeroy, Thomas Oliver",Troy Kanemura,Towboard Survey,14005,-156.6897764,20.94977977,,,,,,,
NOAA_MHI_2015,NOAA-CREP,CREP-TOW,Maui,,20151106202_MAI,20.42219865,7.724686149,"(5,10]",-156.6928085,20.95152511,2015/11/06,5496.1,55,88.5,7.5,4,11.5,10/5/2016,NOAA-CREP,NOAA CREP,NOAA CREP,"Noah Pomeroy, Thomas Oliver",Troy Kanemura,Towboard Survey,14005,-156.6897764,20.94977977,,,,,,,
NOAA_MHI_2015,NOAA-CREP,CREP-TOW,Maui,,20151106203_MAI,20.91201993,7.873983675,"(5,10]",-156.6917231,20.95310323,2015/11/06,6996.3,37.5,87.5,7.5,5,12.5,10/5/2016,NOAA-CREP,NOAA CREP,NOAA CREP,"Noah Pomeroy, Thomas Oliver",Troy Kanemura,Towboard Survey,14005,-156.6897764,20.94977977,,,,,,,
NOAA_MHI_2015,NOAA-CREP,CREP-TOW,Maui,,20151106204_MAI,20.30251578,7.68820681,"(5,10]",-156.6906869,20.95462143,2015/11/06,5174.8,0.6,94.4,0.6,5,5.6,10/5/2016,NOAA-CREP,NOAA CREP,NOAA CREP,"Noah Pomeroy, Thomas Oliver",Troy Kanemura,Towboard Survey,13770,-156.6897764,20.95880498,,,,,,,
NOAA_MHI_2015,NOAA-CREP,CREP-TOW,Maui,,20151106205_MAI,20.59282945,7.776694416,"(5,10]",-156.6895807,20.95596685,2015/11/06,6395.1,37.5,86,5,9,14,10/5/2016,NOAA-CREP,NOAA CREP,NOAA CREP,"Noah Pomeroy, Thomas Oliver",Troy Kanemura,Towboard Survey,13770,-156.6897764,20.95880498,,,,,,,
NOAA_MHI_2015,NOAA-CREP,CREP-TOW,Maui,,20151106206_MAI,19.50028261,7.44368614,"(5,10]",-156.6883569,20.95757149,2015/11/06,6901.6,25,73.5,15,11.5,26.5,10/5/2016,NOAA-CREP,NOAA CREP,NOAA CREP,"Noah Pomeroy, Thomas Oliver",Troy Kanemura,Towboard Survey,13770,-156.6897764,20.95880498,,,,,,,
NOAA_MHI_2015,NOAA-CREP,CREP-TOW,Maui,,20151106207_MAI,21.49522314,8.051744013,"(5,10]",-156.6881126,20.95949023,2015/11/06,6932.2,10.5,54.5,5.5,40,45.5,10/5/2016,NOAA-CREP,NOAA CREP,NOAA CREP,"Noah Pomeroy, Thomas Oliver",Troy Kanemura,Towboard Survey,13770,-156.6897764,20.95880498,,,,,,,
NOAA_MHI_2015,NOAA-CREP,CREP-TOW,Maui,,20151106208_MAI,24.68167798,9.022975448,"(5,10]",-156.6881665,20.96151792,2015/11/06,6866.1,1.5,49.8,45.1,5.1,50.2,10/5/2016,NOAA-CREP,NOAA CREP,NOAA CREP,"Noah Pomeroy, Thomas Oliver",Troy Kanemura,Towboard Survey,13770,-156.6897764,20.95880498,,,,,,,
NOAA_MHI_2015,NOAA-CREP,CREP-TOW,Maui,,20151106209_MAI,22.57277572,8.380182039,"(5,10]",-156.6877664,20.96355297,2015/11/06,6854.8,2.5,54.9,40.1,5,45.1,10/5/2016,NOAA-CREP,NOAA CREP,NOAA CREP,"Noah Pomeroy, Thomas Oliver",Troy Kanemura,Towboard Survey,13535,-156.6897764,20.96783019,,,,,,,
NOAA_MHI_2015,NOAA-CREP,CREP-TOW,Maui,,20151106210_MAI,25.0279973,9.128533577,"(5,10]",-156.687467,20.96552952,2015/11/06,6449.6,0.6,72.3,20.1,7.6,27.7,10/5/2016,NOAA-CREP,NOAA CREP,NOAA CREP,"Noah Pomeroy, Thomas Oliver",Troy Kanemura,Towboard Survey,13535,-156.6897764,20.96783019,,,,,,,
NOAA_MHI_2015,NOAA-CREP,CREP-TOW,Maui,,20151106301_MAI,7.437691393,3.767008337,"[0,5]",-156.6973831,20.91514446,2015/11/06,7229.9,32.5,50,25,25,50,10/5/2016,NOAA-CREP,NOAA CREP,NOAA CREP,"Noah Pomeroy, Thomas Oliver",Troy Kanemura,Towboard Survey,14944,-156.6987904,20.91367891,,,,,,,
NOAA_MHI_2015,NOAA-CREP,CREP-TOW,Maui,,20151106302_MAI,6.286550385,3.416140557,"[0,5]",-156.6959642,20.9133906,2015/11/06,7441.1,37.5,50,25,25,50,10/5/2016,NOAA-CREP,NOAA CREP,NOAA CREP,"Noah Pomeroy, Thomas Oliver",Troy Kanemura,Towboard Survey,14944,-156.6987904,20.91367891,,,,,,,
NOAA_MHI_2015,NOAA-CREP,CREP-TOW,Maui,,20151106303_MAI,8.932696972,4.222686037,"[0,5]",-156.6942132,20.91193191,2015/11/06,7274.3,27.5,45,30,25,55,10/5/2016,NOAA-CREP,NOAA CREP,NOAA CREP,"Noah Pomeroy, Thomas Oliver",Troy Kanemura,Towboard Survey,14945,-156.6897764,20.91367891,,,,,,,
NOAA_MHI_2015,NOAA-CREP,CREP-TOW,Maui,,20151106304_MAI,10.08562753,4.574099271,"[0,5]",-156.6927799,20.9103519,2015/11/06,7256.7,35,35,35,30,65,10/5/2016,NOAA-CREP,NOAA CREP,NOAA CREP,"Noah Pomeroy, Thomas Oliver",Troy Kanemura,Towboard Survey,14945,-156.6897764,20.91367891,,,,,,,
NOAA_MHI_2015,NOAA-CREP,CREP-TOW,Maui,,20151106305_MAI,23.35632707,8.619008491,"(5,10]",-156.6916792,20.90921045,2015/11/06,6631.5,5,65,20,15,35,10/5/2016,NOAA-CREP,NOAA CREP,NOAA CREP,"Noah Pomeroy, Thomas Oliver",Troy Kanemura,Towboard Survey,14945,-156.6897764,20.91367891,,,,,,,
NOAA_MHI_2015,NOAA-CREP,CREP-TOW,Maui,,20151106306_MAI,15.9092541,6.34914065,"(5,10]",-156.6901313,20.90900809,2015/11/06,6171.9,1.5,70,15,15,30,10/5/2016,NOAA-CREP,NOAA CREP,NOAA CREP,"Noah Pomeroy, Thomas Oliver",Troy Kanemura,Towboard Survey,15180,-156.6897764,20.9046537,,,,,,,
NOAA_MHI_2015,NOAA-CREP,CREP-TOW,Maui,,20151106307_MAI,11.3982889,4.974198457,"[0,5]",-156.6886814,20.9078794,2015/11/06,8077,12.5,40,30,30,60,10/5/2016,NOAA-CREP,NOAA CREP,NOAA CREP,"Noah Pomeroy, Thomas Oliver",Troy Kanemura,Towboard Survey,15180,-156.6897764,20.9046537,,,,,,,
NOAA_MHI_2015,NOAA-CREP,CREP-TOW,Maui,,20151106308_MAI,9.226860883,4.312347197,"[0,5]",-156.6875528,20.90575348,2015/11/06,7706.8,27.5,35,35,30,65,10/5/2016,NOAA-CREP,NOAA CREP,NOAA CREP,"Noah Pomeroy, Thomas Oliver",Troy Kanemura,Towboard Survey,15180,-156.6897764,20.9046537,,,,,,,
NOAA_MHI_2015,NOAA-CREP,CREP-TOW,Maui,,20151106309_MAI,11.4197635,4.980743915,"[0,5]",-156.6864335,20.9036219,2015/11/06,8154.2,3,35,35,30,65,10/5/2016,NOAA-CREP,NOAA CREP,NOAA CREP,"Noah Pomeroy, Thomas Oliver",Troy Kanemura,Towboard Survey,15180,-156.6897764,20.9046537,,,,,,,
NOAA_MHI_2015,NOAA-CREP,CREP-TOW,Maui,,20151106310_MAI,11.24595399,4.927766776,"[0,5]",-156.6857984,20.90128719,2015/11/06,8151.7,10,40,32.5,27.5,60,10/5/2016,NOAA-CREP,NOAA CREP,NOAA CREP,"Noah Pomeroy, Thomas Oliver",Troy Kanemura,Towboard Survey,15180,-156.6897764,20.9046537,,,,,,,
NOAA_MHI_2015,NOAA-CREP,CREP-TOW,Lanai,,20151108101_LAN,26.04895527,9.439721566,"(5,10]",-156.8731873,20.7448531,2015/11/08,2098.1,0,100,0,0,0,10/5/2016,NOAA-CREP,NOAA CREP,NOAA CREP,"Noah Pomeroy, Thomas Oliver",Troy Kanemura,Towboard Survey,19390,-156.8700564,20.74219984,,,,,,,
NOAA_MHI_2015,NOAA-CREP,CREP-TOW,Lanai,,20151108102_LAN,27.30288156,9.821918299,"(5,10]",-156.8715041,20.74578858,2015/11/08,2047.6,2,55,30,15,45,10/5/2016,NOAA-CREP,NOAA CREP,NOAA CREP,"Noah Pomeroy, Thomas Oliver",Troy Kanemura,Towboard Survey,19390,-156.8700564,20.74219984,,,,,,,
NOAA_MHI_2015,NOAA-CREP,CREP-TOW,Lanai,,20151108103_LAN,21.59136939,8.08104939,"(5,10]",-156.8699493,20.7468717,2015/11/08,2110,62.5,60,30,10,40,10/5/2016,NOAA-CREP,NOAA CREP,NOAA CREP,"Noah Pomeroy, Thomas Oliver",Troy Kanemura,Towboard Survey,19155,-156.8700564,20.75122506,,,,,,,
NOAA_MHI_2015,NOAA-CREP,CREP-TOW,Lanai,,20151108104_LAN,25.43463142,9.252475657,"(5,10]",-156.8684601,20.74812757,2015/11/08,2124.8,70,65,22.5,12.5,35,10/5/2016,NOAA-CREP,NOAA CREP,NOAA CREP,"Noah Pomeroy, Thomas Oliver",Troy Kanemura,Towboard Survey,19155,-156.8700564,20.75122506,,,,,,,
NOAA_MHI_2015,NOAA-CREP,CREP-TOW,Lanai,,20151108105_LAN,25.17582155,9.173590408,"(5,10]",-156.8670686,20.74935895,2015/11/08,1901.6,55,67.5,22.5,10,32.5,10/5/2016,NOAA-CREP,NOAA CREP,NOAA CREP,"Noah Pomeroy, Thomas Oliver",Troy Kanemura,Towboard Survey,19155,-156.8700564,20.75122506,,,,,,,
NOAA_MHI_2015,NOAA-CREP,CREP-TOW,Lanai,,20151108106_LAN,24.10449283,8.847049415,"(5,10]",-156.8658043,20.75043034,2015/11/08,1684.5,35,62.5,15,22.5,37.5,10/5/2016,NOAA-CREP,NOAA CREP,NOAA CREP,"Noah Pomeroy, Thomas Oliver",Troy Kanemura,Towboard Survey,19155,-156.8700564,20.75122506,,,,,,,
NOAA_MHI_2015,NOAA-CREP,CREP-TOW,Lanai,,20151108107_LAN,26.22429196,9.493164189,"(5,10]",-156.8643726,20.75092802,2015/11/08,1548,0.1,30,0,70,70,10/5/2016,NOAA-CREP,NOAA CREP,NOAA CREP,"Noah Pomeroy, Thomas Oliver",Troy Kanemura,Towboard Survey,19156,-156.8610424,20.75122506,,,,,,,
NOAA_MHI_2015,NOAA-CREP,CREP-TOW,Lanai,,20151108108_LAN,27.45191775,9.86734453,"(5,10]",-156.8630864,20.75159418,2015/11/08,1693.2,0,100,0,0,0,10/5/2016,NOAA-CREP,NOAA CREP,NOAA CREP,"Noah Pomeroy, Thomas Oliver",Troy Kanemura,Towboard Survey,19156,-156.8610424,20.75122506,,,,,,,
NOAA_MHI_2015,NOAA-CREP,CREP-TOW,Lanai,,20151108109_LAN,21.44373159,8.036049389,"(5,10]",-156.8616217,20.75238686,2015/11/08,1912.4,0.6,40,15,45,60,10/5/2016,NOAA-CREP,NOAA CREP,NOAA CREP,"Noah Pomeroy, Thomas Oliver",Troy Kanemura,Towboard Survey,19156,-156.8610424,20.75122506,,,,,,,
NOAA_MHI_2015,NOAA-CREP,CREP-TOW,Lanai,,20151108110_LAN,21.91803439,8.180616882,"(5,10]",-156.8601057,20.75280992,2015/11/08,1499,0.6,50,20,30,50,10/5/2016,NOAA-CREP,NOAA CREP,NOAA CREP,"Noah Pomeroy, Thomas Oliver",Troy Kanemura,Towboard Survey,19156,-156.8610424,20.75122506,,,,,,,
NOAA_MHI_2015,NOAA-CREP,CREP-TOW,Lanai,,20151108201_LAN,21.41651675,8.027754305,"(5,10]",-156.9213834,20.73444196,2015/11/08,2349.4,32.5,67.5,20,12.5,32.5,10/5/2016,NOAA-CREP,NOAA CREP,NOAA CREP,"Noah Pomeroy, Thomas Oliver",Troy Kanemura,Towboard Survey,19619,-156.9241403,20.73317463,,,,,,,
NOAA_MHI_2015,NOAA-CREP,CREP-TOW,Lanai,,20151108202_LAN,25.51009074,9.275475658,"(5,10]",-156.9203549,20.73580131,2015/11/08,2035.8,42.5,62.5,20,17.5,37.5,10/5/2016,NOAA-CREP,NOAA CREP,NOAA CREP,"Noah Pomeroy, Thomas Oliver",Troy Kanemura,Towboard Survey,19619,-156.9241403,20.73317463,,,,,,,
NOAA_MHI_2015,NOAA-CREP,CREP-TOW,Lanai,,20151108203_LAN,25.57479321,9.29519697,"(5,10]",-156.9187625,20.73667412,2015/11/08,1962.6,15,30,30,40,70,10/5/2016,NOAA-CREP,NOAA CREP,NOAA CREP,"Noah Pomeroy, Thomas Oliver",Troy Kanemura,Towboard Survey,19620,-156.9151263,20.73317463,,,,,,,
NOAA_MHI_2015,NOAA-CREP,CREP-TOW,Lanai,,20151108204_LAN,20.69898091,7.809049381,"(5,10]",-156.9170703,20.73688642,2015/11/08,1932.8,17.5,45,20,35,55,10/5/2016,NOAA-CREP,NOAA CREP,NOAA CREP,"Noah Pomeroy, Thomas Oliver",Troy Kanemura,Towboard Survey,19620,-156.9151263,20.73317463,,,,,,,
NOAA_MHI_2015,NOAA-CREP,CREP-TOW,Lanai,,20151108205_LAN,26.03158295,9.434426483,"(5,10]",-156.9152258,20.73667723,2015/11/08,2030.6,17.5,57.5,15,27.5,42.5,10/5/2016,NOAA-CREP,NOAA CREP,NOAA CREP,"Noah Pomeroy, Thomas Oliver",Troy Kanemura,Towboard Survey,19620,-156.9151263,20.73317463,,,,,,,
NOAA_MHI_2015,NOAA-CREP,CREP-TOW,Lanai,,20151108206_LAN,26.44098876,9.559213374,"(5,10]",-156.9134998,20.7363057,2015/11/08,2060.7,17.5,57.5,15,27.5,42.5,10/5/2016,NOAA-CREP,NOAA CREP,NOAA CREP,"Noah Pomeroy, Thomas Oliver",Troy Kanemura,Towboard Survey,19620,-156.9151263,20.73317463,,,,,,,
NOAA_MHI_2015,NOAA-CREP,CREP-TOW,Lanai,,20151108207_LAN,23.06742469,8.530951046,"(5,10]",-156.9123956,20.73609644,2015/11/08,1680.6,22.5,57.5,20,22.5,42.5,10/5/2016,NOAA-CREP,NOAA CREP,NOAA CREP,"Noah Pomeroy, Thomas Oliver",Troy Kanemura,Towboard Survey,19620,-156.9151263,20.73317463,,,,,,,
NOAA_MHI_2015,NOAA-CREP,CREP-TOW,Lanai,,20151108208_LAN,26.38499934,9.542147799,"(5,10]",-156.9117139,20.73554791,2015/11/08,1833.8,17.5,60,15,25,40,10/5/2016,NOAA-CREP,NOAA CREP,NOAA CREP,"Noah Pomeroy, Thomas Oliver",Troy Kanemura,Towboard Survey,19620,-156.9151263,20.73317463,,,,,,,
NOAA_MHI_2015,NOAA-CREP,CREP-TOW,Lanai,,20151108209_LAN,22.81716651,8.454672352,"(5,10]",-156.9107364,20.73612625,2015/11/08,2213.7,25,60,17.5,22.5,40,10/5/2016,NOAA-CREP,NOAA CREP,NOAA CREP,"Noah Pomeroy, Thomas Oliver",Troy Kanemura,Towboard Survey,19620,-156.9151263,20.73317463,,,,,,,
NOAA_MHI_2015,NOAA-CREP,CREP-TOW,Lanai,,20151108210_LAN,20.53499628,7.759066866,"(5,10]",-156.9090598,20.7358349,2015/11/08,2378.6,15,45,20,35,55,10/5/2016,NOAA-CREP,NOAA CREP,NOAA CREP,"Noah Pomeroy, Thomas Oliver",Troy Kanemura,Towboard Survey,19621,-156.9061123,20.73317463,,,,,,,
NOAA_MHI_2015,NOAA-CREP,CREP-TOW,Lanai,,20151108301_LAN,20.40881482,7.720606757,"(5,10]",-156.9495357,20.73414858,2015/11/08,2206.1,40,70,15,15,30,10/5/2016,NOAA-CREP,NOAA CREP,NOAA CREP,"Noah Pomeroy, Thomas Oliver",Troy Kanemura,Towboard Survey,19616,-156.9511823,20.73317463,,,,,,,
NOAA_MHI_2015,NOAA-CREP,CREP-TOW,Lanai,,20151108302_LAN,21.99259999,8.203344477,"(5,10]",-156.9476549,20.73451471,2015/11/08,2236.2,50,65,20,15,35,10/5/2016,NOAA-CREP,NOAA CREP,NOAA CREP,"Noah Pomeroy, Thomas Oliver",Troy Kanemura,Towboard Survey,19616,-156.9511823,20.73317463,,,,,,,
NOAA_MHI_2015,NOAA-CREP,CREP-TOW,Lanai,,20151108303_LAN,28.97331318,10.33106586,"(10,15]",-156.9461511,20.73493709,2015/11/08,2533,27.5,70,15,15,30,10/5/2016,NOAA-CREP,NOAA CREP,NOAA CREP,"Noah Pomeroy, Thomas Oliver",Troy Kanemura,Towboard Survey,19617,-156.9421683,20.73317463,,,,,,,
NOAA_MHI_2015,NOAA-CREP,CREP-TOW,Lanai,,20151108304_LAN,20.42618713,7.725901837,"(5,10]",-156.9445316,20.73470331,2015/11/08,2546.7,10,57.5,25,17.5,42.5,10/5/2016,NOAA-CREP,NOAA CREP,NOAA CREP,"Noah Pomeroy, Thomas Oliver",Troy Kanemura,Towboard Survey,19617,-156.9421683,20.73317463,,,,,,,
NOAA_MHI_2015,NOAA-CREP,CREP-TOW,Lanai,,20151108305_LAN,25.00053864,9.120164177,"(5,10]",-156.9427591,20.73456837,2015/11/08,2407.4,10,65,20,15,35,10/5/2016,NOAA-CREP,NOAA CREP,NOAA CREP,"Noah Pomeroy, Thomas Oliver",Troy Kanemura,Towboard Survey,19617,-156.9421683,20.73317463,,,,,,,
NOAA_MHI_2015,NOAA-CREP,CREP-TOW,Lanai,,20151108306_LAN,21.38542945,8.018278896,"(5,10]",-156.9410477,20.73454053,2015/11/08,3054.5,7.5,32.5,12.5,55,67.5,10/5/2016,NOAA-CREP,NOAA CREP,NOAA CREP,"Noah Pomeroy, Thomas Oliver",Troy Kanemura,Towboard Survey,19617,-156.9421683,20.73317463,,,,,,,
NOAA_MHI_2015,NOAA-CREP,CREP-TOW,Lanai,,20151108307_LAN,28.20290741,10.09624618,"(10,15]",-156.9393176,20.73473204,2015/11/08,2260.8,22.5,55,22.5,22.5,45,10/5/2016,NOAA-CREP,NOAA CREP,NOAA CREP,"Noah Pomeroy, Thomas Oliver",Troy Kanemura,Towboard Survey,19617,-156.9421683,20.73317463,,,,,,,
NOAA_MHI_2015,NOAA-CREP,CREP-TOW,Lanai,,20151108308_LAN,27.65457685,9.929115024,"(5,10]",-156.9375937,20.73526101,2015/11/08,2219,5,62.5,17.5,20,37.5,10/5/2016,NOAA-CREP,NOAA CREP,NOAA CREP,"Noah Pomeroy, Thomas Oliver",Troy Kanemura,Towboard Survey,19618,-156.9331543,20.73317463,,,,,,,
NOAA_MHI_2015,NOAA-CREP,CREP-TOW,Lanai,,20151108309_LAN,27.11447529,9.764492068,"(5,10]",-156.9366158,20.73431012,2015/11/08,2357.7,10,52.5,22.5,25,47.5,10/5/2016,NOAA-CREP,NOAA CREP,NOAA CREP,"Noah Pomeroy, Thomas Oliver",Troy Kanemura,Towboard Survey,19618,-156.9331543,20.73317463,,,,,,,
NOAA_MHI_2015,NOAA-CREP,CREP-TOW,Lanai,,20151108310_LAN,18.61072894,7.172550181,"(5,10]",-156.9348437,20.73372268,2015/11/08,2713.5,15,47.5,12.5,40,52.5,10/5/2016,NOAA-CREP,NOAA CREP,NOAA CREP,"Noah Pomeroy, Thomas Oliver",Troy Kanemura,Towboard Survey,19618,-156.9331543,20.73317463,,,,,,,
NOAA_MHI_2015,NOAA-CREP,CREP-TOW,Lanai,,20151108401_LAN,30.18523396,10.70045931,"(10,15]",-156.9595403,20.73108755,2015/11/08,2618.5,32.5,62.5,25,12.5,37.5,10/5/2016,NOAA-CREP,NOAA CREP,NOAA CREP,"Noah Pomeroy, Thomas Oliver",Troy Kanemura,Towboard Survey,19615,-156.9601963,20.73317463,,,,,,,
NOAA_MHI_2015,NOAA-CREP,CREP-TOW,Lanai,,20151108402_LAN,32.00921965,11.25641015,"(10,15]",-156.957466,20.73220208,2015/11/08,2564.6,22.5,65,20,15,35,10/5/2016,NOAA-CREP,NOAA CREP,NOAA CREP,"Noah Pomeroy, Thomas Oliver",Troy Kanemura,Towboard Survey,19615,-156.9601963,20.73317463,,,,,,,
NOAA_MHI_2015,NOAA-CREP,CREP-TOW,Lanai,,20151108403_LAN,24.22835799,8.884803515,"(5,10]",-156.9551783,20.73249862,2015/11/08,2651,27.5,70,15,15,30,10/5/2016,NOAA-CREP,NOAA CREP,NOAA CREP,"Noah Pomeroy, Thomas Oliver",Troy Kanemura,Towboard Survey,19616,-156.9511823,20.73317463,,,,,,,
NOAA_MHI_2015,NOAA-CREP,CREP-TOW,Lanai,,20151108404_LAN,27.3690362,9.842082234,"(5,10]",-156.9529876,20.73327973,2015/11/08,2328.6,22.5,60,20,20,40,10/5/2016,NOAA-CREP,NOAA CREP,NOAA CREP,"Noah Pomeroy, Thomas Oliver",Troy Kanemura,Towboard Survey,19616,-156.9511823,20.73317463,,,,,,,
NOAA_MHI_2015,NOAA-CREP,CREP-TOW,Lanai,,20151108405_LAN,32.08274273,11.27881998,"(10,15]",-156.95086,20.73331565,2015/11/08,2420.4,22.5,65,17.5,17.5,35,10/5/2016,NOAA-CREP,NOAA CREP,NOAA CREP,"Noah Pomeroy, Thomas Oliver",Troy Kanemura,Towboard Survey,19616,-156.9511823,20.73317463,,,,,,,
NOAA_MHI_2015,NOAA-CREP,CREP-TOW,Lanai,,20151108406_LAN,33.30235467,11.6505577,"(10,15]",-156.9488779,20.73409835,2015/11/08,2284.9,32.5,70,20,10,30,10/5/2016,NOAA-CREP,NOAA CREP,NOAA CREP,"Noah Pomeroy, Thomas Oliver",Troy Kanemura,Towboard Survey,19616,-156.9511823,20.73317463,,,,,,,
NOAA_MHI_2015,NOAA-CREP,CREP-TOW,Lanai,,20151108407_LAN,30.54311444,10.80954128,"(10,15]",-156.946698,20.7343479,2015/11/08,2303.5,25,65,22.5,12.5,35,10/5/2016,NOAA-CREP,NOAA CREP,NOAA CREP,"Noah Pomeroy, Thomas Oliver",Troy Kanemura,Towboard Survey,19616,-156.9511823,20.73317463,,,,,,,
NOAA_MHI_2015,NOAA-CREP,CREP-TOW,Lanai,,20151108408_LAN,27.6756065,9.935524861,"(5,10]",-156.9446562,20.73462425,2015/11/08,2248.4,22.5,65,25,10,35,10/5/2016,NOAA-CREP,NOAA CREP,NOAA CREP,"Noah Pomeroy, Thomas Oliver",Troy Kanemura,Towboard Survey,19617,-156.9421683,20.73317463,,,,,,,
NOAA_MHI_2015,NOAA-CREP,CREP-TOW,Lanai,,20151108409_LAN,33.39744523,11.67954131,"(10,15]",-156.9425901,20.73448048,2015/11/08,2144.6,25,55,25,20,45,10/5/2016,NOAA-CREP,NOAA CREP,NOAA CREP,"Noah Pomeroy, Thomas Oliver",Troy Kanemura,Towboard Survey,19617,-156.9421683,20.73317463,,,,,,,
NOAA_MHI_2015,NOAA-CREP,CREP-TOW,Lanai,,20151108410_LAN,26.18843041,9.482233589,"(5,10]",-156.9406868,20.73427873,2015/11/08,2134,25,62.5,22.5,15,37.5,10/5/2016,NOAA-CREP,NOAA CREP,NOAA CREP,"Noah Pomeroy, Thomas Oliver",Troy Kanemura,Towboard Survey,19617,-156.9421683,20.73317463,,,,,,,
NOAA_MHI_2015,NOAA-CREP,CREP-TOW,Maui,,20151110101_MAI,21.42022787,8.028885455,"(5,10]",-156.4417096,20.60398025,2015/11/10,2954.8,5,93,4,3,7,10/5/2016,NOAA-CREP,NOAA CREP,NOAA CREP,"Noah Pomeroy, Thomas Oliver",Troy Kanemura,Towboard Survey,22963,-156.4373844,20.60682163,,,,,,,
NOAA_MHI_2015,NOAA-CREP,CREP-TOW,Maui,,20151110102_MAI,27.29954693,9.820901904,"(5,10]",-156.4395768,20.60353113,2015/11/10,2079.7,10,91.5,5.5,3,8.5,10/5/2016,NOAA-CREP,NOAA CREP,NOAA CREP,"Noah Pomeroy, Thomas Oliver",Troy Kanemura,Towboard Survey,22963,-156.4373844,20.60682163,,,,,,,
NOAA_MHI_2015,NOAA-CREP,CREP-TOW,Maui,,20151110103_MAI,22.19891642,8.266229725,"(5,10]",-156.4380731,20.60250458,2015/11/10,2449.5,12.5,94,3,3,6,10/5/2016,NOAA-CREP,NOAA CREP,NOAA CREP,"Noah Pomeroy, Thomas Oliver",Troy Kanemura,Towboard Survey,22963,-156.4373844,20.60682163,,,,,,,
NOAA_MHI_2015,NOAA-CREP,CREP-TOW,Maui,,20151110104_MAI,19.24540744,7.366000188,"(5,10]",-156.4382275,20.60016259,2015/11/10,2981,25,94,3,3,6,10/5/2016,NOAA-CREP,NOAA CREP,NOAA CREP,"Noah Pomeroy, Thomas Oliver",Troy Kanemura,Towboard Survey,23198,-156.4373844,20.59779642,,,,,,,
NOAA_MHI_2015,NOAA-CREP,CREP-TOW,Maui,,20151110105_MAI,24.67708009,9.021574011,"(5,10]",-156.4376197,20.59821597,2015/11/10,2373,12.5,92,5,3,8,10/5/2016,NOAA-CREP,NOAA CREP,NOAA CREP,"Noah Pomeroy, Thomas Oliver",Troy Kanemura,Towboard Survey,23198,-156.4373844,20.59779642,,,,,,,
NOAA_MHI_2015,NOAA-CREP,CREP-TOW,Maui,,20151110106_MAI,27.00163591,9.730098625,"(5,10]",-156.4360171,20.59789824,2015/11/10,1687.1,15,88,10,2,12,10/5/2016,NOAA-CREP,NOAA CREP,NOAA CREP,"Noah Pomeroy, Thomas Oliver",Troy Kanemura,Towboard Survey,23198,-156.4373844,20.59779642,,,,,,,
NOAA_MHI_2015,NOAA-CREP,CREP-TOW,Maui,,20151110107_MAI,21.6603746,8.102082178,"(5,10]",-156.4347126,20.59749447,2015/11/10,1978.3,12.5,94.5,3,2.5,5.5,10/5/2016,NOAA-CREP,NOAA CREP,NOAA CREP,"Noah Pomeroy, Thomas Oliver",Troy Kanemura,Towboard Survey,23198,-156.4373844,20.59779642,,,,,,,
NOAA_MHI_2015,NOAA-CREP,CREP-TOW,Maui,,20151110108_MAI,23.92942506,8.793688758,"(5,10]",-156.4334593,20.59613099,2015/11/10,1714.9,15,94,3,3,6,10/5/2016,NOAA-CREP,NOAA CREP,NOAA CREP,"Noah Pomeroy, Thomas Oliver",Troy Kanemura,Towboard Survey,23198,-156.4373844,20.59779642,,,,,,,
NOAA_MHI_2015,NOAA-CREP,CREP-TOW,Maui,,20151110109_MAI,18.61032287,7.172426411,"(5,10]",-156.4321385,20.59587268,2015/11/10,1695.3,12.5,98,1,1,2,10/5/2016,NOAA-CREP,NOAA CREP,NOAA CREP,"Noah Pomeroy, Thomas Oliver",Troy Kanemura,Towboard Survey,23199,-156.4283704,20.59779642,,,,,,,
NOAA_MHI_2015,NOAA-CREP,CREP-TOW,Maui,,20151110110_MAI,24.90348942,9.090583575,"(5,10]",-156.4309857,20.59494953,2015/11/10,1852.1,12.5,98,1,1,2,10/5/2016,NOAA-CREP,NOAA CREP,NOAA CREP,"Noah Pomeroy, Thomas Oliver",Troy Kanemura,Towboard Survey,23199,-156.4283704,20.59779642,,,,,,,
NOAA_MHI_2015,NOAA-CREP,CREP-TOW,Maui,,20151110201_MAI,15.24294399,6.146049328,"(5,10]",-156.441507,20.62249651,2015/11/10,2356.2,15,91,5,4,9,10/5/2016,NOAA-CREP,NOAA CREP,NOAA CREP,"Noah Pomeroy, Thomas Oliver",Troy Kanemura,Towboard Survey,22493,-156.4373844,20.62487206,,,,,,,
NOAA_MHI_2015,NOAA-CREP,CREP-TOW,Maui,,20151110202_MAI,13.01670581,5.467491931,"(5,10]",-156.4408229,20.62066836,2015/11/10,2431.7,27.5,91,5,4,9,10/5/2016,NOAA-CREP,NOAA CREP,NOAA CREP,"Noah Pomeroy, Thomas Oliver",Troy Kanemura,Towboard Survey,22493,-156.4373844,20.62487206,,,,,,,
NOAA_MHI_2015,NOAA-CREP,CREP-TOW,Maui,,20151110203_MAI,14.48985675,5.916508337,"(5,10]",-156.4398122,20.61891219,2015/11/10,2335.7,37.5,87.5,7.5,5,12.5,10/5/2016,NOAA-CREP,NOAA CREP,NOAA CREP,"Noah Pomeroy, Thomas Oliver",Troy Kanemura,Towboard Survey,22728,-156.4373844,20.61584685,,,,,,,
NOAA_MHI_2015,NOAA-CREP,CREP-TOW,Maui,,20151110204_MAI,14.64809005,5.964737847,"(5,10]",-156.4386912,20.61721445,2015/11/10,2373.1,32.5,93,5,2,7,10/5/2016,NOAA-CREP,NOAA CREP,NOAA CREP,"Noah Pomeroy, Thomas Oliver",Troy Kanemura,Towboard Survey,22728,-156.4373844,20.61584685,,,,,,,
NOAA_MHI_2015,NOAA-CREP,CREP-TOW,Maui,,20151110205_MAI,23.6579732,8.710950231,"(5,10]",-156.438887,20.61528606,2015/11/10,2077.8,42.5,93,3,4,7,10/5/2016,NOAA-CREP,NOAA CREP,NOAA CREP,"Noah Pomeroy, Thomas Oliver",Troy Kanemura,Towboard Survey,22728,-156.4373844,20.61584685,,,,,,,
NOAA_MHI_2015,NOAA-CREP,CREP-TOW,Maui,,20151110301_MAI,21.69979847,8.114098574,"(5,10]",-156.4637661,20.74943018,2015/11/10,1817.4,52.5,67.5,20,12.5,32.5,10/5/2016,NOAA-CREP,NOAA CREP,NOAA CREP,"Noah Pomeroy, Thomas Oliver",Troy Kanemura,Towboard Survey,19200,-156.4644264,20.75122506,,,,,,,
NOAA_MHI_2015,NOAA-CREP,CREP-TOW,Maui,,20151110302_MAI,23.54707274,8.677147771,"(5,10]",-156.4632845,20.74778,2015/11/10,2029.3,0.1,85,7.5,7.5,15,10/5/2016,NOAA-CREP,NOAA CREP,NOAA CREP,"Noah Pomeroy, Thomas Oliver",Troy Kanemura,Towboard Survey,19200,-156.4644264,20.75122506,,,,,,,
NOAA_MHI_2015,NOAA-CREP,CREP-TOW,Maui,,20151110303_MAI,20.5985657,7.778442825,"(5,10]",-156.4625037,20.74642396,2015/11/10,1966.1,0,100,0,0,0,10/5/2016,NOAA-CREP,NOAA CREP,NOAA CREP,"Noah Pomeroy, Thomas Oliver",Troy Kanemura,Towboard Survey,19435,-156.4644264,20.74219984,,,,,,,
NOAA_MHI_2015,NOAA-CREP,CREP-TOW,Maui,,20151110304_MAI,13.01809972,5.467916795,"(5,10]",-156.4613597,20.74510435,2015/11/10,1931.1,0.1,40,0,60,60,10/5/2016,NOAA-CREP,NOAA CREP,NOAA CREP,"Noah Pomeroy, Thomas Oliver",Troy Kanemura,Towboard Survey,19435,-156.4644264,20.74219984,,,,,,,
NOAA_MHI_2015,NOAA-CREP,CREP-TOW,Maui,,20151110401_MAI,7.150133615,3.679360726,"[0,5]",-156.4597465,20.74053642,2015/11/10,1877.5,15,45,40,15,55,10/5/2016,NOAA-CREP,NOAA CREP,NOAA CREP,"Noah Pomeroy, Thomas Oliver",Troy Kanemura,Towboard Survey,19436,-156.4554124,20.74219984,,,,,,,
NOAA_MHI_2015,NOAA-CREP,CREP-TOW,Maui,,20151110402_MAI,5.554408337,3.192983661,"[0,5]",-156.4594391,20.73891349,2015/11/10,1972.1,22.5,52.5,30,17.5,47.5,10/5/2016,NOAA-CREP,NOAA CREP,NOAA CREP,"Noah Pomeroy, Thomas Oliver",Troy Kanemura,Towboard Survey,19436,-156.4554124,20.74219984,,,,,,,
NOAA_MHI_2015,NOAA-CREP,CREP-TOW,Maui,,20151110403_MAI,6.28872487,3.41680334,"[0,5]",-156.4598458,20.7371706,2015/11/10,2134.5,22.5,47.5,32.5,20,52.5,10/5/2016,NOAA-CREP,NOAA CREP,NOAA CREP,"Noah Pomeroy, Thomas Oliver",Troy Kanemura,Towboard Survey,19671,-156.4554124,20.73317463,,,,,,,
NOAA_MHI_2015,NOAA-CREP,CREP-TOW,Maui,,20151110404_MAI,6.151575,3.37500006,"[0,5]",-156.4599677,20.73539758,2015/11/10,2012.9,25,52.5,32.5,15,47.5,10/5/2016,NOAA-CREP,NOAA CREP,NOAA CREP,"Noah Pomeroy, Thomas Oliver",Troy Kanemura,Towboard Survey,19670,-156.4644264,20.73317463,,,,,,,
NOAA_MHI_2015,NOAA-CREP,CREP-TOW,Maui,,20151110405_MAI,5.698496373,3.236901694,"[0,5]",-156.4592921,20.73386052,2015/11/10,2089.9,20,52.5,32.5,15,47.5,10/5/2016,NOAA-CREP,NOAA CREP,NOAA CREP,"Noah Pomeroy, Thomas Oliver",Troy Kanemura,Towboard Survey,19671,-156.4554124,20.73317463,,,,,,,
NOAA_MHI_2015,NOAA-CREP,CREP-TOW,Maui,,20151110406_MAI,6.294963843,3.418704979,"[0,5]",-156.4586976,20.73216298,2015/11/10,2018.3,22.5,55,20,25,45,10/5/2016,NOAA-CREP,NOAA CREP,NOAA CREP,"Noah Pomeroy, Thomas Oliver",Troy Kanemura,Towboard Survey,19671,-156.4554124,20.73317463,,,,,,,
NOAA_MHI_2015,NOAA-CREP,CREP-TOW,Maui,,20151110407_MAI,9.39014057,4.362114846,"[0,5]",-156.4580662,20.73054129,2015/11/10,1943,22.5,57.5,20,22.5,42.5,10/5/2016,NOAA-CREP,NOAA CREP,NOAA CREP,"Noah Pomeroy, Thomas Oliver",Troy Kanemura,Towboard Survey,19671,-156.4554124,20.73317463,,,,,,,
NOAA_MHI_2015,NOAA-CREP,CREP-TOW,Maui,,20151110408_MAI,8.495600718,4.089459099,"[0,5]",-156.4570041,20.72918935,2015/11/10,1913.1,10,52.5,27.5,20,47.5,10/5/2016,NOAA-CREP,NOAA CREP,NOAA CREP,"Noah Pomeroy, Thomas Oliver",Troy Kanemura,Towboard Survey,19671,-156.4554124,20.73317463,,,,,,,
NOAA_MHI_2015,NOAA-CREP,CREP-TOW,Maui,,20151110409_MAI,8.809915948,4.185262381,"[0,5]",-156.4557119,20.72798015,2015/11/10,2012.2,20,65,20,15,35,10/5/2016,NOAA-CREP,NOAA CREP,NOAA CREP,"Noah Pomeroy, Thomas Oliver",Troy Kanemura,Towboard Survey,19906,-156.4554124,20.72414942,,,,,,,
NOAA_MHI_2015,NOAA-CREP,CREP-TOW,Maui,,20151110410_MAI,11.45734945,4.992200112,"[0,5]",-156.4541442,20.72706982,2015/11/10,2053.1,9,55,30,15,45,10/5/2016,NOAA-CREP,NOAA CREP,NOAA CREP,"Noah Pomeroy, Thomas Oliver",Troy Kanemura,Towboard Survey,19906,-156.4554124,20.72414942,,,,,,,
NOAA_MHI_2015,NOAA-CREP,CREP-TOW,Hawaii,,20151111101_HAW,29.87511032,10.60593363,"(10,15]",-155.8972047,20.14571594,2015/11/11,2194.3,17.5,60,30,10,40,10/5/2016,NOAA-CREP,NOAA CREP,NOAA CREP,"Noah Pomeroy, Thomas Oliver",Troy Kanemura,Towboard Survey,35008,-155.8965445,20.14653572,,,,,,,
NOAA_MHI_2015,NOAA-CREP,CREP-TOW,Hawaii,,20151111102_HAW,25.95652042,9.411547424,"(5,10]",-155.8967246,20.14388877,2015/11/11,2005.2,20,45,35,20,55,10/5/2016,NOAA-CREP,NOAA CREP,NOAA CREP,"Noah Pomeroy, Thomas Oliver",Troy Kanemura,Towboard Survey,35008,-155.8965445,20.14653572,,,,,,,
NOAA_MHI_2015,NOAA-CREP,CREP-TOW,Hawaii,,20151111103_HAW,27.84926121,9.988454817,"(5,10]",-155.8969009,20.1424257,2015/11/11,1499.2,30,65,20,15,35,10/5/2016,NOAA-CREP,NOAA CREP,NOAA CREP,"Noah Pomeroy, Thomas Oliver",Troy Kanemura,Towboard Survey,35008,-155.8965445,20.14653572,,,,,,,
NOAA_MHI_2015,NOAA-CREP,CREP-TOW,Hawaii,,20151111104_HAW,29.7408146,10.56500029,"(10,15]",-155.8962418,20.14135004,2015/11/11,1392,27.5,55,35,10,45,10/5/2016,NOAA-CREP,NOAA CREP,NOAA CREP,"Noah Pomeroy, Thomas Oliver",Troy Kanemura,Towboard Survey,35243,-155.8965445,20.13751051,,,,,,,
NOAA_MHI_2015,NOAA-CREP,CREP-TOW,Hawaii,,20151111105_HAW,26.7614838,9.656900262,"(5,10]",-155.8958805,20.14018811,2015/11/11,1382.6,20,47.5,40,12.5,52.5,10/5/2016,NOAA-CREP,NOAA CREP,NOAA CREP,"Noah Pomeroy, Thomas Oliver",Troy Kanemura,Towboard Survey,35243,-155.8965445,20.13751051,,,,,,,
NOAA_MHI_2015,NOAA-CREP,CREP-TOW,Hawaii,,20151111106_HAW,29.61911106,10.52790505,"(10,15]",-155.8948285,20.13915463,2015/11/11,1848.9,10,52.5,32.5,15,47.5,10/5/2016,NOAA-CREP,NOAA CREP,NOAA CREP,"Noah Pomeroy, Thomas Oliver",Troy Kanemura,Towboard Survey,35243,-155.8965445,20.13751051,,,,,,,
NOAA_MHI_2015,NOAA-CREP,CREP-TOW,Hawaii,,20151111107_HAW,27.42550651,9.859294384,"(5,10]",-155.8935941,20.13773058,2015/11/11,2239.5,17.5,63.5,32.5,4,36.5,10/5/2016,NOAA-CREP,NOAA CREP,NOAA CREP,"Noah Pomeroy, Thomas Oliver",Troy Kanemura,Towboard Survey,35243,-155.8965445,20.13751051,,,,,,,
NOAA_MHI_2015,NOAA-CREP,CREP-TOW,Hawaii,,20151111108_HAW,24.5715617,8.989412006,"(5,10]",-155.8939648,20.1359635,2015/11/11,1961.6,30,58.5,37.5,4,41.5,10/5/2016,NOAA-CREP,NOAA CREP,NOAA CREP,"Noah Pomeroy, Thomas Oliver",Troy Kanemura,Towboard Survey,35243,-155.8965445,20.13751051,,,,,,,
NOAA_MHI_2015,NOAA-CREP,CREP-TOW,Hawaii,,20151111109_HAW,27.73093556,9.952389159,"(5,10]",-155.893386,20.13426347,2015/11/11,2197,32.5,61,35,4,39,10/5/2016,NOAA-CREP,NOAA CREP,NOAA CREP,"Noah Pomeroy, Thomas Oliver",Troy Kanemura,Towboard Survey,35243,-155.8965445,20.13751051,,,,,,,
NOAA_MHI_2015,NOAA-CREP,CREP-TOW,Hawaii,,20151111110_HAW,26.54507139,9.59093776,"(5,10]",-155.892466,20.1325657,2015/11/11,2064.5,35,57.5,32.5,10,42.5,10/5/2016,NOAA-CREP,NOAA CREP,NOAA CREP,"Noah Pomeroy, Thomas Oliver",Troy Kanemura,Towboard Survey,35478,-155.8965445,20.12848529,,,,,,,
NOAA_MHI_2015,NOAA-CREP,CREP-TOW,Hawaii,,20151111201_HAW,20.37273259,7.709608893,"(5,10]",-155.8906466,20.12280433,2015/11/11,2389.2,27.5,62.5,25,12.5,37.5,10/5/2016,NOAA-CREP,NOAA CREP,NOAA CREP,"Noah Pomeroy, Thomas Oliver",Troy Kanemura,Towboard Survey,35714,-155.8875305,20.11946008,,,,,,,
NOAA_MHI_2015,NOAA-CREP,CREP-TOW,Hawaii,,20151111202_HAW,22.88590953,8.475625225,"(5,10]",-155.8889393,20.12107909,2015/11/11,2906.3,42.5,52.5,27.5,20,47.5,10/5/2016,NOAA-CREP,NOAA CREP,NOAA CREP,"Noah Pomeroy, Thomas Oliver",Troy Kanemura,Towboard Survey,35714,-155.8875305,20.11946008,,,,,,,
NOAA_MHI_2015,NOAA-CREP,CREP-TOW,Hawaii,,20151111203_HAW,24.36490589,8.926423315,"(5,10]",-155.8876288,20.1196259,2015/11/11,1975.5,45,50,35,15,50,10/5/2016,NOAA-CREP,NOAA CREP,NOAA CREP,"Noah Pomeroy, Thomas Oliver",Troy Kanemura,Towboard Survey,35714,-155.8875305,20.11946008,,,,,,,
NOAA_MHI_2015,NOAA-CREP,CREP-TOW,Hawaii,,20151111204_HAW,18.30337842,7.078869742,"(5,10]",-155.8883399,20.11835337,2015/11/11,1491.8,27.5,57.5,32.5,10,42.5,10/5/2016,NOAA-CREP,NOAA CREP,NOAA CREP,"Noah Pomeroy, Thomas Oliver",Troy Kanemura,Towboard Survey,35714,-155.8875305,20.11946008,,,,,,,
NOAA_MHI_2015,NOAA-CREP,CREP-TOW,Hawaii,,20151111205_HAW,18.26130457,7.066045633,"(5,10]",-155.8875072,20.11725629,2015/11/11,1758.8,30,47.5,35,17.5,52.5,10/5/2016,NOAA-CREP,NOAA CREP,NOAA CREP,"Noah Pomeroy, Thomas Oliver",Troy Kanemura,Towboard Survey,35714,-155.8875305,20.11946008,,,,,,,
NOAA_MHI_2015,NOAA-CREP,CREP-TOW,Hawaii,,20151111206_HAW,21.62103386,8.090091121,"(5,10]",-155.8860135,20.11627212,2015/11/11,2221.5,55,35,40,25,65,10/5/2016,NOAA-CREP,NOAA CREP,NOAA CREP,"Noah Pomeroy, Thomas Oliver",Troy Kanemura,Towboard Survey,35714,-155.8875305,20.11946008,,,,,,,
NOAA_MHI_2015,NOAA-CREP,CREP-TOW,Hawaii,,20151111207_HAW,25.24755509,9.195454791,"(5,10]",-155.8853113,20.11466536,2015/11/11,1807.8,45,50,25,25,50,10/5/2016,NOAA-CREP,NOAA CREP,NOAA CREP,"Noah Pomeroy, Thomas Oliver",Troy Kanemura,Towboard Survey,35949,-155.8875305,20.11043486,,,,,,,
NOAA_MHI_2015,NOAA-CREP,CREP-TOW,Hawaii,,20151111208_HAW,24.46237098,8.956130675,"(5,10]",-155.8856909,20.11315018,2015/11/11,1765.4,37.5,35,45,20,65,10/5/2016,NOAA-CREP,NOAA CREP,NOAA CREP,"Noah Pomeroy, Thomas Oliver",Troy Kanemura,Towboard Survey,35949,-155.8875305,20.11043486,,,,,,,
NOAA_MHI_2015,NOAA-CREP,CREP-TOW,Hawaii,,20151111209_HAW,24.34523887,8.920428808,"(5,10]",-155.8847522,20.11179616,2015/11/11,1970.4,37.5,60,27.5,12.5,40,10/5/2016,NOAA-CREP,NOAA CREP,NOAA CREP,"Noah Pomeroy, Thomas Oliver",Troy Kanemura,Towboard Survey,35949,-155.8875305,20.11043486,,,,,,,
NOAA_MHI_2015,NOAA-CREP,CREP-TOW,Hawaii,,20151111210_HAW,17.16926064,6.733190643,"(5,10]",-155.8837773,20.110393,2015/11/11,1896.6,35,57.5,27.5,15,42.5,10/5/2016,NOAA-CREP,NOAA CREP,NOAA CREP,"Noah Pomeroy, Thomas Oliver",Troy Kanemura,Towboard Survey,35949,-155.8875305,20.11043486,,,,,,,
NOAA_MHI_2015,NOAA-CREP,CREP-TOW,Hawaii,,20151111301_HAW,31.28541144,11.03579341,"(10,15]",-155.8840706,20.10587233,2015/11/11,2076.1,25,48.5,45,6.5,51.5,10/5/2016,NOAA-CREP,NOAA CREP,NOAA CREP,"Noah Pomeroy, Thomas Oliver",Troy Kanemura,Towboard Survey,36184,-155.8875305,20.10140965,,,,,,,
NOAA_MHI_2015,NOAA-CREP,CREP-TOW,Hawaii,,20151111302_HAW,22.83047079,8.458727497,"(5,10]",-155.8829609,20.1043288,2015/11/11,2161.4,30,50,45,5,50,10/5/2016,NOAA-CREP,NOAA CREP,NOAA CREP,"Noah Pomeroy, Thomas Oliver",Troy Kanemura,Towboard Survey,36185,-155.8785165,20.10140965,,,,,,,
NOAA_MHI_2015,NOAA-CREP,CREP-TOW,Hawaii,,20151111303_HAW,25.27135361,9.20270858,"(5,10]",-155.881866,20.10310712,2015/11/11,2209,35,52.5,40,7.5,47.5,10/5/2016,NOAA-CREP,NOAA CREP,NOAA CREP,"Noah Pomeroy, Thomas Oliver",Troy Kanemura,Towboard Survey,36185,-155.8785165,20.10140965,,,,,,,
NOAA_MHI_2015,NOAA-CREP,CREP-TOW,Hawaii,,20151111304_HAW,27.42290114,9.858500267,"(5,10]",-155.8803788,20.10210719,2015/11/11,2027.6,40,53.5,42.5,4,46.5,10/5/2016,NOAA-CREP,NOAA CREP,NOAA CREP,"Noah Pomeroy, Thomas Oliver",Troy Kanemura,Towboard Survey,36185,-155.8785165,20.10140965,,,,,,,
NOAA_MHI_2015,NOAA-CREP,CREP-TOW,Hawaii,,20151111305_HAW,26.19149253,9.483166923,"(5,10]",-155.8796164,20.1004441,2015/11/11,2518.3,30,56,40,4,44,10/5/2016,NOAA-CREP,NOAA CREP,NOAA CREP,"Noah Pomeroy, Thomas Oliver",Troy Kanemura,Towboard Survey,36185,-155.8785165,20.10140965,,,,,,,
NOAA_MHI_2015,NOAA-CREP,CREP-TOW,Hawaii,,20151111306_HAW,23.14017463,8.553125227,"(5,10]",-155.8788249,20.09862833,2015/11/11,2120.9,32.5,55,37.5,7.5,45,10/5/2016,NOAA-CREP,NOAA CREP,NOAA CREP,"Noah Pomeroy, Thomas Oliver",Troy Kanemura,Towboard Survey,36185,-155.8785165,20.10140965,,,,,,,
NOAA_MHI_2015,NOAA-CREP,CREP-TOW,Hawaii,,20151111307_HAW,24.52178556,8.974240239,"(5,10]",-155.8786547,20.09673486,2015/11/11,2417.2,20,55,37.5,7.5,45,10/5/2016,NOAA-CREP,NOAA CREP,NOAA CREP,"Noah Pomeroy, Thomas Oliver",Troy Kanemura,Towboard Survey,36420,-155.8785165,20.09238444,,,,,,,
NOAA_MHI_2015,NOAA-CREP,CREP-TOW,Hawaii,,20151111308_HAW,25.88674624,9.390280254,"(5,10]",-155.8775168,20.095834,2015/11/11,2133.3,22.5,52.5,40,7.5,47.5,10/5/2016,NOAA-CREP,NOAA CREP,NOAA CREP,"Noah Pomeroy, Thomas Oliver",Troy Kanemura,Towboard Survey,36420,-155.8785165,20.09238444,,,,,,,
NOAA_MHI_2015,NOAA-CREP,CREP-TOW,Hawaii,,20151111309_HAW,25.03609004,9.131000244,"(5,10]",-155.8764165,20.09452217,2015/11/11,1910.3,22.5,47.5,42.5,10,52.5,10/5/2016,NOAA-CREP,NOAA CREP,NOAA CREP,"Noah Pomeroy, Thomas Oliver",Troy Kanemura,Towboard Survey,36420,-155.8785165,20.09238444,,,,,,,
NOAA_MHI_2015,NOAA-CREP,CREP-TOW,Hawaii,,20151111310_HAW,25.12467272,9.158000245,"(5,10]",-155.8755712,20.09323859,2015/11/11,1911.3,27.5,45,42.5,12.5,55,10/5/2016,NOAA-CREP,NOAA CREP,NOAA CREP,"Noah Pomeroy, Thomas Oliver",Troy Kanemura,Towboard Survey,36420,-155.8785165,20.09238444,,,,,,,
NOAA_MHI_2015,NOAA-CREP,CREP-TOW,Hawaii,,20151111401_HAW,27.35485199,9.837758887,"(5,10]",-155.8718416,20.0872948,2015/11/11,2667.5,45,40,45,15,60,10/5/2016,NOAA-CREP,NOAA CREP,NOAA CREP,"Noah Pomeroy, Thomas Oliver",Troy Kanemura,Towboard Survey,36656,-155.8695025,20.08335922,,,,,,,
NOAA_MHI_2015,NOAA-CREP,CREP-TOW,Hawaii,,20151111402_HAW,28.08486529,10.06026694,"(10,15]",-155.8709724,20.08514774,2015/11/11,2709.7,30,42.5,42.5,15,57.5,10/5/2016,NOAA-CREP,NOAA CREP,NOAA CREP,"Noah Pomeroy, Thomas Oliver",Troy Kanemura,Towboard Survey,36656,-155.8695025,20.08335922,,,,,,,
NOAA_MHI_2015,NOAA-CREP,CREP-TOW,Hawaii,,20151111403_HAW,21.99029879,8.202643071,"(5,10]",-155.8691988,20.08356882,2015/11/11,2765,37.5,52.5,32.5,15,47.5,10/5/2016,NOAA-CREP,NOAA CREP,NOAA CREP,"Noah Pomeroy, Thomas Oliver",Troy Kanemura,Towboard Survey,36656,-155.8695025,20.08335922,,,,,,,
NOAA_MHI_2015,NOAA-CREP,CREP-TOW,Hawaii,,20151111404_HAW,26.09992887,9.45525832,"(5,10]",-155.8677806,20.08135114,2015/11/11,3068.8,37.5,50,30,20,50,10/5/2016,NOAA-CREP,NOAA CREP,NOAA CREP,"Noah Pomeroy, Thomas Oliver",Troy Kanemura,Towboard Survey,36656,-155.8695025,20.08335922,,,,,,,
NOAA_MHI_2015,NOAA-CREP,CREP-TOW,Hawaii,,20151111405_HAW,31.35470259,11.05691335,"(10,15]",-155.8662509,20.07951759,2015/11/11,2361.3,45,40,37.5,22.5,60,10/5/2016,NOAA-CREP,NOAA CREP,NOAA CREP,"Noah Pomeroy, Thomas Oliver",Troy Kanemura,Towboard Survey,36656,-155.8695025,20.08335922,,,,,,,
NOAA_MHI_2015,NOAA-CREP,CREP-TOW,Hawaii,,20151111406_HAW,24.3611203,8.925269467,"(5,10]",-155.8654489,20.07741916,2015/11/11,2605,52.5,40,35,25,60,10/5/2016,NOAA-CREP,NOAA CREP,NOAA CREP,"Noah Pomeroy, Thomas Oliver",Troy Kanemura,Towboard Survey,36891,-155.8695025,20.07433401,,,,,,,
NOAA_MHI_2015,NOAA-CREP,CREP-TOW,Hawaii,,20151111407_HAW,20.59626293,7.777740941,"(5,10]",-155.8642419,20.0752913,2015/11/11,2925,37.5,40,32.5,27.5,60,10/5/2016,NOAA-CREP,NOAA CREP,NOAA CREP,"Noah Pomeroy, Thomas Oliver",Troy Kanemura,Towboard Survey,36892,-155.8604885,20.07433401,,,,,,,
NOAA_MHI_2015,NOAA-CREP,CREP-TOW,Hawaii,,20151111408_HAW,25.6315625,9.31250025,"(5,10]",-155.8622059,20.0740523,2015/11/11,2502.7,27.5,37.5,30,32.5,62.5,10/5/2016,NOAA-CREP,NOAA CREP,NOAA CREP,"Noah Pomeroy, Thomas Oliver",Troy Kanemura,Towboard Survey,36892,-155.8604885,20.07433401,,,,,,,
NOAA_MHI_2015,NOAA-CREP,CREP-TOW,Hawaii,,20151111409_HAW,19.60108032,7.474409282,"(5,10]",-155.8602932,20.0734044,2015/11/11,2227.2,32.5,37.5,30,32.5,62.5,10/5/2016,NOAA-CREP,NOAA CREP,NOAA CREP,"Noah Pomeroy, Thomas Oliver",Troy Kanemura,Towboard Survey,36892,-155.8604885,20.07433401,,,,,,,
NOAA_MHI_2015,NOAA-CREP,CREP-TOW,Hawaii,,20151111410_HAW,25.77849726,9.357285965,"(5,10]",-155.8589616,20.07199025,2015/11/11,2208.4,37.5,27.5,40,32.5,72.5,10/5/2016,NOAA-CREP,NOAA CREP,NOAA CREP,"Noah Pomeroy, Thomas Oliver",Troy Kanemura,Towboard Survey,36892,-155.8604885,20.07433401,,,,,,,
NOAA_MHI_2015,NOAA-CREP,CREP-TOW,Hawaii,,20151111501_HAW,25.27652874,9.20428596,"(5,10]",-155.8568733,20.06994098,2015/11/11,1961.1,27.5,45,35,20,55,10/5/2016,NOAA-CREP,NOAA CREP,NOAA CREP,"Noah Pomeroy, Thomas Oliver",Troy Kanemura,Towboard Survey,36892,-155.8604885,20.07433401,,,,,,,
NOAA_MHI_2015,NOAA-CREP,CREP-TOW,Hawaii,,20151111502_HAW,23.84724486,8.768640233,"(5,10]",-155.8563365,20.06831287,2015/11/11,2076.5,25,35,32.5,32.5,65,10/5/2016,NOAA-CREP,NOAA CREP,NOAA CREP,"Noah Pomeroy, Thomas Oliver",Troy Kanemura,Towboard Survey,37127,-155.8604885,20.06530879,,,,,,,
NOAA_MHI_2015,NOAA-CREP,CREP-TOW,Hawaii,,20151111503_HAW,24.42191679,8.943800238,"(5,10]",-155.8551998,20.06681232,2015/11/11,2269.1,27.5,42.5,20,37.5,57.5,10/5/2016,NOAA-CREP,NOAA CREP,NOAA CREP,"Noah Pomeroy, Thomas Oliver",Troy Kanemura,Towboard Survey,37128,-155.8514745,20.06530879,,,,,,,
NOAA_MHI_2015,NOAA-CREP,CREP-TOW,Hawaii,,20151111504_HAW,28.22459783,10.10285742,"(10,15]",-155.8540553,20.06517358,2015/11/11,2179.5,25,40,20,40,60,10/5/2016,NOAA-CREP,NOAA CREP,NOAA CREP,"Noah Pomeroy, Thomas Oliver",Troy Kanemura,Towboard Survey,37128,-155.8514745,20.06530879,,,,,,,
NOAA_MHI_2015,NOAA-CREP,CREP-TOW,Hawaii,,20151111505_HAW,30.30884731,10.73813666,"(10,15]",-155.852935,20.06378652,2015/11/11,1956.7,25,45,17.5,37.5,55,10/5/2016,NOAA-CREP,NOAA CREP,NOAA CREP,"Noah Pomeroy, Thomas Oliver",Troy Kanemura,Towboard Survey,37128,-155.8514745,20.06530879,,,,,,,
NOAA_MHI_2015,NOAA-CREP,CREP-TOW,Hawaii,,20151111506_HAW,23.2043828,8.572695877,"(5,10]",-155.8518307,20.06240877,2015/11/11,2076.9,25,40,15,45,60,10/5/2016,NOAA-CREP,NOAA CREP,NOAA CREP,"Noah Pomeroy, Thomas Oliver",Troy Kanemura,Towboard Survey,37128,-155.8514745,20.06530879,,,,,,,
NOAA_MHI_2015,NOAA-CREP,CREP-TOW,Hawaii,,20151111507_HAW,30.47870534,10.78990939,"(10,15]",-155.8504326,20.06125439,2015/11/11,2017.4,27.5,37.5,25,37.5,62.5,10/5/2016,NOAA-CREP,NOAA CREP,NOAA CREP,"Noah Pomeroy, Thomas Oliver",Troy Kanemura,Towboard Survey,37128,-155.8514745,20.06530879,,,,,,,
NOAA_MHI_2015,NOAA-CREP,CREP-TOW,Hawaii,,20151111508_HAW,22.39650513,8.326454764,"(5,10]",-155.8489719,20.06031239,2015/11/11,1894.1,32.5,30,25,45,70,10/5/2016,NOAA-CREP,NOAA CREP,NOAA CREP,"Noah Pomeroy, Thomas Oliver",Troy Kanemura,Towboard Survey,37363,-155.8514745,20.05628358,,,,,,,
NOAA_MHI_2015,NOAA-CREP,CREP-TOW,Hawaii,,20151111509_HAW,22.60990886,8.391500221,"(5,10]",-155.8476224,20.05888954,2015/11/11,2367.1,32.5,27.5,27.5,45,72.5,10/5/2016,NOAA-CREP,NOAA CREP,NOAA CREP,"Noah Pomeroy, Thomas Oliver",Troy Kanemura,Towboard Survey,37363,-155.8514745,20.05628358,,,,,,,
NOAA_MHI_2015,NOAA-CREP,CREP-TOW,Hawaii,,20151111510_HAW,24.25410183,8.892650238,"(5,10]",-155.8460193,20.05752677,2015/11/11,2181.8,30,42.5,20,37.5,57.5,10/5/2016,NOAA-CREP,NOAA CREP,NOAA CREP,"Noah Pomeroy, Thomas Oliver",Troy Kanemura,Towboard Survey,37364,-155.8424605,20.05628358,,,,,,,
NOAA_MHI_2015,NOAA-CREP,CREP-TOW,Hawaii,,20151112101_HAW,27.99384798,10.03252486,"(10,15]",-155.8303229,19.99700278,2015/11/12,2521.4,22.5,47.5,20,32.5,52.5,10/5/2016,NOAA-CREP,NOAA CREP,NOAA CREP,"Noah Pomeroy, Thomas Oliver",Troy Kanemura,Towboard Survey,39010,-155.8334465,19.99310708,,,,,,,
NOAA_MHI_2015,NOAA-CREP,CREP-TOW,Hawaii,,20151112102_HAW,28.53206709,10.19657405,"(10,15]",-155.8297931,19.99488087,2015/11/12,2371.4,12.5,45,20,35,55,10/5/2016,NOAA-CREP,NOAA CREP,NOAA CREP,"Noah Pomeroy, Thomas Oliver",Troy Kanemura,Towboard Survey,39010,-155.8334465,19.99310708,,,,,,,
NOAA_MHI_2015,NOAA-CREP,CREP-TOW,Hawaii,,20151112103_HAW,27.66866833,9.933410107,"(5,10]",-155.829342,19.99293391,2015/11/12,2373.8,10,50,20,30,50,10/5/2016,NOAA-CREP,NOAA CREP,NOAA CREP,"Noah Pomeroy, Thomas Oliver",Troy Kanemura,Towboard Survey,39010,-155.8334465,19.99310708,,,,,,,
NOAA_MHI_2015,NOAA-CREP,CREP-TOW,Hawaii,,20151112104_HAW,23.96325536,8.804000234,"(5,10]",-155.8294424,19.99070497,2015/11/12,2612.5,4,50,25,25,50,10/5/2016,NOAA-CREP,NOAA CREP,NOAA CREP,"Noah Pomeroy, Thomas Oliver",Troy Kanemura,Towboard Survey,39010,-155.8334465,19.99310708,,,,,,,
NOAA_MHI_2015,NOAA-CREP,CREP-TOW,Hawaii,,20151112105_HAW,19.54460929,7.457196912,"(5,10]",-155.831079,19.98902551,2015/11/12,2600.5,22.5,40,20,40,60,10/5/2016,NOAA-CREP,NOAA CREP,NOAA CREP,"Noah Pomeroy, Thomas Oliver",Troy Kanemura,Towboard Survey,39010,-155.8334465,19.99310708,,,,,,,
NOAA_MHI_2015,NOAA-CREP,CREP-TOW,Hawaii,,20151112106_HAW,25.50465853,9.27381992,"(5,10]",-155.8324528,19.98756679,2015/11/12,2423.4,10,50,20,30,50,10/5/2016,NOAA-CREP,NOAA CREP,NOAA CREP,"Noah Pomeroy, Thomas Oliver",Troy Kanemura,Towboard Survey,39245,-155.8334465,19.98408187,,,,,,,
NOAA_MHI_2015,NOAA-CREP,CREP-TOW,Hawaii,,20151112107_HAW,27.12458673,9.767574035,"(5,10]",-155.833099,19.98570024,2015/11/12,2341.8,7.5,42.5,20,37.5,57.5,10/5/2016,NOAA-CREP,NOAA CREP,NOAA CREP,"Noah Pomeroy, Thomas Oliver",Troy Kanemura,Towboard Survey,39245,-155.8334465,19.98408187,,,,,,,
NOAA_MHI_2015,NOAA-CREP,CREP-TOW,Hawaii,,20151112108_HAW,22.84153079,8.462098585,"(5,10]",-155.8324161,19.98371739,2015/11/12,2557.8,12.5,40,20,40,60,10/5/2016,NOAA-CREP,NOAA CREP,NOAA CREP,"Noah Pomeroy, Thomas Oliver",Troy Kanemura,Towboard Survey,39245,-155.8334465,19.98408187,,,,,,,
NOAA_MHI_2015,NOAA-CREP,CREP-TOW,Hawaii,,20151112109_HAW,27.82604108,9.981377321,"(5,10]",-155.833697,19.98181564,2015/11/12,2449.6,15,45,20,35,55,10/5/2016,NOAA-CREP,NOAA CREP,NOAA CREP,"Noah Pomeroy, Thomas Oliver",Troy Kanemura,Towboard Survey,39245,-155.8334465,19.98408187,,,,,,,
NOAA_MHI_2015,NOAA-CREP,CREP-TOW,Hawaii,,20151112110_HAW,25.26881096,9.201933581,"(5,10]",-155.8348392,19.98016085,2015/11/12,2542.9,17.5,45,22.5,32.5,55,10/5/2016,NOAA-CREP,NOAA CREP,NOAA CREP,"Noah Pomeroy, Thomas Oliver",Troy Kanemura,Towboard Survey,39245,-155.8334465,19.98408187,,,,,,,
NOAA_MHI_2015,NOAA-CREP,CREP-TOW,Hawaii,,20151112201_HAW,33.18214683,11.61391835,"(10,15]",-155.8620023,19.95677019,2015/11/12,2955.8,10,62.5,15,22.5,37.5,10/5/2016,NOAA-CREP,NOAA CREP,NOAA CREP,"Noah Pomeroy, Thomas Oliver",Troy Kanemura,Towboard Survey,39947,-155.8604885,19.95700623,,,,,,,
NOAA_MHI_2015,NOAA-CREP,CREP-TOW,Hawaii,,20151112202_HAW,29.28069023,10.42475438,"(10,15]",-155.8631856,19.95472304,2015/11/12,2448.5,20,65,20,15,35,10/5/2016,NOAA-CREP,NOAA CREP,NOAA CREP,"Noah Pomeroy, Thomas Oliver",Troy Kanemura,Towboard Survey,39947,-155.8604885,19.95700623,,,,,,,
NOAA_MHI_2015,NOAA-CREP,CREP-TOW,Hawaii,,20151112203_HAW,21.60529952,8.085295294,"(5,10]",-155.8647374,19.95293604,2015/11/12,2699.3,40,55,32.5,12.5,45,10/5/2016,NOAA-CREP,NOAA CREP,NOAA CREP,"Noah Pomeroy, Thomas Oliver",Troy Kanemura,Towboard Survey,39947,-155.8604885,19.95700623,,,,,,,
NOAA_MHI_2015,NOAA-CREP,CREP-TOW,Hawaii,,20151112204_HAW,24.20630644,8.878082203,"(5,10]",-155.8667976,19.95166096,2015/11/12,2596.4,45,42.5,40,17.5,57.5,10/5/2016,NOAA-CREP,NOAA CREP,NOAA CREP,"Noah Pomeroy, Thomas Oliver",Troy Kanemura,Towboard Survey,40181,-155.8695025,19.94798101,,,,,,,
NOAA_MHI_2015,NOAA-CREP,CREP-TOW,Hawaii,,20151112205_HAW,12.28034547,5.243049299,"(5,10]",-155.8690296,19.95066081,2015/11/12,2719.6,35,50,30,20,50,10/5/2016,NOAA-CREP,NOAA CREP,NOAA CREP,"Noah Pomeroy, Thomas Oliver",Troy Kanemura,Towboard Survey,40181,-155.8695025,19.94798101,,,,,,,
NOAA_MHI_2015,NOAA-CREP,CREP-TOW,Hawaii,,20151112206_HAW,26.04938554,9.439852713,"(5,10]",-155.8709932,19.94906047,2015/11/12,2741.9,22.5,60,15,25,40,10/5/2016,NOAA-CREP,NOAA CREP,NOAA CREP,"Noah Pomeroy, Thomas Oliver",Troy Kanemura,Towboard Survey,40181,-155.8695025,19.94798101,,,,,,,
NOAA_MHI_2015,NOAA-CREP,CREP-TOW,Hawaii,,20151112207_HAW,40.23864204,13.76473809,"(10,15]",-155.8724717,19.9468605,2015/11/12,3067.6,22.5,62.5,12.5,25,37.5,10/5/2016,NOAA-CREP,NOAA CREP,NOAA CREP,"Noah Pomeroy, Thomas Oliver",Troy Kanemura,Towboard Survey,40181,-155.8695025,19.94798101,,,,,,,
NOAA_MHI_2015,NOAA-CREP,CREP-TOW,Hawaii,,20151112208_HAW,31.11828334,10.98485276,"(10,15]",-155.8744117,19.94502034,2015/11/12,2788.6,10,70,17.5,12.5,30,10/5/2016,NOAA-CREP,NOAA CREP,NOAA CREP,"Noah Pomeroy, Thomas Oliver",Troy Kanemura,Towboard Survey,40180,-155.8785165,19.94798101,,,,,,,
NOAA_MHI_2015,NOAA-CREP,CREP-TOW,Hawaii,,20151112209_HAW,31.49896835,11.10088555,"(10,15]",-155.8768665,19.94402149,2015/11/12,2840.1,15,45,35,20,55,10/5/2016,NOAA-CREP,NOAA CREP,NOAA CREP,"Noah Pomeroy, Thomas Oliver",Troy Kanemura,Towboard Survey,40180,-155.8785165,19.94798101,,,,,,,
NOAA_MHI_2015,NOAA-CREP,CREP-TOW,Hawaii,,20151112210_HAW,32.81922677,11.50330032,"(10,15]",-155.8786541,19.94242233,2015/11/12,2392.5,15,55,22.5,22.5,45,10/5/2016,NOAA-CREP,NOAA CREP,NOAA CREP,"Noah Pomeroy, Thomas Oliver",Troy Kanemura,Towboard Survey,40415,-155.8785165,19.9389558,,,,,,,
NOAA_MHI_2015,NOAA-CREP,CREP-TOW,Hawaii,,20151112301_HAW,28.3741565,10.1484429,"(10,15]",-155.9026697,19.90580181,2015/11/12,2221.6,25,67.5,17.5,15,32.5,10/5/2016,NOAA-CREP,NOAA CREP,NOAA CREP,"Noah Pomeroy, Thomas Oliver",Troy Kanemura,Towboard Survey,41352,-155.9055585,19.90285494,,,,,,,
NOAA_MHI_2015,NOAA-CREP,CREP-TOW,Hawaii,,20151112302_HAW,21.85017926,8.159934638,"(5,10]",-155.9041022,19.90437051,2015/11/12,2216.9,37.5,57.5,15,27.5,42.5,10/5/2016,NOAA-CREP,NOAA CREP,NOAA CREP,"Noah Pomeroy, Thomas Oliver",Troy Kanemura,Towboard Survey,41352,-155.9055585,19.90285494,,,,,,,
NOAA_MHI_2015,NOAA-CREP,CREP-TOW,Hawaii,,20151112303_HAW,26.65257604,9.623705177,"(5,10]",-155.9055015,19.90302612,2015/11/12,1998.9,27.5,60,15,25,40,10/5/2016,NOAA-CREP,NOAA CREP,NOAA CREP,"Noah Pomeroy, Thomas Oliver",Troy Kanemura,Towboard Survey,41352,-155.9055585,19.90285494,,,,,,,
NOAA_MHI_2015,NOAA-CREP,CREP-TOW,Hawaii,,20151112304_HAW,28.48963131,10.18363962,"(10,15]",-155.9066979,19.90164513,2015/11/12,2000.8,32.5,55,17.5,27.5,45,10/5/2016,NOAA-CREP,NOAA CREP,NOAA CREP,"Noah Pomeroy, Thomas Oliver",Troy Kanemura,Towboard Survey,41352,-155.9055585,19.90285494,,,,,,,
NOAA_MHI_2015,NOAA-CREP,CREP-TOW,Hawaii,,20151112305_HAW,23.33989576,8.614000228,"(5,10]",-155.9076631,19.90009049,2015/11/12,2007.7,37.5,60,15,25,40,10/5/2016,NOAA-CREP,NOAA CREP,NOAA CREP,"Noah Pomeroy, Thomas Oliver",Troy Kanemura,Towboard Survey,41352,-155.9055585,19.90285494,,,,,,,
NOAA_MHI_2015,NOAA-CREP,CREP-TOW,Hawaii,,20151112306_HAW,25.05437669,9.136574015,"(5,10]",-155.9089317,19.8987722,2015/11/12,2058.3,35,57.5,17.5,25,42.5,10/5/2016,NOAA-CREP,NOAA CREP,NOAA CREP,"Noah Pomeroy, Thomas Oliver",Troy Kanemura,Towboard Survey,41352,-155.9055585,19.90285494,,,,,,,
NOAA_MHI_2015,NOAA-CREP,CREP-TOW,Hawaii,,20151112307_HAW,29.54385663,10.5049675,"(10,15]",-155.9102088,19.89749162,2015/11/12,1985.8,20,55,17.5,27.5,45,10/5/2016,NOAA-CREP,NOAA CREP,NOAA CREP,"Noah Pomeroy, Thomas Oliver",Troy Kanemura,Towboard Survey,41586,-155.9145725,19.89382973,,,,,,,
NOAA_MHI_2015,NOAA-CREP,CREP-TOW,Hawaii,,20151112308_HAW,37.54867597,12.94483644,"(10,15]",-155.9105071,19.89560433,2015/11/12,2355.4,10,60,15,25,40,10/5/2016,NOAA-CREP,NOAA CREP,NOAA CREP,"Noah Pomeroy, Thomas Oliver",Troy Kanemura,Towboard Survey,41586,-155.9145725,19.89382973,,,,,,,
NOAA_MHI_2015,NOAA-CREP,CREP-TOW,Hawaii,,20151112309_HAW,32.85610663,11.5145413,"(10,15]",-155.9092941,19.89411043,2015/11/12,2109.4,15,57.5,15,27.5,42.5,10/5/2016,NOAA-CREP,NOAA CREP,NOAA CREP,"Noah Pomeroy, Thomas Oliver",Troy Kanemura,Towboard Survey,41587,-155.9055585,19.89382973,,,,,,,
NOAA_MHI_2015,NOAA-CREP,CREP-TOW,Hawaii,,20151112310_HAW,26.29024581,9.513266923,"(5,10]",-155.908256,19.892585,2015/11/12,2244.4,15,55,25,20,45,10/5/2016,NOAA-CREP,NOAA CREP,NOAA CREP,"Noah Pomeroy, Thomas Oliver",Troy Kanemura,Towboard Survey,41587,-155.9055585,19.89382973,,,,,,,
NOAA_MHI_2015,NOAA-CREP,CREP-TOW,Hawaii,,20151112401_HAW,27.35731123,9.838508463,"(5,10]",-155.9262087,19.86269191,2015/11/12,2417.2,15,65,17.5,17.5,35,10/5/2016,NOAA-CREP,NOAA CREP,NOAA CREP,"Noah Pomeroy, Thomas Oliver",Troy Kanemura,Towboard Survey,42290,-155.9235865,19.86675409,,,,,,,
NOAA_MHI_2015,NOAA-CREP,CREP-TOW,Hawaii,,20151112402_HAW,27.6335472,9.922705187,"(5,10]",-155.9279845,19.8620498,2015/11/12,2285.2,27.5,72.5,15,12.5,27.5,10/5/2016,NOAA-CREP,NOAA CREP,NOAA CREP,"Noah Pomeroy, Thomas Oliver",Troy Kanemura,Towboard Survey,42525,-155.9235865,19.85772887,,,,,,,
NOAA_MHI_2015,NOAA-CREP,CREP-TOW,Hawaii,,20151112403_HAW,23.77205231,8.745721544,"(5,10]",-155.9294926,19.86131942,2015/11/12,2211.2,25,70,12.5,17.5,30,10/5/2016,NOAA-CREP,NOAA CREP,NOAA CREP,"Noah Pomeroy, Thomas Oliver",Troy Kanemura,Towboard Survey,42524,-155.9326005,19.85772887,,,,,,,
NOAA_MHI_2015,NOAA-CREP,CREP-TOW,Hawaii,,20151112404_HAW,24.60705298,9.000229748,"(5,10]",-155.9308886,19.8607228,2015/11/12,1955,25,62.5,17.5,20,37.5,10/5/2016,NOAA-CREP,NOAA CREP,NOAA CREP,"Noah Pomeroy, Thomas Oliver",Troy Kanemura,Towboard Survey,42524,-155.9326005,19.85772887,,,,,,,
NOAA_MHI_2015,NOAA-CREP,CREP-TOW,Hawaii,,20151112405_HAW,25.00419597,9.121278932,"(5,10]",-155.9322541,19.85976334,2015/11/12,2036.5,20,70,15,15,30,10/5/2016,NOAA-CREP,NOAA CREP,NOAA CREP,"Noah Pomeroy, Thomas Oliver",Troy Kanemura,Towboard Survey,42524,-155.9326005,19.85772887,,,,,,,
NOAA_MHI_2015,NOAA-CREP,CREP-TOW,Hawaii,,20151112406_HAW,25.50589557,9.27419697,"(5,10]",-155.9333024,19.85869352,2015/11/12,2441.5,17.5,77.5,10,12.5,22.5,10/5/2016,NOAA-CREP,NOAA CREP,NOAA CREP,"Noah Pomeroy, Thomas Oliver",Troy Kanemura,Towboard Survey,42524,-155.9326005,19.85772887,,,,,,,
NOAA_MHI_2015,NOAA-CREP,CREP-TOW,Hawaii,,20151112407_HAW,25.86791744,9.384541236,"(5,10]",-155.9339986,19.85733512,2015/11/12,2508,20,75,10,15,25,10/5/2016,NOAA-CREP,NOAA CREP,NOAA CREP,"Noah Pomeroy, Thomas Oliver",Troy Kanemura,Towboard Survey,42524,-155.9326005,19.85772887,,,,,,,
NOAA_MHI_2015,NOAA-CREP,CREP-TOW,Hawaii,,20151112408_HAW,27.20208985,9.791196986,"(5,10]",-155.9344936,19.85575138,2015/11/12,2134.5,20,72.5,17.5,10,27.5,10/5/2016,NOAA-CREP,NOAA CREP,NOAA CREP,"Noah Pomeroy, Thomas Oliver",Troy Kanemura,Towboard Survey,42524,-155.9326005,19.85772887,,,,,,,
NOAA_MHI_2015,NOAA-CREP,CREP-TOW,Hawaii,,20151112409_HAW,28.38625796,10.15213143,"(10,15]",-155.9347956,19.8539567,2015/11/12,2205.3,17.5,55,22.5,22.5,45,10/5/2016,NOAA-CREP,NOAA CREP,NOAA CREP,"Noah Pomeroy, Thomas Oliver",Troy Kanemura,Towboard Survey,42524,-155.9326005,19.85772887,,,,,,,
NOAA_MHI_2015,NOAA-CREP,CREP-TOW,Hawaii,,20151112410_HAW,29.22736314,10.40850029,"(10,15]",-155.9355999,19.85240845,2015/11/12,1875.9,0,100,0,0,0,10/5/2016,NOAA-CREP,NOAA CREP,NOAA CREP,"Noah Pomeroy, Thomas Oliver",Troy Kanemura,Towboard Survey,42759,-155.9326005,19.84870366,,,,,,,
NOAA_MHI_2015,NOAA-CREP,CREP-TOW,Hawaii,,20151112501_HAW,23.26712565,8.591819898,"(5,10]",-155.9615629,19.85318413,2015/11/12,2144.7,57.5,67.5,15,17.5,32.5,10/5/2016,NOAA-CREP,NOAA CREP,NOAA CREP,"Noah Pomeroy, Thomas Oliver",Troy Kanemura,Towboard Survey,42756,-155.9596425,19.84870366,,,,,,,
NOAA_MHI_2015,NOAA-CREP,CREP-TOW,Hawaii,,20151112502_HAW,25.23503803,9.191639592,"(5,10]",-155.963485,19.85279399,2015/11/12,2171.4,57.5,60,15,25,40,10/5/2016,NOAA-CREP,NOAA CREP,NOAA CREP,"Noah Pomeroy, Thomas Oliver",Troy Kanemura,Towboard Survey,42756,-155.9596425,19.84870366,,,,,,,
NOAA_MHI_2015,NOAA-CREP,CREP-TOW,Hawaii,,20151112503_HAW,27.77720497,9.966492075,"(5,10]",-155.9654226,19.8522618,2015/11/12,2204.7,30,57.5,12.5,30,42.5,10/5/2016,NOAA-CREP,NOAA CREP,NOAA CREP,"Noah Pomeroy, Thomas Oliver",Troy Kanemura,Towboard Survey,42755,-155.9686565,19.84870366,,,,,,,
NOAA_MHI_2015,NOAA-CREP,CREP-TOW,Hawaii,,20151112504_HAW,25.74050252,9.345705168,"(5,10]",-155.9672981,19.85113605,2015/11/12,2420.7,52.5,50,20,30,50,10/5/2016,NOAA-CREP,NOAA CREP,NOAA CREP,"Noah Pomeroy, Thomas Oliver",Troy Kanemura,Towboard Survey,42755,-155.9686565,19.84870366,,,,,,,
NOAA_MHI_2015,NOAA-CREP,CREP-TOW,Hawaii,,20151112505_HAW,21.29166735,7.989700208,"(5,10]",-155.9694246,19.85029959,2015/11/12,2419.3,47.5,67.5,12.5,20,32.5,10/5/2016,NOAA-CREP,NOAA CREP,NOAA CREP,"Noah Pomeroy, Thomas Oliver",Troy Kanemura,Towboard Survey,42755,-155.9686565,19.84870366,,,,,,,
NOAA_MHI_2015,NOAA-CREP,CREP-TOW,Hawaii,,20151113101_HAW,14.53490235,5.930238236,"(5,10]",-156.0335707,19.79278746,2015/11/13,749.2,30,55,20,25,45,10/5/2016,NOAA-CREP,NOAA CREP,NOAA CREP,"Noah Pomeroy, Thomas Oliver",Troy Kanemura,Towboard Survey,44158,-156.0317545,19.79455237,,,,,,,
NOAA_MHI_2015,NOAA-CREP,CREP-TOW,Hawaii,,20151113102_HAW,13.61876684,5.651000133,"(5,10]",-156.0348566,19.79225709,2015/11/13,2396.5,15,57.5,17.5,25,42.5,10/5/2016,NOAA-CREP,NOAA CREP,NOAA CREP,"Noah Pomeroy, Thomas Oliver",Troy Kanemura,Towboard Survey,44158,-156.0317545,19.79455237,,,,,,,
NOAA_MHI_2015,NOAA-CREP,CREP-TOW,Hawaii,,20151113103_HAW,20.09934017,7.626278884,"(5,10]",-156.0368077,19.79085447,2015/11/13,2820.4,0.1,5,0,95,95,10/5/2016,NOAA-CREP,NOAA CREP,NOAA CREP,"Noah Pomeroy, Thomas Oliver",Troy Kanemura,Towboard Survey,44157,-156.0407685,19.79455237,,,,,,,
NOAA_MHI_2015,NOAA-CREP,CREP-TOW,Hawaii,,20151113104_HAW,16.53731605,6.540573932,"(5,10]",-156.0389541,19.78954994,2015/11/13,2646.9,4,32.5,7.5,60,67.5,10/5/2016,NOAA-CREP,NOAA CREP,NOAA CREP,"Noah Pomeroy, Thomas Oliver",Troy Kanemura,Towboard Survey,44392,-156.0407685,19.78552716,,,,,,,
NOAA_MHI_2015,NOAA-CREP,CREP-TOW,Hawaii,,20151113105_HAW,14.42069019,5.89542637,"(5,10]",-156.0408312,19.7883874,2015/11/13,2548.7,5,35,10,55,65,10/5/2016,NOAA-CREP,NOAA CREP,NOAA CREP,"Noah Pomeroy, Thomas Oliver",Troy Kanemura,Towboard Survey,44392,-156.0407685,19.78552716,,,,,,,
NOAA_MHI_2015,NOAA-CREP,CREP-TOW,Hawaii,,20151113106_HAW,16.93693312,6.662377215,"(5,10]",-156.0420144,19.78673573,2015/11/13,2752.4,15,25,5,70,75,10/5/2016,NOAA-CREP,NOAA CREP,NOAA CREP,"Noah Pomeroy, Thomas Oliver",Troy Kanemura,Towboard Survey,44392,-156.0407685,19.78552716,,,,,,,
NOAA_MHI_2015,NOAA-CREP,CREP-TOW,Hawaii,,20151113107_HAW,19.80277375,7.535885439,"(5,10]",-156.0439912,19.78581303,2015/11/13,2741.3,17.5,60,10,30,40,10/5/2016,NOAA-CREP,NOAA CREP,NOAA CREP,"Noah Pomeroy, Thomas Oliver",Troy Kanemura,Towboard Survey,44392,-156.0407685,19.78552716,,,,,,,
NOAA_MHI_2015,NOAA-CREP,CREP-TOW,Hawaii,,20151113108_HAW,21.05836735,7.918590368,"(5,10]",-156.046272,19.78525666,2015/11/13,2389.7,12.5,37.5,12.5,50,62.5,10/5/2016,NOAA-CREP,NOAA CREP,NOAA CREP,"Noah Pomeroy, Thomas Oliver",Troy Kanemura,Towboard Survey,44391,-156.0497825,19.78552716,,,,,,,
NOAA_MHI_2015,NOAA-CREP,CREP-TOW,Hawaii,,20151113109_HAW,25.86060278,9.382311727,"(5,10]",-156.0477127,19.78407996,2015/11/13,2468.3,37.5,55,7.5,37.5,45,10/5/2016,NOAA-CREP,NOAA CREP,NOAA CREP,"Noah Pomeroy, Thomas Oliver",Troy Kanemura,Towboard Survey,44391,-156.0497825,19.78552716,,,,,,,
NOAA_MHI_2015,NOAA-CREP,CREP-TOW,Hawaii,,20151113110_HAW,26.67678344,9.631083593,"(5,10]",-156.0479701,19.78204249,2015/11/13,2278.2,12.5,57.5,10,32.5,42.5,10/5/2016,NOAA-CREP,NOAA CREP,NOAA CREP,"Noah Pomeroy, Thomas Oliver",Troy Kanemura,Towboard Survey,44391,-156.0497825,19.78552716,,,,,,,
NOAA_MHI_2015,NOAA-CREP,CREP-TOW,Hawaii,,20151113201_HAW,26.33546403,9.527049436,"(5,10]",-156.0500763,19.77499963,2015/11/13,2098.7,55,55,25,20,45,10/5/2016,NOAA-CREP,NOAA CREP,NOAA CREP,"Noah Pomeroy, Thomas Oliver",Troy Kanemura,Towboard Survey,44626,-156.0497825,19.77650195,,,,,,,
NOAA_MHI_2015,NOAA-CREP,CREP-TOW,Hawaii,,20151113202_HAW,19.12240283,7.328508383,"(5,10]",-156.0513718,19.77427589,2015/11/13,2049.3,50,57.5,22.5,20,42.5,10/5/2016,NOAA-CREP,NOAA CREP,NOAA CREP,"Noah Pomeroy, Thomas Oliver",Troy Kanemura,Towboard Survey,44626,-156.0497825,19.77650195,,,,,,,
NOAA_MHI_2015,NOAA-CREP,CREP-TOW,Hawaii,,20151113203_HAW,19.21017875,7.355262483,"(5,10]",-156.0515739,19.77261853,2015/11/13,1974.6,50,52.5,22.5,25,47.5,10/5/2016,NOAA-CREP,NOAA CREP,NOAA CREP,"Noah Pomeroy, Thomas Oliver",Troy Kanemura,Towboard Survey,44626,-156.0497825,19.77650195,,,,,,,
NOAA_MHI_2015,NOAA-CREP,CREP-TOW,Hawaii,,20151113204_HAW,23.15089786,8.556393668,"(5,10]",-156.050866,19.7710398,2015/11/13,2157.7,30,55,20,25,45,10/5/2016,NOAA-CREP,NOAA CREP,NOAA CREP,"Noah Pomeroy, Thomas Oliver",Troy Kanemura,Towboard Survey,44861,-156.0497825,19.76747673,,,,,,,
NOAA_MHI_2015,NOAA-CREP,CREP-TOW,Hawaii,,20151113205_HAW,21.19433397,7.960032994,"(5,10]",-156.0503223,19.76920987,2015/11/13,2124.3,15,60,20,20,40,10/5/2016,NOAA-CREP,NOAA CREP,NOAA CREP,"Noah Pomeroy, Thomas Oliver",Troy Kanemura,Towboard Survey,44861,-156.0497825,19.76747673,,,,,,,
NOAA_MHI_2015,NOAA-CREP,CREP-TOW,Hawaii,,20151113206_HAW,24.31505822,8.911229745,"(5,10]",-156.0510049,19.76753093,2015/11/13,2107.4,10,62.5,17.5,20,37.5,10/5/2016,NOAA-CREP,NOAA CREP,NOAA CREP,"Noah Pomeroy, Thomas Oliver",Troy Kanemura,Towboard Survey,44861,-156.0497825,19.76747673,,,,,,,
NOAA_MHI_2015,NOAA-CREP,CREP-TOW,Hawaii,,20151113207_HAW,27.9575436,10.02145929,"(10,15]",-156.0504038,19.76589198,2015/11/13,2009.3,2.6,40,20,40,60,10/5/2016,NOAA-CREP,NOAA CREP,NOAA CREP,"Noah Pomeroy, Thomas Oliver",Troy Kanemura,Towboard Survey,44861,-156.0497825,19.76747673,,,,,,,
NOAA_MHI_2015,NOAA-CREP,CREP-TOW,Hawaii,,20151113208_HAW,27.34467193,9.834656004,"(5,10]",-156.0505948,19.76419593,2015/11/13,1983,3,52.5,12.5,35,47.5,10/5/2016,NOAA-CREP,NOAA CREP,NOAA CREP,"Noah Pomeroy, Thomas Oliver",Troy Kanemura,Towboard Survey,44861,-156.0497825,19.76747673,,,,,,,
NOAA_MHI_2015,NOAA-CREP,CREP-TOW,Hawaii,,20151113209_HAW,23.04505044,8.524131374,"(5,10]",-156.0515311,19.76282718,2015/11/13,1980.7,32.5,55,12.5,32.5,45,10/5/2016,NOAA-CREP,NOAA CREP,NOAA CREP,"Noah Pomeroy, Thomas Oliver",Troy Kanemura,Towboard Survey,45096,-156.0497825,19.75845152,,,,,,,
NOAA_MHI_2015,NOAA-CREP,CREP-TOW,Hawaii,,20151113210_HAW,16.98332294,6.676516832,"(5,10]",-156.0518393,19.76108796,2015/11/13,2092.8,25,70,12.5,17.5,30,10/5/2016,NOAA-CREP,NOAA CREP,NOAA CREP,"Noah Pomeroy, Thomas Oliver",Troy Kanemura,Towboard Survey,45096,-156.0497825,19.75845152,,,,,,,
NOAA_MHI_2015,NOAA-CREP,CREP-TOW,Hawaii,,20151113301_HAW,32.45202548,11.39137737,"(10,15]",-156.0505692,19.75933499,2015/11/13,2146.6,15,45,30,25,55,10/5/2016,NOAA-CREP,NOAA CREP,NOAA CREP,"Noah Pomeroy, Thomas Oliver",Troy Kanemura,Towboard Survey,45096,-156.0497825,19.75845152,,,,,,,
NOAA_MHI_2015,NOAA-CREP,CREP-TOW,Hawaii,,20151113302_HAW,24.79088759,9.056262537,"(5,10]",-156.0506459,19.75763092,2015/11/13,2079.6,20,47.5,25,27.5,52.5,10/5/2016,NOAA-CREP,NOAA CREP,NOAA CREP,"Noah Pomeroy, Thomas Oliver",Troy Kanemura,Towboard Survey,45096,-156.0497825,19.75845152,,,,,,,
NOAA_MHI_2015,NOAA-CREP,CREP-TOW,Hawaii,,20151113303_HAW,28.212481,10.09916421,"(10,15]",-156.0514317,19.75709331,2015/11/13,3105.7,27.5,42.5,25,32.5,57.5,10/5/2016,NOAA-CREP,NOAA CREP,NOAA CREP,"Noah Pomeroy, Thomas Oliver",Troy Kanemura,Towboard Survey,45096,-156.0497825,19.75845152,,,,,,,
NOAA_MHI_2015,NOAA-CREP,CREP-TOW,Hawaii,,20151113304_HAW,30.89556271,10.91696751,"(10,15]",-156.0514621,19.7562005,2015/11/13,1962.1,22.5,35,40,25,65,10/5/2016,NOAA-CREP,NOAA CREP,NOAA CREP,"Noah Pomeroy, Thomas Oliver",Troy Kanemura,Towboard Survey,45096,-156.0497825,19.75845152,,,,,,,
NOAA_MHI_2015,NOAA-CREP,CREP-TOW,Hawaii,,20151113305_HAW,28.21689131,10.10050847,"(10,15]",-156.0509614,19.7546991,2015/11/13,1883.6,3.5,35,37.5,27.5,65,10/5/2016,NOAA-CREP,NOAA CREP,NOAA CREP,"Noah Pomeroy, Thomas Oliver",Troy Kanemura,Towboard Survey,45096,-156.0497825,19.75845152,,,,,,,
NOAA_MHI_2015,NOAA-CREP,CREP-TOW,Hawaii,,20151113306_HAW,27.82561081,9.981246175,"(5,10]",-156.051119,19.75317539,2015/11/13,1906.8,5,40,30,30,60,10/5/2016,NOAA-CREP,NOAA CREP,NOAA CREP,"Noah Pomeroy, Thomas Oliver",Troy Kanemura,Towboard Survey,45331,-156.0497825,19.7494263,,,,,,,
NOAA_MHI_2015,NOAA-CREP,CREP-TOW,Hawaii,,20151113307_HAW,25.18189918,9.17544287,"(5,10]",-156.0515137,19.75188275,2015/11/13,2022.4,37.5,42.5,35,22.5,57.5,10/5/2016,NOAA-CREP,NOAA CREP,NOAA CREP,"Noah Pomeroy, Thomas Oliver",Troy Kanemura,Towboard Survey,45331,-156.0497825,19.7494263,,,,,,,
NOAA_MHI_2015,NOAA-CREP,CREP-TOW,Hawaii,,20151113308_HAW,32.14459463,11.29767244,"(10,15]",-156.0519513,19.75039263,2015/11/13,1981,25,30,32.5,37.5,70,10/5/2016,NOAA-CREP,NOAA CREP,NOAA CREP,"Noah Pomeroy, Thomas Oliver",Troy Kanemura,Towboard Survey,45331,-156.0497825,19.7494263,,,,,,,
NOAA_MHI_2015,NOAA-CREP,CREP-TOW,Hawaii,,20151113309_HAW,26.97318403,9.721426492,"(5,10]",-156.0533308,19.74957741,2015/11/13,1938.7,35,47.5,40,12.5,52.5,10/5/2016,NOAA-CREP,NOAA CREP,NOAA CREP,"Noah Pomeroy, Thomas Oliver",Troy Kanemura,Towboard Survey,45331,-156.0497825,19.7494263,,,,,,,
NOAA_MHI_2015,NOAA-CREP,CREP-TOW,Hawaii,,20151113310_HAW,26.19767144,9.485050255,"(5,10]",-156.0546375,19.74853696,2015/11/13,1877.8,32.5,37.5,25,37.5,62.5,10/5/2016,NOAA-CREP,NOAA CREP,NOAA CREP,"Noah Pomeroy, Thomas Oliver",Troy Kanemura,Towboard Survey,45330,-156.0587965,19.7494263,,,,,,,
NOAA_MHI_2015,NOAA-CREP,CREP-TOW,Oahu,,20151118101_OAH,12.1138294,5.192295201,"(5,10]",-157.8598618,21.28778938,2015/11/18,2199.3,7.5,82,15.5,2.5,18,10/5/2016,NOAA-CREP,NOAA CREP,NOAA CREP,"Noah Pomeroy, Thomas Oliver",Troy Kanemura,Towboard Survey,5180,-157.8615962,21.28371268,,,,,,,
NOAA_MHI_2015,NOAA-CREP,CREP-TOW,Oahu,,20151118102_OAH,11.61019356,5.038786997,"(5,10]",-157.8579347,21.28693287,2015/11/18,2363.5,10,83,15.5,1.5,17,10/5/2016,NOAA-CREP,NOAA CREP,NOAA CREP,"Noah Pomeroy, Thomas Oliver",Troy Kanemura,Towboard Survey,5180,-157.8615962,21.28371268,,,,,,,
NOAA_MHI_2015,NOAA-CREP,CREP-TOW,Oahu,,20151118103_OAH,11.59760805,5.034950934,"(5,10]",-157.8560409,21.28591544,2015/11/18,2264.9,5,78,20.5,1.5,22,10/5/2016,NOAA-CREP,NOAA CREP,NOAA CREP,"Noah Pomeroy, Thomas Oliver",Troy Kanemura,Towboard Survey,5181,-157.8525822,21.28371268,,,,,,,
NOAA_MHI_2015,NOAA-CREP,CREP-TOW,Oahu,,20151118104_OAH,10.67897285,4.754950925,"[0,5]",-157.8541421,21.28522532,2015/11/18,2258.6,6.5,82,18,0,18,10/5/2016,NOAA-CREP,NOAA CREP,NOAA CREP,"Noah Pomeroy, Thomas Oliver",Troy Kanemura,Towboard Survey,5181,-157.8525822,21.28371268,,,,,,,
NOAA_MHI_2015,NOAA-CREP,CREP-TOW,Oahu,,20151118105_OAH,12.11659465,5.193138049,"(5,10]",-157.8530205,21.28405169,2015/11/18,2084.8,10,77,20.5,2.5,23,10/5/2016,NOAA-CREP,NOAA CREP,NOAA CREP,"Noah Pomeroy, Thomas Oliver",Troy Kanemura,Towboard Survey,5181,-157.8525822,21.28371268,,,,,,,
NOAA_MHI_2015,NOAA-CREP,CREP-TOW,Oahu,,20151118106_OAH,12.93525851,5.442666794,"(5,10]",-157.8506549,21.28303584,2015/11/18,793.5,7.5,76,22.5,1.5,24,10/5/2016,NOAA-CREP,NOAA CREP,NOAA CREP,"Noah Pomeroy, Thomas Oliver",Troy Kanemura,Towboard Survey,5181,-157.8525822,21.28371268,,,,,,,
NOAA_MHI_2015,NOAA-CREP,CREP-TOW,Oahu,,20151118107_OAH,12.87266522,5.423588359,"(5,10]",-157.8495694,21.28197728,2015/11/18,2460.7,10,80,17.5,2.5,20,10/5/2016,NOAA-CREP,NOAA CREP,NOAA CREP,"Noah Pomeroy, Thomas Oliver",Troy Kanemura,Towboard Survey,5181,-157.8525822,21.28371268,,,,,,,
NOAA_MHI_2015,NOAA-CREP,CREP-TOW,Oahu,,20151118108_OAH,18.45568995,7.125294297,"(5,10]",-157.8477449,21.28108472,2015/11/18,1983.7,15,78,20,2,22,10/5/2016,NOAA-CREP,NOAA CREP,NOAA CREP,"Noah Pomeroy, Thomas Oliver",Troy Kanemura,Towboard Survey,5182,-157.8435682,21.28371268,,,,,,,
NOAA_MHI_2015,NOAA-CREP,CREP-TOW,Oahu,,20151118109_OAH,14.54292767,5.932684354,"(5,10]",-157.8454928,21.27997104,2015/11/18,3428.7,15,82.5,17.5,0,17.5,10/5/2016,NOAA-CREP,NOAA CREP,NOAA CREP,"Noah Pomeroy, Thomas Oliver",Troy Kanemura,Towboard Survey,5182,-157.8435682,21.28371268,,,,,,,
NOAA_MHI_2015,NOAA-CREP,CREP-TOW,Oahu,,20151118110_OAH,9.471978072,4.387058916,"[0,5]",-157.8434441,21.27826182,2015/11/18,2292.6,10,81,15.5,3.5,19,10/5/2016,NOAA-CREP,NOAA CREP,NOAA CREP,"Noah Pomeroy, Thomas Oliver",Troy Kanemura,Towboard Survey,5417,-157.8435682,21.27468747,,,,,,,
NOAA_MHI_2015,NOAA-CREP,CREP-TOW,Oahu,,20151118201_OAH,12.67006999,5.361837333,"(5,10]",-157.8032971,21.2518701,2015/11/18,2146.8,2,86,12.5,1.5,14,10/5/2016,NOAA-CREP,NOAA CREP,NOAA CREP,"Noah Pomeroy, Thomas Oliver",Troy Kanemura,Towboard Survey,6126,-157.8075122,21.24761183,,,,,,,
NOAA_MHI_2015,NOAA-CREP,CREP-TOW,Oahu,,20151118202_OAH,12.21721723,5.223807812,"(5,10]",-157.8011372,21.25223295,2015/11/18,2469.9,4,68.5,25,6.5,31.5,10/5/2016,NOAA-CREP,NOAA CREP,NOAA CREP,"Noah Pomeroy, Thomas Oliver",Troy Kanemura,Towboard Survey,5892,-157.7984982,21.25663704,,,,,,,
NOAA_MHI_2015,NOAA-CREP,CREP-TOW,Oahu,,20151118203_OAH,14.88665275,6.037451758,"(5,10]",-157.7990306,21.25256461,2015/11/18,2310.6,3.5,77,20,3,23,10/5/2016,NOAA-CREP,NOAA CREP,NOAA CREP,"Noah Pomeroy, Thomas Oliver",Troy Kanemura,Towboard Survey,5892,-157.7984982,21.25663704,,,,,,,
NOAA_MHI_2015,NOAA-CREP,CREP-TOW,Oahu,,20151118204_OAH,14.62295625,5.957077065,"(5,10]",-157.7974109,21.25385227,2015/11/18,2223.3,1,87,12.5,0.5,13,10/5/2016,NOAA-CREP,NOAA CREP,NOAA CREP,"Noah Pomeroy, Thomas Oliver",Troy Kanemura,Towboard Survey,5892,-157.7984982,21.25663704,,,,,,,
NOAA_MHI_2015,NOAA-CREP,CREP-TOW,Oahu,,20151118205_OAH,11.97676718,5.150518636,"(5,10]",-157.7955564,21.25339629,2015/11/18,2289,3.5,79.5,20,0.5,20.5,10/5/2016,NOAA-CREP,NOAA CREP,NOAA CREP,"Noah Pomeroy, Thomas Oliver",Troy Kanemura,Towboard Survey,5892,-157.7984982,21.25663704,,,,,,,
NOAA_MHI_2015,NOAA-CREP,CREP-TOW,Oahu,,20151118206_OAH,14.50385281,5.920774336,"(5,10]",-157.793654,21.25359716,2015/11/18,2231.3,5,79.5,20,0.5,20.5,10/5/2016,NOAA-CREP,NOAA CREP,NOAA CREP,"Noah Pomeroy, Thomas Oliver",Troy Kanemura,Towboard Survey,5893,-157.7894842,21.25663704,,,,,,,
NOAA_MHI_2015,NOAA-CREP,CREP-TOW,Oahu,,20151118207_OAH,18.32928755,7.086766845,"(5,10]",-157.7916161,21.25382664,2015/11/18,2344.5,3,79.5,20,0.5,20.5,10/5/2016,NOAA-CREP,NOAA CREP,NOAA CREP,"Noah Pomeroy, Thomas Oliver",Troy Kanemura,Towboard Survey,5893,-157.7894842,21.25663704,,,,,,,
NOAA_MHI_2015,NOAA-CREP,CREP-TOW,Oahu,,20151118208_OAH,18.03776006,6.997909266,"(5,10]",-157.7903794,21.25562942,2015/11/18,2377.8,2.5,78,21.5,0.5,22,10/5/2016,NOAA-CREP,NOAA CREP,NOAA CREP,"Noah Pomeroy, Thomas Oliver",Troy Kanemura,Towboard Survey,5893,-157.7894842,21.25663704,,,,,,,
NOAA_MHI_2015,NOAA-CREP,CREP-TOW,Oahu,,20151118209_OAH,11.28337934,4.939174023,"[0,5]",-157.788637,21.25681619,2015/11/18,2245.1,6.5,81,17.5,1.5,19,10/5/2016,NOAA-CREP,NOAA CREP,NOAA CREP,"Noah Pomeroy, Thomas Oliver",Troy Kanemura,Towboard Survey,5893,-157.7894842,21.25663704,,,,,,,
NOAA_MHI_2015,NOAA-CREP,CREP-TOW,Oahu,,20151118210_OAH,12.3689035,5.270041787,"(5,10]",-157.7866947,21.25773202,2015/11/18,2313.9,5,70,20,10,30,10/5/2016,NOAA-CREP,NOAA CREP,NOAA CREP,"Noah Pomeroy, Thomas Oliver",Troy Kanemura,Towboard Survey,5893,-157.7894842,21.25663704,,,,,,,
NOAA_MHI_2015,NOAA-CREP,CREP-TOW,Oahu,,20151118301_OAH,11.40316379,4.975684323,"[0,5]",-157.928193,21.29914673,2015/11/18,2187.7,45,75,25,0,25,10/5/2016,NOAA-CREP,NOAA CREP,NOAA CREP,"Noah Pomeroy, Thomas Oliver",Troy Kanemura,Towboard Survey,4703,-157.9246942,21.30176311,,,,,,,
NOAA_MHI_2015,NOAA-CREP,CREP-TOW,Oahu,,20151118302_OAH,15.08426627,6.097684359,"(5,10]",-157.9269981,21.29810617,2015/11/18,2085.9,32.5,79.5,17.5,3,20.5,10/5/2016,NOAA-CREP,NOAA CREP,NOAA CREP,"Noah Pomeroy, Thomas Oliver",Troy Kanemura,Towboard Survey,4703,-157.9246942,21.30176311,,,,,,,
NOAA_MHI_2015,NOAA-CREP,CREP-TOW,Oahu,,20151118303_OAH,12.02313031,5.164650118,"(5,10]",-157.9250136,21.2979507,2015/11/18,2152,27.5,80,20,0,20,10/5/2016,NOAA-CREP,NOAA CREP,NOAA CREP,"Noah Pomeroy, Thomas Oliver",Troy Kanemura,Towboard Survey,4703,-157.9246942,21.30176311,,,,,,,
NOAA_MHI_2015,NOAA-CREP,CREP-TOW,Oahu,,20151118304_OAH,12.32742822,5.257400121,"(5,10]",-157.9230394,21.29741412,2015/11/18,2178.4,15,84.5,15,0.5,15.5,10/5/2016,NOAA-CREP,NOAA CREP,NOAA CREP,"Noah Pomeroy, Thomas Oliver",Troy Kanemura,Towboard Survey,4703,-157.9246942,21.30176311,,,,,,,
NOAA_MHI_2015,NOAA-CREP,CREP-TOW,Oahu,,20151118305_OAH,13.35212403,5.569727404,"(5,10]",-157.9212742,21.29643965,2015/11/18,2217.5,27.5,86.5,12.5,1,13.5,10/5/2016,NOAA-CREP,NOAA CREP,NOAA CREP,"Noah Pomeroy, Thomas Oliver",Troy Kanemura,Towboard Survey,4938,-157.9246942,21.2927379,,,,,,,
NOAA_MHI_2015,NOAA-CREP,CREP-TOW,Oahu,,20151118306_OAH,14.24157963,5.840833471,"(5,10]",-157.9191543,21.29594343,2015/11/18,2358.8,40,85,15,0,15,10/5/2016,NOAA-CREP,NOAA CREP,NOAA CREP,"Noah Pomeroy, Thomas Oliver",Troy Kanemura,Towboard Survey,4939,-157.9156802,21.2927379,,,,,,,
NOAA_MHI_2015,NOAA-CREP,CREP-TOW,Oahu,,20151118307_OAH,17.13898665,6.723963131,"(5,10]",-157.9169955,21.29524312,2015/11/18,2591.5,35,84.9,15,0.1,15.1,10/5/2016,NOAA-CREP,NOAA CREP,NOAA CREP,"Noah Pomeroy, Thomas Oliver",Troy Kanemura,Towboard Survey,4939,-157.9156802,21.2927379,,,,,,,
NOAA_MHI_2015,NOAA-CREP,CREP-TOW,Oahu,,20151118308_OAH,14.99527607,6.070560146,"(5,10]",-157.9144355,21.29482253,2015/11/18,2848.6,30,89.5,10,0.5,10.5,10/5/2016,NOAA-CREP,NOAA CREP,NOAA CREP,"Noah Pomeroy, Thomas Oliver",Troy Kanemura,Towboard Survey,4939,-157.9156802,21.2927379,,,,,,,
NOAA_MHI_2015,NOAA-CREP,CREP-TOW,Oahu,,20151118309_OAH,13.12635555,5.500913172,"(5,10]",-157.9124875,21.29384175,2015/11/18,2198.4,17.5,87,12.5,0.5,13,10/5/2016,NOAA-CREP,NOAA CREP,NOAA CREP,"Noah Pomeroy, Thomas Oliver",Troy Kanemura,Towboard Survey,4939,-157.9156802,21.2927379,,,,,,,
NOAA_MHI_2015,NOAA-CREP,CREP-TOW,Oahu,,20151118310_OAH,13.6318902,5.655000133,"(5,10]",-157.9112279,21.29441315,2015/11/18,2023.2,27.5,95,5,0,5,10/5/2016,NOAA-CREP,NOAA CREP,NOAA CREP,"Noah Pomeroy, Thomas Oliver",Troy Kanemura,Towboard Survey,4939,-157.9156802,21.2927379,,,,,,,
NOAA_MHI_2015,NOAA-CREP,CREP-TOW,Oahu,,20151118401_OAH,16.70158471,6.59064302,"(5,10]",-157.9472292,21.30184692,2015/11/18,2068.3,22.5,82,17.5,0.5,18,10/5/2016,NOAA-CREP,NOAA CREP,NOAA CREP,"Noah Pomeroy, Thomas Oliver",Troy Kanemura,Towboard Survey,4701,-157.9427222,21.30176311,,,,,,,
NOAA_MHI_2015,NOAA-CREP,CREP-TOW,Oahu,,20151118402_OAH,18.12757838,7.02528589,"(5,10]",-157.9453328,21.30243529,2015/11/18,2145.7,10,87,12.5,0.5,13,10/5/2016,NOAA-CREP,NOAA CREP,NOAA CREP,"Noah Pomeroy, Thomas Oliver",Troy Kanemura,Towboard Survey,4701,-157.9427222,21.30176311,,,,,,,
NOAA_MHI_2015,NOAA-CREP,CREP-TOW,Oahu,,20151118403_OAH,14.62151085,5.956636507,"(5,10]",-157.9433772,21.30283312,2015/11/18,2082.6,12.5,87,12.5,0.5,13,10/5/2016,NOAA-CREP,NOAA CREP,NOAA CREP,"Noah Pomeroy, Thomas Oliver",Troy Kanemura,Towboard Survey,4701,-157.9427222,21.30176311,,,,,,,
NOAA_MHI_2015,NOAA-CREP,CREP-TOW,Oahu,,20151118404_OAH,17.39747431,6.80275017,"(5,10]",-157.9415035,21.30306893,2015/11/18,1972.3,3,89,10.5,0.5,11,10/5/2016,NOAA-CREP,NOAA CREP,NOAA CREP,"Noah Pomeroy, Thomas Oliver",Troy Kanemura,Towboard Survey,4701,-157.9427222,21.30176311,,,,,,,
NOAA_MHI_2015,NOAA-CREP,CREP-TOW,Oahu,,20151118405_OAH,9.448968331,4.380045547,"[0,5]",-157.9397066,21.30296025,2015/11/18,1903.9,7.5,92,7.5,0.5,8,10/5/2016,NOAA-CREP,NOAA CREP,NOAA CREP,"Noah Pomeroy, Thomas Oliver",Troy Kanemura,Towboard Survey,4701,-157.9427222,21.30176311,,,,,,,
NOAA_MHI_2015,NOAA-CREP,CREP-TOW,Oahu,,20151118406_OAH,9.303149904,4.335600091,"[0,5]",-157.9378497,21.30299179,2015/11/18,2064.6,3,87,12.5,0.5,13,10/5/2016,NOAA-CREP,NOAA CREP,NOAA CREP,"Noah Pomeroy, Thomas Oliver",Troy Kanemura,Towboard Survey,4702,-157.9337082,21.30176311,,,,,,,
NOAA_MHI_2015,NOAA-CREP,CREP-TOW,Oahu,,20151118407_OAH,5.326834317,3.1236191,"[0,5]",-157.9359917,21.30260756,2015/11/18,2066.6,7.5,72.5,25,2.5,27.5,10/5/2016,NOAA-CREP,NOAA CREP,NOAA CREP,"Noah Pomeroy, Thomas Oliver",Troy Kanemura,Towboard Survey,4702,-157.9337082,21.30176311,,,,,,,
NOAA_MHI_2015,NOAA-CREP,CREP-TOW,Oahu,,20151118408_OAH,5.80724303,3.270047676,"[0,5]",-157.9344693,21.30168694,2015/11/18,1808.6,5,77.5,20,2.5,22.5,10/5/2016,NOAA-CREP,NOAA CREP,NOAA CREP,"Noah Pomeroy, Thomas Oliver",Troy Kanemura,Towboard Survey,4702,-157.9337082,21.30176311,,,,,,,
NOAA_MHI_2015,NOAA-CREP,CREP-TOW,Oahu,,20151118409_OAH,7.955691649,3.924894815,"[0,5]",-157.9328947,21.30098834,2015/11/18,1895.7,1.6,80,17.5,2.5,20,10/5/2016,NOAA-CREP,NOAA CREP,NOAA CREP,"Noah Pomeroy, Thomas Oliver",Troy Kanemura,Towboard Survey,4702,-157.9337082,21.30176311,,,,,,,
NOAA_MHI_2015,NOAA-CREP,CREP-TOW,Oahu,,20151118410_OAH,5.989251537,3.325523868,"[0,5]",-157.9312257,21.30050221,2015/11/18,1941.1,5,78.5,20,1.5,21.5,10/5/2016,NOAA-CREP,NOAA CREP,NOAA CREP,"Noah Pomeroy, Thomas Oliver",Troy Kanemura,Towboard Survey,4702,-157.9337082,21.30176311,,,,,,,
HIMB_BAHR_2015_HB,HIMB,Keisha Bahr,Oahu,Hanauma Bay,BD 1a,3,0.9144,"[0,5]",-157.694822,21.272623,2015/10/20,75,32.17,33.91,25.22,40.87,66.09,,HIMB,Keisha Bahr,Keisha Bahr and Kuulei Rodgers,Keisha Bahr and Kuulei Rodgers,Keisha Bahr,Belt Transect - Colony Level Assessment,5434,-157.6903302,21.27468747,,,,,,,
HIMB_BAHR_2015_HB,HIMB,Keisha Bahr,Oahu,Hanauma Bay,BD1b,3,0.9144,"[0,5]",-157.695093,21.272451,2015/10/20,75,51.25,57.5,11.25,31.25,42.5,,HIMB,Keisha Bahr,Keisha Bahr and Kuulei Rodgers,Keisha Bahr and Kuulei Rodgers,Keisha Bahr,Belt Transect - Colony Level Assessment,5433,-157.6993442,21.27468747,,,,,,,
HIMB_BAHR_2015_HB,HIMB,Keisha Bahr,Oahu,Hanauma Bay,CH 3a,3,0.9144,"[0,5]",-157.696536,21.270378,2015/10/20,75,38.67,38.67,25.33,36,61.33,,HIMB,Keisha Bahr,Keisha Bahr and Kuulei Rodgers,Keisha Bahr and Kuulei Rodgers,Keisha Bahr,Belt Transect - Colony Level Assessment,5433,-157.6993442,21.27468747,,,,,,,
HIMB_BAHR_2015_HB,HIMB,Keisha Bahr,Oahu,Hanauma Bay,CH 3b,3,0.9144,"[0,5]",-157.696786,21.270026,2015/10/20,75,53.53,54.12,19.41,26.47,45.88,,HIMB,Keisha Bahr,Keisha Bahr and Kuulei Rodgers,Keisha Bahr and Kuulei Rodgers,Keisha Bahr,Belt Transect - Colony Level Assessment,5668,-157.6993442,21.26566226,,,,,,,
HIMB_BAHR_2015_KB,HIMB,Keisha Bahr,Oahu,Kaneohe Bay,Crash Boat,3,0.9144,"[0,5]",-157.78204,21.45067,2015/10/16,100,90,90,5,5,10,,HIMB,Keisha Bahr,Keisha Bahr and Kuulei Rodgers,Keisha Bahr and Kuulei Rodgers,Keisha Bahr,Broad Scale Surveys,959,-157.7804702,21.44616654,,,,,,,
HIMB_BAHR_2015_KB,HIMB,Keisha Bahr,Oahu,Kaneohe Bay,FR Heeia,3,0.9144,"[0,5]",-157.80789,21.44639,2015/10/16,100,40,40,20,40,60,,HIMB,Keisha Bahr,Keisha Bahr and Kuulei Rodgers,Keisha Bahr and Kuulei Rodgers,Keisha Bahr,Broad Scale Surveys,956,-157.8075122,21.44616654,,,,,,,
HIMB_BAHR_2015_KB,HIMB,Keisha Bahr,Oahu,Kaneohe Bay,FR North (inner),3,0.9144,"[0,5]",-157.83779,21.47615,2015/10/16,100,20,40,30,30,60,,HIMB,Keisha Bahr,Keisha Bahr and Kuulei Rodgers,Keisha Bahr and Kuulei Rodgers,Keisha Bahr,Broad Scale Surveys,248,-157.8345542,21.47324218,,,,,,,
HIMB_BAHR_2015_KB,HIMB,Keisha Bahr,Oahu,Kaneohe Bay,FR South,3,0.9144,"[0,5]",-157.79012,21.42707,2015/10/16,100,10,30,10,60,70,,HIMB,Keisha Bahr,Keisha Bahr and Kuulei Rodgers,Keisha Bahr and Kuulei Rodgers,Keisha Bahr,Broad Scale Surveys,1428,-157.7894842,21.42811611,,,,,,,
HIMB_BAHR_2015_KB,HIMB,Keisha Bahr,Oahu,Kaneohe Bay,HIMB Leeward,3,0.9144,"[0,5]",-157.789795,21.432693,2015/10/16,100,0,75,10,15,25,,HIMB,Keisha Bahr,Keisha Bahr and Kuulei Rodgers,Keisha Bahr and Kuulei Rodgers,Keisha Bahr,Broad Scale Surveys,1193,-157.7894842,21.43714132,,,,,,,
HIMB_BAHR_2015_KB,HIMB,Keisha Bahr,Oahu,Kaneohe Bay,HIMB Point ,3,0.9144,"[0,5]",-157.78987,21.43256,2015/10/16,100,40,50,25,25,50,,HIMB,Keisha Bahr,Keisha Bahr and Kuulei Rodgers,Keisha Bahr and Kuulei Rodgers,Keisha Bahr,Broad Scale Surveys,1428,-157.7894842,21.42811611,,,,,,,
DAR_KONA_2015,DLNR/DAR; PCSU,K. Lindsey Kramer,Hawaii,West Hawaii,Honok_hau,40,12.192,"(10,15]",-156.03033,19.67098,2015/10/09,10,NA,59.4,29.3,15.8,45.1,9/2/2016,DLNR/DAR; PCSU,K. Lindsey Kramer,William Walsh,"K. Lindsey Kramer, William Walsh",K. Lindsey Kramer,Belt Transect - Colony Level Assessment,47448,-156.0317545,19.66819938,,,,,,,
DAR_KONA_2015,DLNR/DAR; PCSU,K. Lindsey Kramer,Hawaii,West Hawaii,Honok_hau,40,12.192,"(10,15]",-156.03033,19.67098,2015/10/09,10,NA,43.6,41.4,25,66.4,9/2/2016,DLNR/DAR; PCSU,K. Lindsey Kramer,William Walsh,"K. Lindsey Kramer, William Walsh",K. Lindsey Kramer,Belt Transect - Colony Level Assessment,47448,-156.0317545,19.66819938,,,,,,,
DAR_KONA_2015,DLNR/DAR; PCSU,K. Lindsey Kramer,Hawaii,West Hawaii,Honok_hau,40,12.192,"(10,15]",-156.03033,19.67098,2015/10/09,10,NA,55.2,25.8,25.2,51,9/2/2016,DLNR/DAR; PCSU,K. Lindsey Kramer,William Walsh,"K. Lindsey Kramer, William Walsh",K. Lindsey Kramer,Belt Transect - Colony Level Assessment,47448,-156.0317545,19.66819938,,,,,,,
TNC_2015,TNC,TNC,Hawaii,West Hawaii,Honokohau Deep,20,6.096,"(5,10]",-156.0303344,19.67098346,2015/10/15,30,NA,38.88907248,26.05878681,35.05214071,61.11,9/23/2016,TNC,Courtney Couch,Eric Conklin,"Rebecca Most, Ryan Carr, Harry Lynch, Brett Schumacher, Eric Conklin",Courtney Couch,Belt Transect - Colony Level Assessment,47448,-156.0317545,19.66819938,,,,,,,
TNC_2015,TNC,TNC,Hawaii,West Hawaii,Honokohau Shallow,45,13.716,"(10,15]",-156.0295907,19.67145553,2015/10/15,30,NA,30.15026923,37.96943285,31.88029792,69.85,9/23/2016,TNC,Courtney Couch,Eric Conklin,"Rebecca Most, Ryan Carr, Harry Lynch, Brett Schumacher, Eric Conklin",Courtney Couch,Belt Transect - Colony Level Assessment,47448,-156.0317545,19.66819938,,,,,,,
TNC_2015,TNC,TNC,Hawaii,West Hawaii,Kailapa Deep,45,13.716,"(10,15]",-155.8487678,20.05939339,2015/10/19,30,NA,25.43151943,39.37263923,35.19584133,74.57,9/23/2016,TNC,Courtney Couch,Eric Conklin,"Rebecca Most, Ryan Carr, Harry Lynch, Brett Schumacher, Eric Conklin",Courtney Couch,Belt Transect - Colony Level Assessment,37363,-155.8514745,20.05628358,,,,,,,
TNC_2015,TNC,TNC,Hawaii,West Hawaii,Kailapa Shallow,20,6.096,"(5,10]",-155.8483791,20.0596218,2015/10/19,30,NA,18.07961093,41.59799115,40.32239792,81.92,9/23/2016,TNC,Courtney Couch,Eric Conklin,"Rebecca Most, Ryan Carr, Harry Lynch, Brett Schumacher, Eric Conklin",Courtney Couch,Belt Transect - Colony Level Assessment,37363,-155.8514745,20.05628358,,,,,,,
TNC_2015,TNC,TNC,Hawaii,West Hawaii,Kalaemano Deep,20,6.096,"(5,10]",-155.9584434,19.85392772,2015/10/16,30,NA,59.66462166,19.11943183,21.21594652,40.34,9/23/2016,TNC,Courtney Couch,Eric Conklin,"Rebecca Most, Ryan Carr, Harry Lynch, Brett Schumacher, Eric Conklin",Courtney Couch,Belt Transect - Colony Level Assessment,42521,-155.9596425,19.85772887,,,,,,,
TNC_2015,TNC,TNC,Hawaii,West Hawaii,Kalaemano Shallow,45,13.716,"(10,15]",-155.9582648,19.85339941,2015/10/16,30,NA,44.78797261,36.15442349,19.0576039,55.21,9/23/2016,TNC,Courtney Couch,Eric Conklin,"Rebecca Most, Ryan Carr, Harry Lynch, Brett Schumacher, Eric Conklin",Courtney Couch,Belt Transect - Colony Level Assessment,42521,-155.9596425,19.85772887,,,,,,,
DAR_KONA_2015,DLNR/DAR; PCSU,K. Lindsey Kramer,Hawaii,West Hawaii,Kalahiki,36,10.9728,"(10,15]",-155.8974,19.36915,2015/10/27,10,NA,52.9,33.9,13.2,47.1,9/2/2016,DLNR/DAR; PCSU,K. Lindsey Kramer,William Walsh,"K. Lindsey Kramer, William Walsh",K. Lindsey Kramer,Belt Transect - Colony Level Assessment,55218,-155.8965445,19.37036732,,,,,,,
DAR_KONA_2015,DLNR/DAR; PCSU,K. Lindsey Kramer,Hawaii,West Hawaii,Kalahiki,36,10.9728,"(10,15]",-155.8974,19.36915,2015/10/27,10,NA,52.1,29.1,18.9,48,9/2/2016,DLNR/DAR; PCSU,K. Lindsey Kramer,William Walsh,"K. Lindsey Kramer, William Walsh",K. Lindsey Kramer,Belt Transect - Colony Level Assessment,55218,-155.8965445,19.37036732,,,,,,,
DAR_KONA_2015,DLNR/DAR; PCSU,K. Lindsey Kramer,Hawaii,West Hawaii,Kalahiki,36,10.9728,"(10,15]",-155.8974,19.36915,2015/10/27,10,NA,42.5,26.5,31,57.5,9/2/2016,DLNR/DAR; PCSU,K. Lindsey Kramer,William Walsh,"K. Lindsey Kramer, William Walsh",K. Lindsey Kramer,Belt Transect - Colony Level Assessment,55218,-155.8965445,19.37036732,,,,,,,
TNC_2015,TNC,TNC,Hawaii,West Hawaii,Kane Kanaka Deep,45,13.716,"(10,15]",-155.8338009,19.98668592,2015/10/15,30,NA,22.12907476,47.27942114,30.5915041,77.87,9/23/2016,TNC,Courtney Couch,Eric Conklin,"Rebecca Most, Ryan Carr, Harry Lynch, Brett Schumacher, Eric Conklin",Courtney Couch,Belt Transect - Colony Level Assessment,39245,-155.8334465,19.98408187,,,,,,,
TNC_2015,TNC,TNC,Hawaii,West Hawaii,Kane Kanaka Shallow,20,6.096,"(5,10]",-155.8321237,19.98635081,2015/10/15,30,NA,7.273557571,56.0101201,36.71632233,92.73,9/23/2016,TNC,Courtney Couch,Eric Conklin,"Rebecca Most, Ryan Carr, Harry Lynch, Brett Schumacher, Eric Conklin",Courtney Couch,Belt Transect - Colony Level Assessment,39245,-155.8334465,19.98408187,,,,,,,
TNC_2015,TNC,TNC,Hawaii,West Hawaii,Kapalaoa Deep,45,13.716,"(10,15]",-155.9006093,19.9140211,2015/10/15,30,NA,29.93256529,39.45425393,30.61318078,70.07,9/23/2016,TNC,Courtney Couch,Eric Conklin,"Rebecca Most, Ryan Carr, Harry Lynch, Brett Schumacher, Eric Conklin",Courtney Couch,Belt Transect - Colony Level Assessment,41118,-155.8965445,19.91188016,,,,,,,
TNC_2015,TNC,TNC,Hawaii,West Hawaii,Kapalaoa Shallow,20,6.096,"(5,10]",-155.898741,19.91363838,2015/10/15,30,NA,17.97801748,47.27517627,34.74680625,82.02,9/23/2016,TNC,Courtney Couch,Eric Conklin,"Rebecca Most, Ryan Carr, Harry Lynch, Brett Schumacher, Eric Conklin",Courtney Couch,Belt Transect - Colony Level Assessment,41118,-155.8965445,19.91188016,,,,,,,
TNC_2015,TNC,TNC,Hawaii,West Hawaii,Kawaihae Breakwall Deep,45,13.716,"(10,15]",-155.8371419,20.03566884,2015/10/23,30,NA,16.52844232,37.57398547,45.89757221,83.47,9/23/2016,TNC,Courtney Couch,Eric Conklin,"Rebecca Most, Ryan Carr, Harry Lynch, Brett Schumacher, Eric Conklin",Courtney Couch,Belt Transect - Colony Level Assessment,37835,-155.8334465,20.03823315,,,,,,,
TNC_2015,TNC,TNC,Hawaii,West Hawaii,Kawaihae Breakwall Shallow,20,6.096,"(5,10]",-155.8366193,20.03571024,2015/10/23,30,NA,8.573521059,36.48372343,54.94275551,91.43,9/23/2016,TNC,Courtney Couch,Eric Conklin,"Rebecca Most, Ryan Carr, Harry Lynch, Brett Schumacher, Eric Conklin",Courtney Couch,Belt Transect - Colony Level Assessment,37835,-155.8334465,20.03823315,,,,,,,
DAR_KONA_2015,DLNR/DAR; PCSU,K. Lindsey Kramer,Hawaii,West Hawaii,Kealakekua Bay,26,7.9248,"(5,10]",-155.93278,19.4793,2015/10/13,10,NA,49.1,35.2,16.7,51.9,9/2/2016,DLNR/DAR; PCSU,K. Lindsey Kramer,William Walsh,"K. Lindsey Kramer, William Walsh",K. Lindsey Kramer,Belt Transect - Colony Level Assessment,52394,-155.9326005,19.47866988,,,,,,,
DAR_KONA_2015,DLNR/DAR; PCSU,K. Lindsey Kramer,Hawaii,West Hawaii,Kealakekua Bay,26,7.9248,"(5,10]",-155.93278,19.4793,2015/10/13,10,NA,55.9,18.9,26.1,45,9/2/2016,DLNR/DAR; PCSU,K. Lindsey Kramer,William Walsh,"K. Lindsey Kramer, William Walsh",K. Lindsey Kramer,Belt Transect - Colony Level Assessment,52394,-155.9326005,19.47866988,,,,,,,
DAR_KONA_2015,DLNR/DAR; PCSU,K. Lindsey Kramer,Hawaii,West Hawaii,Kealakekua Bay,26,7.9248,"(5,10]",-155.93278,19.4793,2015/10/13,10,NA,47.4,26.9,28.6,55.5,9/2/2016,DLNR/DAR; PCSU,K. Lindsey Kramer,William Walsh,"K. Lindsey Kramer, William Walsh",K. Lindsey Kramer,Belt Transect - Colony Level Assessment,52394,-155.9326005,19.47866988,,,,,,,
TNC_2015,TNC,TNC,Hawaii,West Hawaii,Keauhou Deep,20,6.096,"(5,10]",-155.9693345,19.56838343,2015/10/22,30,NA,38.30683023,32.47554142,29.21762835,61.69,9/23/2016,TNC,Courtney Couch,Eric Conklin,"Rebecca Most, Ryan Carr, Harry Lynch, Brett Schumacher, Eric Conklin",Courtney Couch,Belt Transect - Colony Level Assessment,50040,-155.9686565,19.56892202,,,,,,,
TNC_2015,TNC,TNC,Hawaii,West Hawaii,Keawaiki Deep,45,13.716,"(10,15]",-155.9100545,19.89112342,2015/10/14,30,NA,58.47140618,24.45718375,17.07141006,41.53,9/23/2016,TNC,Courtney Couch,Eric Conklin,"Rebecca Most, Ryan Carr, Harry Lynch, Brett Schumacher, Eric Conklin",Courtney Couch,Belt Transect - Colony Level Assessment,41587,-155.9055585,19.89382973,,,,,,,
TNC_2015,TNC,TNC,Hawaii,West Hawaii,Keawaiki Shallow,20,6.096,"(5,10]",-155.9079331,19.89079074,2015/10/14,30,NA,37.16815098,32.40033927,30.43150975,62.83,9/23/2016,TNC,Courtney Couch,Eric Conklin,"Rebecca Most, Ryan Carr, Harry Lynch, Brett Schumacher, Eric Conklin",Courtney Couch,Belt Transect - Colony Level Assessment,41587,-155.9055585,19.89382973,,,,,,,
HIMB_BAHR_2015_KB,HIMB,Keisha Bahr,Oahu,Kaneohe Bay,Kekepa,3,0.9144,"[0,5]",-157.77996,21.46101,2015/10/16,100,75,85,5,10,15,,HIMB,Keisha Bahr,Keisha Bahr and Kuulei Rodgers,Keisha Bahr and Kuulei Rodgers,Keisha Bahr,Broad Scale Surveys,489,-157.7804702,21.46421696,,,,,,,
HIMB_BAHR_2015_KB,HIMB,Keisha Bahr,Oahu,Kaneohe Bay,Kekepa,3,0.9144,"[0,5]",-157.77996,21.46101,2015/10/16,100,70,80,10,10,20,,HIMB,Keisha Bahr,Keisha Bahr and Kuulei Rodgers,Keisha Bahr and Kuulei Rodgers,Keisha Bahr,Broad Scale Surveys,489,-157.7804702,21.46421696,,,,,,,
TNC_2015,TNC,TNC,Hawaii,West Hawaii,Keonenui Deep,20,6.096,"(5,10]",-155.9809445,19.84395342,2015/10/16,30,NA,62.05544053,16.28364389,21.66091557,37.94,9/23/2016,TNC,Courtney Couch,Eric Conklin,"Rebecca Most, Ryan Carr, Harry Lynch, Brett Schumacher, Eric Conklin",Courtney Couch,Belt Transect - Colony Level Assessment,42989,-155.9776705,19.83967844,,,,,,,
TNC_2015,TNC,TNC,Hawaii,West Hawaii,Keonenui Shallow,45,13.716,"(10,15]",-155.9806157,19.84373583,2015/10/16,30,NA,44.82741742,24.04194942,31.13063317,55.17,9/23/2016,TNC,Courtney Couch,Eric Conklin,"Rebecca Most, Ryan Carr, Harry Lynch, Brett Schumacher, Eric Conklin",Courtney Couch,Belt Transect - Colony Level Assessment,42989,-155.9776705,19.83967844,,,,,,,
HIMB_BAHR_2015_HB,HIMB,Keisha Bahr,Oahu,Hanauma Bay,KH 2a,3,0.9144,"[0,5]",-157.695541,21.27223,2015/10/20,75,21.82,22.73,19.09,58.18,77.27,,HIMB,Keisha Bahr,Keisha Bahr and Kuulei Rodgers,Keisha Bahr and Kuulei Rodgers,Keisha Bahr,Belt Transect - Colony Level Assessment,5433,-157.6993442,21.27468747,,,,,,,
HIMB_BAHR_2015_HB,HIMB,Keisha Bahr,Oahu,Hanauma Bay,KH 2b,3,0.9144,"[0,5]",-157.695805,21.271923,2015/10/20,75,23.85,24.62,20,55.38,75.38,,HIMB,Keisha Bahr,Keisha Bahr and Kuulei Rodgers,Keisha Bahr and Kuulei Rodgers,Keisha Bahr,Belt Transect - Colony Level Assessment,5433,-157.6993442,21.27468747,,,,,,,
TNC_2015,TNC,TNC,Hawaii,West Hawaii,Kiholo Deep,20,6.096,"(5,10]",-155.9347955,19.8552772,2015/10/19,30,NA,58.16212849,23.04191977,18.79595174,41.84,9/23/2016,TNC,Courtney Couch,Eric Conklin,"Rebecca Most, Ryan Carr, Harry Lynch, Brett Schumacher, Eric Conklin",Courtney Couch,Belt Transect - Colony Level Assessment,42524,-155.9326005,19.85772887,,,,,,,
TNC_2015,TNC,TNC,Hawaii,West Hawaii,Kiholo Shallow,45,13.716,"(10,15]",-155.9341545,19.85513547,2015/10/19,30,NA,40.78677007,28.15006297,31.06316696,59.21,9/23/2016,TNC,Courtney Couch,Eric Conklin,"Rebecca Most, Ryan Carr, Harry Lynch, Brett Schumacher, Eric Conklin",Courtney Couch,Belt Transect - Colony Level Assessment,42524,-155.9326005,19.85772887,,,,,,,
HIMB_BAHR_2015_KB,HIMB,Keisha Bahr,Oahu,Kaneohe Bay,Koko Pier,3,0.9144,"[0,5]",-157.77044,21.42795,2015/10/16,100,5,20,10,70,80,,HIMB,Keisha Bahr,Keisha Bahr and Kuulei Rodgers,Keisha Bahr and Kuulei Rodgers,Keisha Bahr,Broad Scale Surveys,1430,-157.7714562,21.42811611,,,,,,,
TNC_2015,TNC,TNC,Hawaii,West Hawaii,Kumukehu Deep,20,6.096,"(5,10]",-155.9980364,19.83444801,2015/10/20,30,NA,56.19168222,10.98578786,32.82252992,43.81,9/23/2016,TNC,Courtney Couch,Eric Conklin,"Rebecca Most, Ryan Carr, Harry Lynch, Brett Schumacher, Eric Conklin",Courtney Couch,Belt Transect - Colony Level Assessment,43222,-155.9956985,19.83065323,,,,,,,
TNC_2015,TNC,TNC,Hawaii,West Hawaii,Kumukehu Shallow,45,13.716,"(10,15]",-155.9976033,19.83415037,2015/10/20,30,NA,52.3761354,19.94682466,27.67703994,47.62,9/23/2016,TNC,Courtney Couch,Eric Conklin,"Rebecca Most, Ryan Carr, Harry Lynch, Brett Schumacher, Eric Conklin",Courtney Couch,Belt Transect - Colony Level Assessment,43222,-155.9956985,19.83065323,,,,,,,
TNC_2015,TNC,TNC,Hawaii,West Hawaii,Laehou Deep,20,6.096,"(5,10]",-155.922528,19.87344406,2015/10/21,30,NA,54.30129037,16.50478801,29.19392162,45.7,9/23/2016,TNC,Courtney Couch,Eric Conklin,"Rebecca Most, Ryan Carr, Harry Lynch, Brett Schumacher, Eric Conklin",Courtney Couch,Belt Transect - Colony Level Assessment,42055,-155.9235865,19.8757793,,,,,,,
TNC_2015,TNC,TNC,Hawaii,West Hawaii,Laehou Shallow,45,13.716,"(10,15]",-155.9220196,19.87313644,2015/10/21,30,NA,51.0060696,14.14528078,34.84864963,48.99,9/23/2016,TNC,Courtney Couch,Eric Conklin,"Rebecca Most, Ryan Carr, Harry Lynch, Brett Schumacher, Eric Conklin",Courtney Couch,Belt Transect - Colony Level Assessment,42055,-155.9235865,19.8757793,,,,,,,
UH_MASSEY_2015,UH Manoa,Tayler Massey,Oahu,Windward Oahu,Lanikai,8,2.4384,"[0,5]",-157.71404,21.39298,2015/10/15,10,47.9798,81.94444,4.861111,1.041667,5.9,10/12/2016,UH Manoa,Tayler Massey,Tayler Massey,Tayler Massey,Tayler Massey,Video Transect,2376,-157.7173722,21.39201525,,,,,,,
UH_MASSEY_2015,UH Manoa,Tayler Massey,Oahu,Windward Oahu,Lanikai,8,2.4384,"[0,5]",-157.71506,21.39383,2015/10/15,10,29.95951,51.35135,9.189189,9.72973,18.92,10/12/2016,UH Manoa,Tayler Massey,Tayler Massey,Tayler Massey,Tayler Massey,Video Transect,2376,-157.7173722,21.39201525,,,,,,,
UH_MASSEY_2015,UH Manoa,Tayler Massey,Oahu,Windward Oahu,Lanikai,8,2.4384,"[0,5]",-157.71404,21.39298,2015/10/15,10,26.82927,49.68153,8.280255,10.828025,19.11,10/12/2016,UH Manoa,Tayler Massey,Tayler Massey,Tayler Massey,Tayler Massey,Video Transect,2376,-157.7173722,21.39201525,,,,,,,
UH_MASSEY_2015,UH Manoa,Tayler Massey,Oahu,Windward Oahu,Lanikai,8,2.4384,"[0,5]",-157.71404,21.39298,2015/10/15,10,38.85714,60.47619,10.47619,10.952381,21.43,10/12/2016,UH Manoa,Tayler Massey,Tayler Massey,Tayler Massey,Tayler Massey,Video Transect,2376,-157.7173722,21.39201525,,,,,,,
UH_MASSEY_2015,UH Manoa,Tayler Massey,Oahu,Windward Oahu,Lanikai,8,2.4384,"[0,5]",-157.71585,21.39468,2015/10/15,10,26.08696,45.29915,34.188034,14.529915,48.72,10/12/2016,UH Manoa,Tayler Massey,Tayler Massey,Tayler Massey,Tayler Massey,Video Transect,2376,-157.7173722,21.39201525,,,,,,,
UH_MASSEY_2015,UH Manoa,Tayler Massey,Oahu,Windward Oahu,Lanikai,8,2.4384,"[0,5]",-157.71506,21.39383,2015/10/15,10,31.76471,39.79058,20.942408,20.418848,41.36,10/12/2016,UH Manoa,Tayler Massey,Tayler Massey,Tayler Massey,Tayler Massey,Video Transect,2376,-157.7173722,21.39201525,,,,,,,
UH_MASSEY_2015,UH Manoa,Tayler Massey,Oahu,Windward Oahu,Lanikai,8,2.4384,"[0,5]",-157.71585,21.39468,2015/10/15,10,35.16068,42.78351,25.773196,27.319588,53.09,10/12/2016,UH Manoa,Tayler Massey,Tayler Massey,Tayler Massey,Tayler Massey,Video Transect,2376,-157.7173722,21.39201525,,,,,,,
UH_MASSEY_2015,UH Manoa,Tayler Massey,Oahu,Windward Oahu,Lanikai,8,2.4384,"[0,5]",-157.71367,21.39194,2015/10/15,10,54.87528,54.95868,14.876033,30.165289,45.04,10/12/2016,UH Manoa,Tayler Massey,Tayler Massey,Tayler Massey,Tayler Massey,Video Transect,2376,-157.7173722,21.39201525,,,,,,,
UH_MASSEY_2015,UH Manoa,Tayler Massey,Oahu,Windward Oahu,Lanikai,8,2.4384,"[0,5]",-157.71506,21.39383,2015/10/15,10,19.66912,37.7193,25.438596,30.701754,56.14,10/12/2016,UH Manoa,Tayler Massey,Tayler Massey,Tayler Massey,Tayler Massey,Video Transect,2376,-157.7173722,21.39201525,,,,,,,
UH_MASSEY_2015,UH Manoa,Tayler Massey,Oahu,Windward Oahu,Lanikai,8,2.4384,"[0,5]",-157.71367,21.39194,2015/10/15,10,65.68421,53.52564,13.461538,31.730769,45.19,10/12/2016,UH Manoa,Tayler Massey,Tayler Massey,Tayler Massey,Tayler Massey,Video Transect,2376,-157.7173722,21.39201525,,,,,,,
UH_MASSEY_2015,UH Manoa,Tayler Massey,Oahu,Windward Oahu,Lanikai,8,2.4384,"[0,5]",-157.71367,21.39194,2015/10/15,10,17.38241,51.76471,10.588235,37.647059,48.24,10/12/2016,UH Manoa,Tayler Massey,Tayler Massey,Tayler Massey,Tayler Massey,Video Transect,2376,-157.7173722,21.39201525,,,,,,,
UH_MASSEY_2015,UH Manoa,Tayler Massey,Oahu,Windward Oahu,Lanikai,8,2.4384,"[0,5]",-157.71585,21.39468,2015/10/15,10,40.15009,48.59813,8.411215,41.588785,50,10/12/2016,UH Manoa,Tayler Massey,Tayler Massey,Tayler Massey,Tayler Massey,Video Transect,2376,-157.7173722,21.39201525,,,,,,,
UH_MASSEY_2015,UH Manoa,Tayler Massey,Oahu,Windward Oahu,Lanikai,8,2.4384,"[0,5]",-157.71815,21.39594,2015/10/15,10,36.13232,10.59603,23.84106,59.60265,83.44,10/12/2016,UH Manoa,Tayler Massey,Tayler Massey,Tayler Massey,Tayler Massey,Video Transect,2376,-157.7173722,21.39201525,,,,,,,
UH_WALL_2015,UH Manoa,C. Wall,Oahu,Kaneohe Bay,Lilipuna,0.5,0.1524,"[0,5]",-157.79,21.4269,2015/10/15,20,20,100,0,0,0,10/6/2016,UH Manoa,C Wall,C Wall_R Gates,C Wall,C Wall,Belt Transect - Point Intercept,1428,-157.7894842,21.42811611,,,,,,,
UH_WALL_2015,UH Manoa,C. Wall,Oahu,Kaneohe Bay,Lilipuna,3,0.9144,"[0,5]",-157.79,21.4269,2015/10/15,20,40,75,25,0,25,10/6/2016,UH Manoa,C Wall,C Wall_R Gates,C Wall,C Wall,Belt Transect - Point Intercept,1428,-157.7894842,21.42811611,,,,,,,
UH_WALL_2015,UH Manoa,C. Wall,Oahu,Kaneohe Bay,Lilipuna,1,0.3048,"[0,5]",-157.79,21.4269,2015/10/15,20,55,55,36,9,45.45,10/6/2016,UH Manoa,C Wall,C Wall_R Gates,C Wall,C Wall,Belt Transect - Point Intercept,1428,-157.7894842,21.42811611,,,,,,,
UH_WALL_2015,UH Manoa,C. Wall,Oahu,Kaneohe Bay,Lilipuna,3,0.9144,"[0,5]",-157.79,21.4269,2015/10/15,20,25,80,0,20,20,10/6/2016,UH Manoa,C Wall,C Wall_R Gates,C Wall,C Wall,Belt Transect - Point Intercept,1428,-157.7894842,21.42811611,,,,,,,
UH_WALL_2015,UH Manoa,C. Wall,Oahu,Kaneohe Bay,Lilipuna,0.5,0.1524,"[0,5]",-157.79,21.4269,2015/10/15,20,40,13,63,25,87.5,10/6/2016,UH Manoa,C Wall,C Wall_R Gates,C Wall,C Wall,Belt Transect - Point Intercept,1428,-157.7894842,21.42811611,,,,,,,
UH_WALL_2015,UH Manoa,C. Wall,Oahu,Kaneohe Bay,Lilipuna,1,0.3048,"[0,5]",-157.79,21.4269,2015/10/15,20,70,36,14,50,64.29,10/6/2016,UH Manoa,C Wall,C Wall_R Gates,C Wall,C Wall,Belt Transect - Point Intercept,1428,-157.7894842,21.42811611,,,,,,,
HIMB_BAHR_2015_KB,HIMB,Keisha Bahr,Oahu,Kaneohe Bay,Lilipuna FR,3,0.9144,"[0,5]",-157.79237,21.42998,2015/10/16,100,25,30,20,50,70,,HIMB,Keisha Bahr,Keisha Bahr and Kuulei Rodgers,Keisha Bahr and Kuulei Rodgers,Keisha Bahr,Broad Scale Surveys,1428,-157.7894842,21.42811611,,,,,,,
TNC_2015,TNC,TNC,Hawaii,West Hawaii,Lulahala Point Deep,45,13.716,"(10,15]",-155.8847849,19.93513369,2015/10/14,30,NA,21.22490642,42.01473804,36.76035554,78.78,9/23/2016,TNC,Courtney Couch,Eric Conklin,"Rebecca Most, Ryan Carr, Harry Lynch, Brett Schumacher, Eric Conklin",Courtney Couch,Belt Transect - Colony Level Assessment,40414,-155.8875305,19.9389558,,,,,,,
TNC_2015,TNC,TNC,Hawaii,West Hawaii,Lulahala Point Shallow,20,6.096,"(5,10]",-155.8842603,19.93455534,2015/10/14,30,NA,29.24374235,49.76213401,20.99412364,70.76,9/23/2016,TNC,Courtney Couch,Eric Conklin,"Rebecca Most, Ryan Carr, Harry Lynch, Brett Schumacher, Eric Conklin",Courtney Couch,Belt Transect - Colony Level Assessment,40414,-155.8875305,19.9389558,,,,,,,
TNC_2015,TNC,TNC,Hawaii,West Hawaii,Makalawena Deep,20,6.096,"(5,10]",-156.0281404,19.79669374,2015/10/15,30,NA,57.22630231,21.72932993,21.04436777,42.77,9/23/2016,TNC,Courtney Couch,Eric Conklin,"Rebecca Most, Ryan Carr, Harry Lynch, Brett Schumacher, Eric Conklin",Courtney Couch,Belt Transect - Colony Level Assessment,44158,-156.0317545,19.79455237,,,,,,,
TNC_2015,TNC,TNC,Hawaii,West Hawaii,Makalawena Shallow,45,13.716,"(10,15]",-156.0277422,19.79631848,2015/10/15,30,NA,39.01560624,27.40696279,33.57743097,60.98,9/23/2016,TNC,Courtney Couch,Eric Conklin,"Rebecca Most, Ryan Carr, Harry Lynch, Brett Schumacher, Eric Conklin",Courtney Couch,Belt Transect - Colony Level Assessment,44158,-156.0317545,19.79455237,,,,,,,
TNC_2015,TNC,TNC,Hawaii,West Hawaii,Makolea Deep,20,6.096,"(5,10]",-156.0480076,19.78407905,2015/10/21,30,NA,48.53229144,12.97787567,38.48983289,51.47,9/23/2016,TNC,Courtney Couch,Eric Conklin,"Rebecca Most, Ryan Carr, Harry Lynch, Brett Schumacher, Eric Conklin",Courtney Couch,Belt Transect - Colony Level Assessment,44391,-156.0497825,19.78552716,,,,,,,
TNC_2015,TNC,TNC,Hawaii,West Hawaii,Makolea Shallow,45,13.716,"(10,15]",-156.0475293,19.78396682,2015/10/21,30,NA,40.07029227,26.39289678,33.53681095,59.93,9/23/2016,TNC,Courtney Couch,Eric Conklin,"Rebecca Most, Ryan Carr, Harry Lynch, Brett Schumacher, Eric Conklin",Courtney Couch,Belt Transect - Colony Level Assessment,44391,-156.0497825,19.78552716,,,,,,,
TNC_2015,TNC,TNC,Hawaii,West Hawaii,Manini O Wali Deep,20,6.096,"(5,10]",-156.0076166,19.81344681,2015/10/20,30,NA,55.53933313,23.98360288,20.47706399,44.46,9/23/2016,TNC,Courtney Couch,Eric Conklin,"Rebecca Most, Ryan Carr, Harry Lynch, Brett Schumacher, Eric Conklin",Courtney Couch,Belt Transect - Colony Level Assessment,43691,-156.0047125,19.8126028,,,,,,,
TNC_2015,TNC,TNC,Hawaii,West Hawaii,Manini O Wali Shallow,45,13.716,"(10,15]",-156.0070387,19.81315588,2015/10/20,30,NA,50.50710949,20.64454012,28.84835039,49.49,9/23/2016,TNC,Courtney Couch,Eric Conklin,"Rebecca Most, Ryan Carr, Harry Lynch, Brett Schumacher, Eric Conklin",Courtney Couch,Belt Transect - Colony Level Assessment,43691,-156.0047125,19.8126028,,,,,,,
TNC_2015,TNC,TNC,Hawaii,West Hawaii,Mauna Kea Deep,45,13.716,"(10,15]",-155.8309239,19.99986654,2015/10/13,30,NA,50.52872566,11.34567187,38.12560247,49.47,9/23/2016,TNC,Courtney Couch,Eric Conklin,"Rebecca Most, Ryan Carr, Harry Lynch, Brett Schumacher, Eric Conklin",Courtney Couch,Belt Transect - Colony Level Assessment,38775,-155.8334465,20.0021323,,,,,,,
TNC_2015,TNC,TNC,Hawaii,West Hawaii,Mauna Kea Shallow,20,6.096,"(5,10]",-155.8289395,20.00066668,2015/10/13,30,NA,44.32562879,24.09248305,31.58188816,55.67,9/23/2016,TNC,Courtney Couch,Eric Conklin,"Rebecca Most, Ryan Carr, Harry Lynch, Brett Schumacher, Eric Conklin",Courtney Couch,Belt Transect - Colony Level Assessment,38775,-155.8334465,20.0021323,,,,,,,
HIMB_BAHR_2015_KB,HIMB,Keisha Bahr,Oahu,Kaneohe Bay,N BR,3,0.9144,"[0,5]",-157.80656,21.47409,2015/10/16,100,89,90,5,5,10,,HIMB,Keisha Bahr,Keisha Bahr and Kuulei Rodgers,Keisha Bahr and Kuulei Rodgers,Keisha Bahr,Broad Scale Surveys,251,-157.8075122,21.47324218,,,,,,,
DAR_KONA_2015,DLNR/DAR; PCSU,K. Lindsey Kramer,Hawaii,West Hawaii,N. Keauhou,40,12.192,"(10,15]",-155.96935,19.56838,2015/10/15,10,NA,50.8,28,22,50,9/2/2016,DLNR/DAR; PCSU,K. Lindsey Kramer,William Walsh,"K. Lindsey Kramer, William Walsh",K. Lindsey Kramer,Belt Transect - Colony Level Assessment,50040,-155.9686565,19.56892202,,,,,,,
DAR_KONA_2015,DLNR/DAR; PCSU,K. Lindsey Kramer,Hawaii,West Hawaii,N. Keauhou,40,12.192,"(10,15]",-155.96935,19.56838,2015/10/15,10,NA,54.4,25,22.8,47.8,9/2/2016,DLNR/DAR; PCSU,K. Lindsey Kramer,William Walsh,"K. Lindsey Kramer, William Walsh",K. Lindsey Kramer,Belt Transect - Colony Level Assessment,50040,-155.9686565,19.56892202,,,,,,,
DAR_KONA_2015,DLNR/DAR; PCSU,K. Lindsey Kramer,Hawaii,West Hawaii,N. Keauhou,40,12.192,"(10,15]",-155.96935,19.56838,2015/10/15,10,NA,59.4,16.7,23.9,40.6,9/2/2016,DLNR/DAR; PCSU,K. Lindsey Kramer,William Walsh,"K. Lindsey Kramer, William Walsh",K. Lindsey Kramer,Belt Transect - Colony Level Assessment,50040,-155.9686565,19.56892202,,,,,,,
HIHWNMS_2015,HIHWNMS,Lyday/Martinez/Rose,Lanai,E Lanai,NA,31,9.4488,"(5,10]",-156.82567,20.8597,2015/11/03,NA,NA,88.51,9.46,2.03,11.49,9/30/2016,NOAA Hawaiian Islands Humpback Whale National Marine Sanctuary,Maya Walton,Jonathan Martinez (NOAA HIHWNMS),"Maya Walton, Jonathan Martinez",Jonathan Martinez,Belt Transect - Colony Level Assessment,16340,-156.8249864,20.85952763,,,,,,,
HIHWNMS_2015,HIHWNMS,Rose/Walton,Hawaii,Kiholo S,NA,34,10.3632,"(10,15]",-155.94743,19.85507,2015/11/12,15.3,NA,76.22,12.94,10.84,23.78,9/30/2016,NOAA Hawaiian Islands Humpback Whale National Marine Sanctuary,Maya Walton,Jonathan Martinez (NOAA HIHWNMS),"Maya Walton, Jonathan Martinez",Jonathan Martinez,Belt Transect - Colony Level Assessment,42522,-155.9506285,19.85772887,,,,,,,
HIHWNMS_2015,HIHWNMS,Rose/Walton,Lanai,West of Hulupoe,NA,36,10.9728,"(10,15]",-156.90825,20.73451,2015/11/08,10,NA,82.13,5.11,12.77,17.87,9/30/2016,NOAA Hawaiian Islands Humpback Whale National Marine Sanctuary,Maya Walton,Jonathan Martinez (NOAA HIHWNMS),"Maya Walton, Jonathan Martinez",Jonathan Martinez,Belt Transect - Colony Level Assessment,19621,-156.9061123,20.73317463,,,,,,,
HIHWNMS_2015,HIHWNMS,Martinez/Walton,Hawaii,Kiholo C,NA,36,10.9728,"(10,15]",-155.92772,19.86232,2015/11/12,10.5,NA,50.38,30.08,19.55,49.62,9/30/2016,NOAA Hawaiian Islands Humpback Whale National Marine Sanctuary,Maya Walton,Jonathan Martinez (NOAA HIHWNMS),"Maya Walton, Jonathan Martinez",Jonathan Martinez,Belt Transect - Colony Level Assessment,42290,-155.9235865,19.86675409,,,,,,,
HIHWNMS_2015,HIHWNMS,Martinez/Walton,Hawaii,Makako C,NA,25,7.62,"(5,10]",-156.05386,19.73598,2015/11/13,6.5,NA,59.21,21.05,19.74,40.79,9/30/2016,NOAA Hawaiian Islands Humpback Whale National Marine Sanctuary,Maya Walton,Jonathan Martinez (NOAA HIHWNMS),"Maya Walton, Jonathan Martinez",Jonathan Martinez,Belt Transect - Colony Level Assessment,45566,-156.0497825,19.74040109,,,,,,,
HIHWNMS_2015,HIHWNMS,Martinez,Lanai,E Lanai,NA,33,10.0584,"(10,15]",-156.814,20.846,2015/11/03,NA,NA,77.14,2.86,20,22.86,9/30/2016,NOAA Hawaiian Islands Humpback Whale National Marine Sanctuary,Maya Walton,Jonathan Martinez (NOAA HIHWNMS),"Maya Walton, Jonathan Martinez",Jonathan Martinez,Belt Transect - Colony Level Assessment,16576,-156.8159724,20.85050241,,,,,,,
HIHWNMS_2015,HIHWNMS,Rose/Walton,Hawaii,N of Kiholo,NA,28,8.5344,"(5,10]",-155.90984,19.89824,2015/11/12,16,NA,58.88,19.74,21.38,41.12,9/30/2016,NOAA Hawaiian Islands Humpback Whale National Marine Sanctuary,Maya Walton,Jonathan Martinez (NOAA HIHWNMS),"Maya Walton, Jonathan Martinez",Jonathan Martinez,Belt Transect - Colony Level Assessment,41587,-155.9055585,19.89382973,,,,,,,
HIHWNMS_2015,HIHWNMS,Martinez/Rose/Walton,Lanai,SE Lanai,NA,38,11.5824,"(10,15]",-156.84244,20.75623,2015/11/08,16.85,NA,65.42,11.21,23.36,34.58,9/30/2016,NOAA Hawaiian Islands Humpback Whale National Marine Sanctuary,Maya Walton,Jonathan Martinez (NOAA HIHWNMS),"Maya Walton, Jonathan Martinez",Jonathan Martinez,Belt Transect - Colony Level Assessment,18923,-156.8430144,20.76025027,,,,,,,
HIHWNMS_2015,HIHWNMS,Martinez/Walton,Hawaii,Makako S,NA,35,10.668,"(10,15]",-156.05896,19.73266,2015/11/13,4.8,NA,59.65,16.67,23.68,40.35,9/30/2016,NOAA Hawaiian Islands Humpback Whale National Marine Sanctuary,Maya Walton,Jonathan Martinez (NOAA HIHWNMS),"Maya Walton, Jonathan Martinez",Jonathan Martinez,Belt Transect - Colony Level Assessment,45800,-156.0587965,19.73137588,,,,,,,
HIHWNMS_2015,HIHWNMS,Lyday/Martinez/Rose,Lanai,SE Lanai,NA,39,11.8872,"(10,15]",-156.80415,20.80447,2015/11/04,NA,NA,68.82,6.08,25.1,31.18,9/30/2016,NOAA Hawaiian Islands Humpback Whale National Marine Sanctuary,Maya Walton,Jonathan Martinez (NOAA HIHWNMS),"Maya Walton, Jonathan Martinez",Jonathan Martinez,Belt Transect - Colony Level Assessment,17752,-156.8069584,20.80537634,,,,,,,
HIHWNMS_2015,HIHWNMS,Rose/Walton,Maui,Kihei N,NA,29,8.8392,"(5,10]",-156.46085,20.73229,2015/11/10,15,NA,62.73,11.52,25.76,37.27,9/30/2016,NOAA Hawaiian Islands Humpback Whale National Marine Sanctuary,Maya Walton,Jonathan Martinez (NOAA HIHWNMS),"Maya Walton, Jonathan Martinez",Jonathan Martinez,Belt Transect - Colony Level Assessment,19670,-156.4644264,20.73317463,,,,,,,
HIHWNMS_2015,HIHWNMS,Martinez/Walton,Lanai,Puupehe,NA,30,9.144,"(5,10]",-156.89285,20.73276,2015/11/08,9.7,NA,46.43,26.79,26.79,53.57,9/30/2016,NOAA Hawaiian Islands Humpback Whale National Marine Sanctuary,Maya Walton,Jonathan Martinez (NOAA HIHWNMS),"Maya Walton, Jonathan Martinez",Jonathan Martinez,Belt Transect - Colony Level Assessment,19622,-156.8970983,20.73317463,,,,,,,
HIHWNMS_2015,HIHWNMS,Rose/Walton,Hawaii,N Kohala A,NA,35,10.668,"(10,15]",-155.89696,20.14414,2015/11/11,16.1,NA,60.39,10.96,28.65,39.61,9/30/2016,NOAA Hawaiian Islands Humpback Whale National Marine Sanctuary,Maya Walton,Jonathan Martinez (NOAA HIHWNMS),"Maya Walton, Jonathan Martinez",Jonathan Martinez,Belt Transect - Colony Level Assessment,35008,-155.8965445,20.14653572,,,,,,,
HIHWNMS_2015,HIHWNMS,Lyday/Martinez/Rose,Lanai,SE Lanai,NA,46,14.0208,"(10,15]",-156.80301,20.81291,2015/11/04,NA,NA,63.93,6.56,29.51,36.07,9/30/2016,NOAA Hawaiian Islands Humpback Whale National Marine Sanctuary,Maya Walton,Jonathan Martinez (NOAA HIHWNMS),"Maya Walton, Jonathan Martinez",Jonathan Martinez,Belt Transect - Colony Level Assessment,17517,-156.8069584,20.81440156,,,,,,,
HIHWNMS_2015,HIHWNMS,Martinez/Walton,Maui,Kihei S,NA,30,9.144,"(5,10]",-156.44888,20.71268,2015/11/10,11.3,NA,47.62,19.73,32.65,52.38,9/30/2016,NOAA Hawaiian Islands Humpback Whale National Marine Sanctuary,Maya Walton,Jonathan Martinez (NOAA HIHWNMS),"Maya Walton, Jonathan Martinez",Jonathan Martinez,Belt Transect - Colony Level Assessment,20142,-156.4463984,20.7151242,,,,,,,
HIHWNMS_2015,HIHWNMS,Martinez/Rose,Hawaii,Kiholo N,NA,32,9.7536,"(5,10]",-155.92432,19.86904,2015/11/12,14,NA,55.97,10.92,33.11,44.03,9/30/2016,NOAA Hawaiian Islands Humpback Whale National Marine Sanctuary,Maya Walton,Jonathan Martinez (NOAA HIHWNMS),"Maya Walton, Jonathan Martinez",Jonathan Martinez,Belt Transect - Colony Level Assessment,42290,-155.9235865,19.86675409,,,,,,,
HIHWNMS_2015,HIHWNMS,Rose/Walton,Maui,Mala Wharf,NA,32,9.7536,"(5,10]",-156.69148,20.88262,2015/11/09,16,NA,48.15,18.52,33.33,51.85,9/30/2016,NOAA Hawaiian Islands Humpback Whale National Marine Sanctuary,Maya Walton,Jonathan Martinez (NOAA HIHWNMS),"Maya Walton, Jonathan Martinez",Jonathan Martinez,Belt Transect - Colony Level Assessment,15650,-156.6897764,20.88660327,,,,,,,
HIHWNMS_2015,HIHWNMS,Martinez/Rose,Maui,Kahekili,NA,34,10.3632,"(10,15]",-156.69955,20.94925,2015/11/06,15,NA,56.38,10.07,33.56,43.62,9/30/2016,NOAA Hawaiian Islands Humpback Whale National Marine Sanctuary,Maya Walton,Jonathan Martinez (NOAA HIHWNMS),"Maya Walton, Jonathan Martinez",Jonathan Martinez,Belt Transect - Colony Level Assessment,14004,-156.6987904,20.94977977,,,,,,,
HIHWNMS_2015,HIHWNMS,Martinez/Walton,Hawaii,Makako N,NA,38,11.5824,"(10,15]",-156.05568,19.74012,2015/11/13,13.1,NA,43.22,20.6,36.18,56.78,9/30/2016,NOAA Hawaiian Islands Humpback Whale National Marine Sanctuary,Maya Walton,Jonathan Martinez (NOAA HIHWNMS),"Maya Walton, Jonathan Martinez",Jonathan Martinez,Belt Transect - Colony Level Assessment,45565,-156.0587965,19.74040109,,,,,,,
HIHWNMS_2015,HIHWNMS,Martinez/Rose,Hawaii,N Kohala B,NA,35,10.668,"(10,15]",-155.87549,20.09202,2015/11/11,20,NA,49.09,14.55,36.36,50.91,9/30/2016,NOAA Hawaiian Islands Humpback Whale National Marine Sanctuary,Maya Walton,Jonathan Martinez (NOAA HIHWNMS),"Maya Walton, Jonathan Martinez",Jonathan Martinez,Belt Transect - Colony Level Assessment,36420,-155.8785165,20.09238444,,,,,,,
HIHWNMS_2015,HIHWNMS,Martinez/Rose,Maui,Olowalu South,NA,37,11.2776,"(10,15]",-156.6062,20.80405,2015/11/05,15,NA,46.01,15.96,38.03,53.99,9/30/2016,NOAA Hawaiian Islands Humpback Whale National Marine Sanctuary,Maya Walton,Jonathan Martinez (NOAA HIHWNMS),"Maya Walton, Jonathan Martinez",Jonathan Martinez,Belt Transect - Colony Level Assessment,17774,-156.6086504,20.80537634,,,,,,,
HIHWNMS_2015,HIHWNMS,Martinez/Rose,Maui,Kaanapali,NA,34,10.3632,"(10,15]",-156.69501,20.91035,2015/11/06,15,NA,46.19,15.74,38.07,53.81,9/30/2016,NOAA Hawaiian Islands Humpback Whale National Marine Sanctuary,Maya Walton,Jonathan Martinez (NOAA HIHWNMS),"Maya Walton, Jonathan Martinez",Jonathan Martinez,Belt Transect - Colony Level Assessment,14944,-156.6987904,20.91367891,,,,,,,
HIHWNMS_2015,HIHWNMS,Martinez/Rose,Maui,Kaanapali,NA,32,9.7536,"(5,10]",-156.69682,20.91294,2015/11/09,20,NA,44.75,11.28,43.97,55.25,9/30/2016,NOAA Hawaiian Islands Humpback Whale National Marine Sanctuary,Maya Walton,Jonathan Martinez (NOAA HIHWNMS),"Maya Walton, Jonathan Martinez",Jonathan Martinez,Belt Transect - Colony Level Assessment,14944,-156.6987904,20.91367891,,,,,,,
HIHWNMS_2015,HIHWNMS,Martinez/Walton,Hawaii,N Kohala C,NA,29,8.8392,"(5,10]",-155.84073,20.05033,2015/11/11,20,NA,36.88,17.02,46.1,63.12,9/30/2016,NOAA Hawaiian Islands Humpback Whale National Marine Sanctuary,Maya Walton,Jonathan Martinez (NOAA HIHWNMS),"Maya Walton, Jonathan Martinez",Jonathan Martinez,Belt Transect - Colony Level Assessment,37599,-155.8424605,20.04725837,,,,,,,
HIHWNMS_2015,HIHWNMS,Martinez/Rose,Maui,Lahaina,NA,34,10.3632,"(10,15]",-156.69002,20.88515,2015/11/06,15,NA,33.67,17.09,49.25,66.33,9/30/2016,NOAA Hawaiian Islands Humpback Whale National Marine Sanctuary,Maya Walton,Jonathan Martinez (NOAA HIHWNMS),"Maya Walton, Jonathan Martinez",Jonathan Martinez,Belt Transect - Colony Level Assessment,15650,-156.6897764,20.88660327,,,,,,,
HIHWNMS_2015,HIHWNMS,Martinez/Rose,Lanai,Manele Bay,NA,34,10.3632,"(10,15]",-156.87962,20.74078,2015/11/08,15,NA,34.16,15.64,50.21,65.84,9/30/2016,NOAA Hawaiian Islands Humpback Whale National Marine Sanctuary,Maya Walton,Jonathan Martinez (NOAA HIHWNMS),"Maya Walton, Jonathan Martinez",Jonathan Martinez,Belt Transect - Colony Level Assessment,19389,-156.8790704,20.74219984,,,,,,,
HIHWNMS_2015,HIHWNMS,Martinez/Rose,Maui,Olowalu North,NA,31,9.4488,"(5,10]",-156.63087,20.81472,2015/11/05,15,NA,35.42,10.42,54.17,64.58,9/30/2016,NOAA Hawaiian Islands Humpback Whale National Marine Sanctuary,Maya Walton,Jonathan Martinez (NOAA HIHWNMS),"Maya Walton, Jonathan Martinez",Jonathan Martinez,Belt Transect - Colony Level Assessment,17537,-156.6266784,20.81440156,,,,,,,
DAR_KONA_2015,DLNR/DAR; PCSU,K. Lindsey Kramer,Hawaii,West Hawaii,Omakaa/ Milolii,46,14.0208,"(10,15]",-155.91325,19.1673,2015/11/13,10,NA,57.9,25.8,16.9,42.7,9/2/2016,DLNR/DAR; PCSU,K. Lindsey Kramer,William Walsh,"K. Lindsey Kramer, William Walsh",K. Lindsey Kramer,Belt Transect - Colony Level Assessment,60386,-155.9145725,19.17181261,,,,,,,
DAR_KONA_2015,DLNR/DAR; PCSU,K. Lindsey Kramer,Hawaii,West Hawaii,Omakaa/ Milolii,46,14.0208,"(10,15]",-155.91325,19.1673,2015/11/13,10,NA,35.5,47.4,19.7,67.1,9/2/2016,DLNR/DAR; PCSU,K. Lindsey Kramer,William Walsh,"K. Lindsey Kramer, William Walsh",K. Lindsey Kramer,Belt Transect - Colony Level Assessment,60386,-155.9145725,19.17181261,,,,,,,
DAR_KONA_2015,DLNR/DAR; PCSU,K. Lindsey Kramer,Hawaii,West Hawaii,Omakaa/ Milolii,46,14.0208,"(10,15]",-155.91325,19.1673,2015/11/13,10,NA,25.3,47.1,29.9,77,9/2/2016,DLNR/DAR; PCSU,K. Lindsey Kramer,William Walsh,"K. Lindsey Kramer, William Walsh",K. Lindsey Kramer,Belt Transect - Colony Level Assessment,60386,-155.9145725,19.17181261,,,,,,,
TNC_2015,TNC,TNC,Hawaii,West Hawaii,Orchid Deep,45,13.716,"(10,15]",-155.8663579,19.95298522,2015/10/21,30,NA,9.135293627,59.94862752,30.91607886,90.86,9/23/2016,TNC,Courtney Couch,Eric Conklin,"Rebecca Most, Ryan Carr, Harry Lynch, Brett Schumacher, Eric Conklin",Courtney Couch,Belt Transect - Colony Level Assessment,39946,-155.8695025,19.95700623,,,,,,,
TNC_2015,TNC,TNC,Hawaii,West Hawaii,Orchid Shallow,20,6.096,"(5,10]",-155.8657928,19.95200152,2015/10/21,30,NA,17.35664351,51.25637806,31.38697843,82.64,9/23/2016,TNC,Courtney Couch,Eric Conklin,"Rebecca Most, Ryan Carr, Harry Lynch, Brett Schumacher, Eric Conklin",Courtney Couch,Belt Transect - Colony Level Assessment,40181,-155.8695025,19.94798101,,,,,,,
HIMB_BAHR_2015_KB,HIMB,Keisha Bahr,Oahu,Kaneohe Bay,PR 15,3,0.9144,"[0,5]",-157.8029,21.45377,2015/10/16,100,80,85,10,5,15,,HIMB,Keisha Bahr,Keisha Bahr and Kuulei Rodgers,Keisha Bahr and Kuulei Rodgers,Keisha Bahr,Broad Scale Surveys,722,-157.7984982,21.45519175,,,,,,,
HIMB_BAHR_2015_KB,HIMB,Keisha Bahr,Oahu,Kaneohe Bay,PR 17,3,0.9144,"[0,5]",-157.80974,21.44832,2015/10/16,100,70,70,10,20,30,,HIMB,Keisha Bahr,Keisha Bahr and Kuulei Rodgers,Keisha Bahr and Kuulei Rodgers,Keisha Bahr,Broad Scale Surveys,956,-157.8075122,21.44616654,,,,,,,
HIMB_BAHR_2015_KB,HIMB,Keisha Bahr,Oahu,Kaneohe Bay,PR 24,3,0.9144,"[0,5]",-157.81608,21.46227,2015/10/16,100,89,90,5,5,10,,HIMB,Keisha Bahr,Keisha Bahr and Kuulei Rodgers,Keisha Bahr and Kuulei Rodgers,Keisha Bahr,Broad Scale Surveys,485,-157.8165262,21.46421696,,,,,,,
HIMB_BAHR_2015_KB,HIMB,Keisha Bahr,Oahu,Kaneohe Bay,PR 25,3,0.9144,"[0,5]",-157.82181,21.46042,2015/10/16,100,60,60,20,20,40,,HIMB,Keisha Bahr,Keisha Bahr and Kuulei Rodgers,Keisha Bahr and Kuulei Rodgers,Keisha Bahr,Broad Scale Surveys,484,-157.8255402,21.46421696,,,,,,,
HIMB_BAHR_2015_KB,HIMB,Keisha Bahr,Oahu,Kaneohe Bay,PR 31,3,0.9144,"[0,5]",-157.82484,21.47095,2015/10/16,100,50,55,20,25,45,,HIMB,Keisha Bahr,Keisha Bahr and Kuulei Rodgers,Keisha Bahr and Kuulei Rodgers,Keisha Bahr,Broad Scale Surveys,249,-157.8255402,21.47324218,,,,,,,
HIMB_BAHR_2015_KB,HIMB,Keisha Bahr,Oahu,Kaneohe Bay,PR 35,3,0.9144,"[0,5]",-157.8378,21.47621,2015/10/16,100,10,40,30,30,60,,HIMB,Keisha Bahr,Keisha Bahr and Kuulei Rodgers,Keisha Bahr and Kuulei Rodgers,Keisha Bahr,Broad Scale Surveys,248,-157.8345542,21.47324218,,,,,,,
HIMB_BAHR_2015_KB,HIMB,Keisha Bahr,Oahu,Kaneohe Bay,PR 37,3,0.9144,"[0,5]",-157.83472,21.47875,2015/10/16,100,10,30,20,50,70,,HIMB,Keisha Bahr,Keisha Bahr and Kuulei Rodgers,Keisha Bahr and Kuulei Rodgers,Keisha Bahr,Broad Scale Surveys,13,-157.8345542,21.48226739,,,,,,,
HIMB_BAHR_2015_KB,HIMB,Keisha Bahr,Oahu,Kaneohe Bay,PR 44,3,0.9144,"[0,5]",-157.83164,21.47775,2015/10/16,100,10,40,30,30,60,,HIMB,Keisha Bahr,Keisha Bahr and Kuulei Rodgers,Keisha Bahr and Kuulei Rodgers,Keisha Bahr,Broad Scale Surveys,248,-157.8345542,21.47324218,,,,,,,
HIMB_BAHR_2015_KB,HIMB,Keisha Bahr,Oahu,Kaneohe Bay,PR 54,3,0.9144,"[0,5]",-157.83292,21.48678,2015/10/16,100,20,30,40,30,70,,HIMB,Keisha Bahr,Keisha Bahr and Kuulei Rodgers,Keisha Bahr and Kuulei Rodgers,Keisha Bahr,Broad Scale Surveys,13,-157.8345542,21.48226739,,,,,,,
HIMB_BAHR_2015_KB,HIMB,Keisha Bahr,Oahu,Kaneohe Bay,PR 54,3,0.9144,"[0,5]",-157.83458,21.47815,2015/10/16,100,0,10,10,80,90,,HIMB,Keisha Bahr,Keisha Bahr and Kuulei Rodgers,Keisha Bahr and Kuulei Rodgers,Keisha Bahr,Broad Scale Surveys,13,-157.8345542,21.48226739,,,,,,,
HIMB_BAHR_2015_KB,HIMB,Keisha Bahr,Oahu,Kaneohe Bay,PR 6,3,0.9144,"[0,5]",-157.80513,21.44037,2015/10/16,100,30,35,25,40,65,,HIMB,Keisha Bahr,Keisha Bahr and Kuulei Rodgers,Keisha Bahr and Kuulei Rodgers,Keisha Bahr,Broad Scale Surveys,1191,-157.8075122,21.43714132,,,,,,,
HIMB_BAHR_2015_KB,HIMB,Keisha Bahr,Oahu,Kaneohe Bay,PR 8,3,0.9144,"[0,5]",-157.79416,21.44595,2015/10/16,100,85,90,5,5,10,,HIMB,Keisha Bahr,Keisha Bahr and Kuulei Rodgers,Keisha Bahr and Kuulei Rodgers,Keisha Bahr,Broad Scale Surveys,957,-157.7984982,21.44616654,,,,,,,
DAR_KONA_2015,DLNR/DAR; PCSU,K. Lindsey Kramer,Hawaii,West Hawaii,Puak_,33,10.0584,"(10,15]",-155.8488,19.96988,2015/10/23,10,NA,50.4,20.9,28.7,49.6,9/2/2016,DLNR/DAR; PCSU,K. Lindsey Kramer,William Walsh,"K. Lindsey Kramer, William Walsh",K. Lindsey Kramer,Belt Transect - Colony Level Assessment,39713,-155.8514745,19.96603144,,,,,,,
DAR_KONA_2015,DLNR/DAR; PCSU,K. Lindsey Kramer,Hawaii,West Hawaii,Puak_,33,10.0584,"(10,15]",-155.8488,19.96988,2015/10/23,10,NA,49.6,17.9,32.5,50.4,9/2/2016,DLNR/DAR; PCSU,K. Lindsey Kramer,William Walsh,"K. Lindsey Kramer, William Walsh",K. Lindsey Kramer,Belt Transect - Colony Level Assessment,39713,-155.8514745,19.96603144,,,,,,,
DAR_KONA_2015,DLNR/DAR; PCSU,K. Lindsey Kramer,Hawaii,West Hawaii,Puak_,33,10.0584,"(10,15]",-155.8488,19.96988,2015/10/23,10,NA,32.5,25.8,41.7,67.5,9/2/2016,DLNR/DAR; PCSU,K. Lindsey Kramer,William Walsh,"K. Lindsey Kramer, William Walsh",K. Lindsey Kramer,Belt Transect - Colony Level Assessment,39713,-155.8514745,19.96603144,,,,,,,
TNC_2015,TNC,TNC,Hawaii,West Hawaii,Puako Deep,45,13.716,"(10,15]",-155.8489788,19.97039611,2015/10/20,30,NA,17.6091954,36.4969896,45.893815,82.39,9/23/2016,TNC,Courtney Couch,Eric Conklin,"Rebecca Most, Ryan Carr, Harry Lynch, Brett Schumacher, Eric Conklin",Courtney Couch,Belt Transect - Colony Level Assessment,39713,-155.8514745,19.96603144,,,,,,,
TNC_2015,TNC,TNC,Hawaii,West Hawaii,Puako Shallow,20,6.096,"(5,10]",-155.8487844,19.96988347,2015/10/20,30,NA,16.05417529,48.87853692,35.06728778,83.95,9/23/2016,TNC,Courtney Couch,Eric Conklin,"Rebecca Most, Ryan Carr, Harry Lynch, Brett Schumacher, Eric Conklin",Courtney Couch,Belt Transect - Colony Level Assessment,39713,-155.8514745,19.96603144,,,,,,,
HIMB_BAHR_2015_KB,HIMB,Keisha Bahr,Oahu,Kaneohe Bay,Pyramid FR,3,0.9144,"[0,5]",-157.77041,21.42792,2015/10/16,100,10,30,20,50,70,,HIMB,Keisha Bahr,Keisha Bahr and Kuulei Rodgers,Keisha Bahr and Kuulei Rodgers,Keisha Bahr,Broad Scale Surveys,1430,-157.7714562,21.42811611,,,,,,,
HIMB_BAROTT_2015,HIMB,Barott,Oahu,Kaneohe Bay,Reef 13,6,1.8288,"[0,5]",-157.7965,21.4515,2015/10/02,12.7908,85.88332157,59.15031145,33.4907428,7.358945753,40.85,10/4/2016,HIMB,Barott,Barott,"Barott, Gates",Barott,Photoquadrat,722,-157.7984982,21.45519175,,,,,,,
HIMB_BAROTT_2015,HIMB,Barott,Oahu,Kaneohe Bay,Reef 13,3,0.9144,"[0,5]",-157.7965,21.4515,2015/10/02,13.8006,74.16863968,45.64046724,35.61574932,18.74378344,54.36,10/4/2016,HIMB,Barott,Barott,"Barott, Gates",Barott,Photoquadrat,722,-157.7984982,21.45519175,,,,,,,
UH_WALL_2015,UH Manoa,C. Wall,Oahu,Kaneohe Bay,Reef 14,3,0.9144,"[0,5]",-157.8013,21.4524,2015/10/15,20,80,69,31,0,31.25,10/6/2016,UH Manoa,C Wall,C Wall_R Gates,C Wall,C Wall,Belt Transect - Point Intercept,722,-157.7984982,21.45519175,,,,,,,
UH_WALL_2015,UH Manoa,C. Wall,Oahu,Kaneohe Bay,Reef 14,3,0.9144,"[0,5]",-157.8013,21.4524,2015/10/15,20,75,67,33,0,33.33,10/6/2016,UH Manoa,C Wall,C Wall_R Gates,C Wall,C Wall,Belt Transect - Point Intercept,722,-157.7984982,21.45519175,,,,,,,
UH_WALL_2015,UH Manoa,C. Wall,Oahu,Kaneohe Bay,Reef 14,0.5,0.1524,"[0,5]",-157.8013,21.4524,2015/10/15,20,65,62,38,0,38.46,10/6/2016,UH Manoa,C Wall,C Wall_R Gates,C Wall,C Wall,Belt Transect - Point Intercept,722,-157.7984982,21.45519175,,,,,,,
UH_WALL_2015,UH Manoa,C. Wall,Oahu,Kaneohe Bay,Reef 14,0.5,0.1524,"[0,5]",-157.8013,21.4524,2015/10/15,20,50,50,50,0,50,10/6/2016,UH Manoa,C Wall,C Wall_R Gates,C Wall,C Wall,Belt Transect - Point Intercept,722,-157.7984982,21.45519175,,,,,,,
UH_WALL_2015,UH Manoa,C. Wall,Oahu,Kaneohe Bay,Reef 14,1,0.3048,"[0,5]",-157.8013,21.4524,2015/10/15,20,95,68,26,5,31.58,10/6/2016,UH Manoa,C Wall,C Wall_R Gates,C Wall,C Wall,Belt Transect - Point Intercept,722,-157.7984982,21.45519175,,,,,,,
UH_WALL_2015,UH Manoa,C. Wall,Oahu,Kaneohe Bay,Reef 14,1,0.3048,"[0,5]",-157.8013,21.4524,2015/10/15,20,55,45,36,18,54.55,10/6/2016,UH Manoa,C Wall,C Wall_R Gates,C Wall,C Wall,Belt Transect - Point Intercept,722,-157.7984982,21.45519175,,,,,,,
UH_LEVY_2015,UH Manoa,Joshua Levy,Oahu,Kaneohe Bay,Reef 20,3,0.9144,"[0,5]",-157.8097,21.46063,2015/10/29,1855,54.96834946,97.77181244,1.854758024,0.332241803,2.19,11/14/2016,HIMB/UH Manoa,Joshua Levy,HIMB,"Joshua Levy, Cynthia Hunter, Erik Franklin",Joshua Levy,sUAS Photogrammetry,486,-157.8075122,21.46421696,,,,,,,
HIMB_RRW_2015,HIMB,RRW,Oahu,Kaneohe Bay,Reef 25,1,0.3048,"[0,5]",-157.823279,21.460557,2015/10/22,60,53.44,43.18,53.79,3.03,56.82,,HIMB - Gates Lab,Raphael Ritson-Williams,Raphael Ritson-Williams and Ruth Gates,Raphael Ritson-Williams,Raphael Ritson-Williams,video transect,484,-157.8255402,21.46421696,,,,,,,
HIMB_RRW_2015,HIMB,RRW,Oahu,Kaneohe Bay,Reef 25,6,1.8288,"[0,5]",-157.823239,21.460287,2015/10/22,60,93.06,69.74,25,5.26,30.26,,HIMB - Gates Lab,Raphael Ritson-Williams,Raphael Ritson-Williams and Ruth Gates,Raphael Ritson-Williams,Raphael Ritson-Williams,video transect,484,-157.8255402,21.46421696,,,,,,,
HIMB_RRW_2015,HIMB,RRW,Oahu,Kaneohe Bay,Reef 25,6,1.8288,"[0,5]",-157.823279,21.460557,2015/10/22,60,85.66,43.54,49.76,6.7,56.46,,HIMB - Gates Lab,Raphael Ritson-Williams,Raphael Ritson-Williams and Ruth Gates,Raphael Ritson-Williams,Raphael Ritson-Williams,video transect,484,-157.8255402,21.46421696,,,,,,,
HIMB_RRW_2015,HIMB,RRW,Oahu,Kaneohe Bay,Reef 25,6,1.8288,"[0,5]",-157.823266,21.460386,2015/10/22,60,83.87,46.15,47.12,6.73,53.85,,HIMB - Gates Lab,Raphael Ritson-Williams,Raphael Ritson-Williams and Ruth Gates,Raphael Ritson-Williams,Raphael Ritson-Williams,video transect,484,-157.8255402,21.46421696,,,,,,,
UH_LEVY_2015,UH Manoa,Joshua Levy,Oahu,Kaneohe Bay,Reef 25,1,0.3048,"[0,5]",-157.822,21.461,2015/10/29,18314.8,9.606696129,93.09474,0,6.90526,6.91,11/14/2016,HIMB/UH Manoa,Joshua Levy,HIMB,"Joshua Levy, Cynthia Hunter, Erik Franklin",Joshua Levy,sUAS Photogrammetry,484,-157.8255402,21.46421696,,,,,,,
HIMB_RRW_2015,HIMB,RRW,Oahu,Kaneohe Bay,Reef 25,6,1.8288,"[0,5]",-157.823244,21.460597,2015/10/22,60,77.51,61.14,31.09,7.77,38.86,,HIMB - Gates Lab,Raphael Ritson-Williams,Raphael Ritson-Williams and Ruth Gates,Raphael Ritson-Williams,Raphael Ritson-Williams,video transect,484,-157.8255402,21.46421696,,,,,,,
HIMB_RRW_2015,HIMB,RRW,Oahu,Kaneohe Bay,Reef 25,6,1.8288,"[0,5]",-157.823258,21.46047,2015/10/22,60,86.75,66.67,25.46,7.87,33.33,,HIMB - Gates Lab,Raphael Ritson-Williams,Raphael Ritson-Williams and Ruth Gates,Raphael Ritson-Williams,Raphael Ritson-Williams,video transect,484,-157.8255402,21.46421696,,,,,,,
HIMB_RRW_2015,HIMB,RRW,Oahu,Kaneohe Bay,Reef 25,1,0.3048,"[0,5]",-157.823258,21.46047,2015/10/22,60,57.79,34.75,53.9,11.35,65.25,,HIMB - Gates Lab,Raphael Ritson-Williams,Raphael Ritson-Williams and Ruth Gates,Raphael Ritson-Williams,Raphael Ritson-Williams,video transect,484,-157.8255402,21.46421696,,,,,,,
HIMB_RRW_2015,HIMB,RRW,Oahu,Kaneohe Bay,Reef 25,1,0.3048,"[0,5]",-157.823195,21.460116,2015/10/22,60,89.67,23.97,56.68,19.35,76.03,,HIMB - Gates Lab,Raphael Ritson-Williams,Raphael Ritson-Williams and Ruth Gates,Raphael Ritson-Williams,Raphael Ritson-Williams,video transect,484,-157.8255402,21.46421696,,,,,,,
HIMB_RRW_2015,HIMB,RRW,Oahu,Kaneohe Bay,Reef 25,1,0.3048,"[0,5]",-157.823252,21.46042,2015/10/22,60,78.14,33.68,41.97,24.35,66.32,,HIMB - Gates Lab,Raphael Ritson-Williams,Raphael Ritson-Williams and Ruth Gates,Raphael Ritson-Williams,Raphael Ritson-Williams,video transect,484,-157.8255402,21.46421696,,,,,,,
HIMB_RRW_2015,HIMB,RRW,Oahu,Kaneohe Bay,Reef 25,1,0.3048,"[0,5]",-157.823278,21.460432,2015/10/22,60,82.93,27.94,42.65,29.41,72.06,,HIMB - Gates Lab,Raphael Ritson-Williams,Raphael Ritson-Williams and Ruth Gates,Raphael Ritson-Williams,Raphael Ritson-Williams,video transect,484,-157.8255402,21.46421696,,,,,,,
HIMB_BAROTT_2015,HIMB,Barott,Oahu,Kaneohe Bay,Reef 4,6,1.8288,"[0,5]",-157.7982,21.4339,2015/10/02,13.464,47.80563261,21.76267778,30.43406643,47.80325578,78.24,10/4/2016,HIMB,Barott,Barott,"Barott, Gates",Barott,Photoquadrat,1192,-157.7984982,21.43714132,,,,,,,
HIMB_BAROTT_2015,HIMB,Barott,Oahu,Kaneohe Bay,Reef 4,3,0.9144,"[0,5]",-157.7982,21.4339,2015/10/02,14.1372,57.12601363,20.09870428,26.15777259,53.74352313,79.9,10/4/2016,HIMB,Barott,Barott,"Barott, Gates",Barott,Photoquadrat,1192,-157.7984982,21.43714132,,,,,,,
UH_LEVY_2015,UH Manoa,Joshua Levy,Oahu,Kaneohe Bay,Reef 42,5,1.524,"[0,5]",-157.825,21.477,2015/10/25,16631.4,56.03392029,96.29454041,2.559340954,1.146119714,3.71,11/14/2016,HIMB/UH Manoa,Joshua Levy,HIMB,"Joshua Levy, Cynthia Hunter, Erik Franklin",Joshua Levy,sUAS Photogrammetry,249,-157.8255402,21.47324218,,,,,,,
HIMB_RRW_2015,HIMB,RRW,Oahu,Kaneohe Bay,Reef 44,6,1.8288,"[0,5]",-157.833481,21.476598,2015/10/22,60,78.1,54.79,44.68,0.53,45.21,,HIMB - Gates Lab,Raphael Ritson-Williams,Raphael Ritson-Williams and Ruth Gates,Raphael Ritson-Williams,Raphael Ritson-Williams,video transect,248,-157.8345542,21.47324218,,,,,,,
HIMB_RRW_2015,HIMB,RRW,Oahu,Kaneohe Bay,Reef 44,6,1.8288,"[0,5]",-157.833349,21.476518,2015/10/22,60,68.83,48.23,47.65,4.12,51.77,,HIMB - Gates Lab,Raphael Ritson-Williams,Raphael Ritson-Williams and Ruth Gates,Raphael Ritson-Williams,Raphael Ritson-Williams,video transect,248,-157.8345542,21.47324218,,,,,,,
HIMB_RRW_2015,HIMB,RRW,Oahu,Kaneohe Bay,Reef 44,6,1.8288,"[0,5]",-157.832852,21.476378,2015/10/22,60,76.21,70.37,23.81,5.82,29.63,,HIMB - Gates Lab,Raphael Ritson-Williams,Raphael Ritson-Williams and Ruth Gates,Raphael Ritson-Williams,Raphael Ritson-Williams,video transect,248,-157.8345542,21.47324218,,,,,,,
HIMB_RRW_2015,HIMB,RRW,Oahu,Kaneohe Bay,Reef 44,6,1.8288,"[0,5]",-157.832542,21.476412,2015/10/22,60,70.4,52.02,41.04,6.94,47.98,,HIMB - Gates Lab,Raphael Ritson-Williams,Raphael Ritson-Williams and Ruth Gates,Raphael Ritson-Williams,Raphael Ritson-Williams,video transect,248,-157.8345542,21.47324218,,,,,,,
HIMB_RRW_2015,HIMB,RRW,Oahu,Kaneohe Bay,Reef 44,6,1.8288,"[0,5]",-157.83315,21.476408,2015/10/22,60,90.24,52.7,40.09,7.21,47.3,,HIMB - Gates Lab,Raphael Ritson-Williams,Raphael Ritson-Williams and Ruth Gates,Raphael Ritson-Williams,Raphael Ritson-Williams,video transect,248,-157.8345542,21.47324218,,,,,,,
HIMB_RRW_2015,HIMB,RRW,Oahu,Kaneohe Bay,Reef 44,1,0.3048,"[0,5]",-157.833376,21.476558,2015/10/22,60,57.79,25.53,65.96,8.51,74.47,,HIMB - Gates Lab,Raphael Ritson-Williams,Raphael Ritson-Williams and Ruth Gates,Raphael Ritson-Williams,Raphael Ritson-Williams,video transect,248,-157.8345542,21.47324218,,,,,,,
HIMB_RRW_2015,HIMB,RRW,Oahu,Kaneohe Bay,Reef 44,1,0.3048,"[0,5]",-157.832719,21.476403,2015/10/22,60,40.16,35.71,51.02,13.27,64.29,,HIMB - Gates Lab,Raphael Ritson-Williams,Raphael Ritson-Williams and Ruth Gates,Raphael Ritson-Williams,Raphael Ritson-Williams,video transect,248,-157.8345542,21.47324218,,,,,,,
HIMB_RRW_2015,HIMB,RRW,Oahu,Kaneohe Bay,Reef 44,1,0.3048,"[0,5]",-157.833051,21.476407,2015/10/22,60,51,39.37,37.01,23.62,60.63,,HIMB - Gates Lab,Raphael Ritson-Williams,Raphael Ritson-Williams and Ruth Gates,Raphael Ritson-Williams,Raphael Ritson-Williams,video transect,248,-157.8345542,21.47324218,,,,,,,
HIMB_RRW_2015,HIMB,RRW,Oahu,Kaneohe Bay,Reef 44,1,0.3048,"[0,5]",-157.833296,21.476512,2015/10/22,60,41.67,29,46,25,71,,HIMB - Gates Lab,Raphael Ritson-Williams,Raphael Ritson-Williams and Ruth Gates,Raphael Ritson-Williams,Raphael Ritson-Williams,video transect,248,-157.8345542,21.47324218,,,,,,,
HIMB_RRW_2015,HIMB,RRW,Oahu,Kaneohe Bay,Reef 44,1,0.3048,"[0,5]",-157.832885,21.476405,2015/10/22,60,47.74,29.31,28.45,42.24,70.69,,HIMB - Gates Lab,Raphael Ritson-Williams,Raphael Ritson-Williams and Ruth Gates,Raphael Ritson-Williams,Raphael Ritson-Williams,video transect,248,-157.8345542,21.47324218,,,,,,,
HIMB_RRW_2015,HIMB,RRW,Oahu,Kaneohe Bay,Reef HIMB,6,1.8288,"[0,5]",-157.790932,21.435809,2015/10/22,60,62.8,71.98,24.2,3.82,28.02,,HIMB - Gates Lab,Raphael Ritson-Williams,Raphael Ritson-Williams and Ruth Gates,Raphael Ritson-Williams,Raphael Ritson-Williams,video transect,1193,-157.7894842,21.43714132,,,,,,,
HIMB_RRW_2015,HIMB,RRW,Oahu,Kaneohe Bay,Reef HIMB,6,1.8288,"[0,5]",-157.790634,21.435779,2015/10/22,60,54.22,55.55,39.26,5.19,44.45,,HIMB - Gates Lab,Raphael Ritson-Williams,Raphael Ritson-Williams and Ruth Gates,Raphael Ritson-Williams,Raphael Ritson-Williams,video transect,1193,-157.7894842,21.43714132,,,,,,,
HIMB_RRW_2015,HIMB,RRW,Oahu,Kaneohe Bay,Reef HIMB,1,0.3048,"[0,5]",-157.792064,21.435985,2015/10/22,60,60.73,42,45.33,12.67,58,,HIMB - Gates Lab,Raphael Ritson-Williams,Raphael Ritson-Williams and Ruth Gates,Raphael Ritson-Williams,Raphael Ritson-Williams,video transect,1193,-157.7894842,21.43714132,,,,,,,
HIMB_RRW_2015,HIMB,RRW,Oahu,Kaneohe Bay,Reef HIMB,6,1.8288,"[0,5]",-157.791497,21.43569,2015/10/22,60,51.6,37.99,48.06,13.95,62.01,,HIMB - Gates Lab,Raphael Ritson-Williams,Raphael Ritson-Williams and Ruth Gates,Raphael Ritson-Williams,Raphael Ritson-Williams,video transect,1193,-157.7894842,21.43714132,,,,,,,
HIMB_RRW_2015,HIMB,RRW,Oahu,Kaneohe Bay,Reef HIMB,1,0.3048,"[0,5]",-157.791468,21.435925,2015/10/22,60,63.82,33.75,50.96,15.29,66.25,,HIMB - Gates Lab,Raphael Ritson-Williams,Raphael Ritson-Williams and Ruth Gates,Raphael Ritson-Williams,Raphael Ritson-Williams,video transect,1193,-157.7894842,21.43714132,,,,,,,
HIMB_RRW_2015,HIMB,RRW,Oahu,Kaneohe Bay,Reef HIMB,1,0.3048,"[0,5]",-157.791766,21.435955,2015/10/22,60,69.14,20.83,62.5,16.67,79.17,,HIMB - Gates Lab,Raphael Ritson-Williams,Raphael Ritson-Williams and Ruth Gates,Raphael Ritson-Williams,Raphael Ritson-Williams,video transect,1193,-157.7894842,21.43714132,,,,,,,
HIMB_RRW_2015,HIMB,RRW,Oahu,Kaneohe Bay,Reef HIMB,6,1.8288,"[0,5]",-157.791528,21.435869,2015/10/22,60,52,57.69,24.62,17.69,42.31,,HIMB - Gates Lab,Raphael Ritson-Williams,Raphael Ritson-Williams and Ruth Gates,Raphael Ritson-Williams,Raphael Ritson-Williams,video transect,1193,-157.7894842,21.43714132,,,,,,,
HIMB_RRW_2015,HIMB,RRW,Oahu,Kaneohe Bay,Reef HIMB,6,1.8288,"[0,5]",-157.79123,21.435839,2015/10/22,60,36,53.34,22.22,24.44,46.66,,HIMB - Gates Lab,Raphael Ritson-Williams,Raphael Ritson-Williams and Ruth Gates,Raphael Ritson-Williams,Raphael Ritson-Williams,video transect,1193,-157.7894842,21.43714132,,,,,,,
HIMB_RRW_2015,HIMB,RRW,Oahu,Kaneohe Bay,Reef HIMB,1,0.3048,"[0,5]",-157.791524,21.435912,2015/10/22,60,51.41,24.22,39.84,35.94,75.78,,HIMB - Gates Lab,Raphael Ritson-Williams,Raphael Ritson-Williams and Ruth Gates,Raphael Ritson-Williams,Raphael Ritson-Williams,video transect,1193,-157.7894842,21.43714132,,,,,,,
HIMB_RRW_2015,HIMB,RRW,Oahu,Kaneohe Bay,Reef HIMB,1,0.3048,"[0,5]",-157.791528,21.435869,2015/10/22,60,62.65,15.39,27.56,57.05,84.61,,HIMB - Gates Lab,Raphael Ritson-Williams,Raphael Ritson-Williams and Ruth Gates,Raphael Ritson-Williams,Raphael Ritson-Williams,video transect,1193,-157.7894842,21.43714132,,,,,,,
HIMB_RRW_2015,HIMB,RRW,Oahu,Kaneohe Bay,Reef42,1,0.3048,"[0,5]",-157.825265,21.476845,2015/10/22,60,57.58,56.14,40.35,3.51,43.86,,HIMB - Gates Lab,Raphael Ritson-Williams,Raphael Ritson-Williams and Ruth Gates,Raphael Ritson-Williams,Raphael Ritson-Williams,video transect,249,-157.8255402,21.47324218,,,,,,,
HIMB_RRW_2015,HIMB,RRW,Oahu,Kaneohe Bay,Reef42,6,1.8288,"[0,5]",-157.824431,21.476699,2015/10/22,60,76,53.68,41.58,4.74,46.32,,HIMB - Gates Lab,Raphael Ritson-Williams,Raphael Ritson-Williams and Ruth Gates,Raphael Ritson-Williams,Raphael Ritson-Williams,video transect,249,-157.8255402,21.47324218,,,,,,,
HIMB_RRW_2015,HIMB,RRW,Oahu,Kaneohe Bay,Reef42,6,1.8288,"[0,5]",-157.824729,21.476729,2015/10/22,60,58.63,74.66,20.55,4.79,25.34,,HIMB - Gates Lab,Raphael Ritson-Williams,Raphael Ritson-Williams and Ruth Gates,Raphael Ritson-Williams,Raphael Ritson-Williams,video transect,249,-157.8255402,21.47324218,,,,,,,
HIMB_RRW_2015,HIMB,RRW,Oahu,Kaneohe Bay,Reef42,6,1.8288,"[0,5]",-157.824133,21.476669,2015/10/22,60,82.73,66.99,28.16,4.85,33.01,,HIMB - Gates Lab,Raphael Ritson-Williams,Raphael Ritson-Williams and Ruth Gates,Raphael Ritson-Williams,Raphael Ritson-Williams,video transect,249,-157.8255402,21.47324218,,,,,,,
HIMB_RRW_2015,HIMB,RRW,Oahu,Kaneohe Bay,Reef42,1,0.3048,"[0,5]",-157.825861,21.476905,2015/10/22,60,90.91,68.89,24.44,6.67,31.11,,HIMB - Gates Lab,Raphael Ritson-Williams,Raphael Ritson-Williams and Ruth Gates,Raphael Ritson-Williams,Raphael Ritson-Williams,video transect,249,-157.8255402,21.47324218,,,,,,,
HIMB_RRW_2015,HIMB,RRW,Oahu,Kaneohe Bay,Reef42,6,1.8288,"[0,5]",-157.823835,21.476639,2015/10/22,60,83.67,31.22,60.98,7.8,68.78,,HIMB - Gates Lab,Raphael Ritson-Williams,Raphael Ritson-Williams and Ruth Gates,Raphael Ritson-Williams,Raphael Ritson-Williams,video transect,249,-157.8255402,21.47324218,,,,,,,
HIMB_RRW_2015,HIMB,RRW,Oahu,Kaneohe Bay,Reef42,6,1.8288,"[0,5]",-157.825027,21.476759,2015/10/22,60,70.97,46.59,43.75,9.66,53.41,,HIMB - Gates Lab,Raphael Ritson-Williams,Raphael Ritson-Williams and Ruth Gates,Raphael Ritson-Williams,Raphael Ritson-Williams,video transect,249,-157.8255402,21.47324218,,,,,,,
HIMB_RRW_2015,HIMB,RRW,Oahu,Kaneohe Bay,Reef42,1,0.3048,"[0,5]",-157.824669,21.476785,2015/10/22,60,87.24,51.89,33.96,14.15,48.11,,HIMB - Gates Lab,Raphael Ritson-Williams,Raphael Ritson-Williams and Ruth Gates,Raphael Ritson-Williams,Raphael Ritson-Williams,video transect,249,-157.8255402,21.47324218,,,,,,,
HIMB_RRW_2015,HIMB,RRW,Oahu,Kaneohe Bay,Reef42,1,0.3048,"[0,5]",-157.824967,21.476815,2015/10/22,60,93.9,32.9,50.65,16.45,67.1,,HIMB - Gates Lab,Raphael Ritson-Williams,Raphael Ritson-Williams and Ruth Gates,Raphael Ritson-Williams,Raphael Ritson-Williams,video transect,249,-157.8255402,21.47324218,,,,,,,
HIMB_RRW_2015,HIMB,RRW,Oahu,Kaneohe Bay,Reef42,1,0.3048,"[0,5]",-157.825563,21.476875,2015/10/22,60,83.4,26.21,37.38,36.41,73.79,,HIMB - Gates Lab,Raphael Ritson-Williams,Raphael Ritson-Williams and Ruth Gates,Raphael Ritson-Williams,Raphael Ritson-Williams,video transect,249,-157.8255402,21.47324218,,,,,,,
DAR_KONA_2015,DLNR/DAR; PCSU,K. Lindsey Kramer,Hawaii,West Hawaii,S. Oneo Bay,36,10.9728,"(10,15]",-155.993,19.6312,2015/10/16,10,NA,54.8,15.3,30.6,45.9,9/2/2016,DLNR/DAR; PCSU,K. Lindsey Kramer,William Walsh,"K. Lindsey Kramer, William Walsh",K. Lindsey Kramer,Belt Transect - Colony Level Assessment,48392,-155.9956985,19.63209852,,,,,,,
DAR_KONA_2015,DLNR/DAR; PCSU,K. Lindsey Kramer,Hawaii,West Hawaii,S. Oneo Bay,36,10.9728,"(10,15]",-155.993,19.6312,2015/10/16,10,NA,26.2,38.9,36.9,75.8,9/2/2016,DLNR/DAR; PCSU,K. Lindsey Kramer,William Walsh,"K. Lindsey Kramer, William Walsh",K. Lindsey Kramer,Belt Transect - Colony Level Assessment,48392,-155.9956985,19.63209852,,,,,,,
DAR_KONA_2015,DLNR/DAR; PCSU,K. Lindsey Kramer,Hawaii,West Hawaii,S. Oneo Bay,36,10.9728,"(10,15]",-155.993,19.6312,2015/10/16,10,NA,19.9,31.8,51,82.8,9/2/2016,DLNR/DAR; PCSU,K. Lindsey Kramer,William Walsh,"K. Lindsey Kramer, William Walsh",K. Lindsey Kramer,Belt Transect - Colony Level Assessment,48392,-155.9956985,19.63209852,,,,,,,
TNC_2015,TNC,TNC,Hawaii,West Hawaii,Spencer Beach Park Deep,45,13.716,"(10,15]",-155.8312052,20.02040296,2015/10/19,30,NA,23.66495303,48.50065055,27.83439642,76.34,9/23/2016,TNC,Courtney Couch,Eric Conklin,"Rebecca Most, Ryan Carr, Harry Lynch, Brett Schumacher, Eric Conklin",Courtney Couch,Belt Transect - Colony Level Assessment,38305,-155.8334465,20.02018272,,,,,,,
TNC_2015,TNC,TNC,Hawaii,West Hawaii,Spencer Beach Park Shallow,20,6.096,"(5,10]",-155.8299388,20.02049558,2015/10/16,30,NA,8.867117098,39.90206144,51.23082146,91.13,9/23/2016,TNC,Courtney Couch,Eric Conklin,"Rebecca Most, Ryan Carr, Harry Lynch, Brett Schumacher, Eric Conklin",Courtney Couch,Belt Transect - Colony Level Assessment,38305,-155.8334465,20.02018272,,,,,,,
DAR_KONA_2015,DLNR/DAR; PCSU,K. Lindsey Kramer,Hawaii,West Hawaii,Waiakailio,46,14.0208,"(10,15]",-155.86452,20.07392,2015/10/20,10,NA,51.5,21,27.9,48.9,9/2/2016,DLNR/DAR; PCSU,K. Lindsey Kramer,William Walsh,"K. Lindsey Kramer, William Walsh",K. Lindsey Kramer,Belt Transect - Colony Level Assessment,36892,-155.8604885,20.07433401,,,,,,,
DAR_KONA_2015,DLNR/DAR; PCSU,K. Lindsey Kramer,Hawaii,West Hawaii,Waiakailio,46,14.0208,"(10,15]",-155.86452,20.07392,2015/10/20,10,NA,45.9,17.7,36.8,54.5,9/2/2016,DLNR/DAR; PCSU,K. Lindsey Kramer,William Walsh,"K. Lindsey Kramer, William Walsh",K. Lindsey Kramer,Belt Transect - Colony Level Assessment,36892,-155.8604885,20.07433401,,,,,,,
HIMB_BAHR_2015_HB,HIMB,Keisha Bahr,Oahu,Hanauma Bay,WB 4a,3,0.9144,"[0,5]",-157.696936,21.26875,2015/10/20,75,18.18,18.18,16.36,65.45,81.82,,HIMB,Keisha Bahr,Keisha Bahr and Kuulei Rodgers,Keisha Bahr and Kuulei Rodgers,Keisha Bahr,Belt Transect - Colony Level Assessment,5668,-157.6993442,21.26566226,,,,,,,
HIMB_BAHR_2015_HB,HIMB,Keisha Bahr,Oahu,Hanauma Bay,WB 4b,3,0.9144,"[0,5]",-157.696914,21.268477,2015/10/20,75,37.94,44.41,11.18,44.41,55.59,,HIMB,Keisha Bahr,Keisha Bahr and Kuulei Rodgers,Keisha Bahr and Kuulei Rodgers,Keisha Bahr,Belt Transect - Colony Level Assessment,5668,-157.6993442,21.26566226,,,,,,,
